HIERARCHY
ROOT Hips
{
	OFFSET -0.179506 -22.333345 2.821913
	CHANNELS 6 Xposition Yposition Zposition Zrotation Yrotation Xrotation 
	JOINT LeftUpLeg
	{
		OFFSET 6.951974 -9.140623 -0.681533
		CHANNELS 3 Zrotation Yrotation Xrotation
		JOINT LeftLeg
		{
			OFFSET 3.427654 -37.519855 -0.449580
			CHANNELS 3 Zrotation Yrotation Xrotation
			JOINT LeftFoot
			{
				OFFSET -1.359570 -39.796059 -4.369333
				CHANNELS 3 Zrotation Yrotation Xrotation
				JOINT LeftToe
				{
					OFFSET 2.635814 -5.579078 11.928840
					CHANNELS 3 Zrotation Yrotation Xrotation
					End Site
					{
						OFFSET 0.000000 0.000000 0.000000
					}
				}
			}
		}
	}
	JOINT RightUpLeg
	{
		OFFSET -6.767048 -9.052170 -0.431982
		CHANNELS 3 Zrotation Yrotation Xrotation
		JOINT RightLeg
		{
			OFFSET -3.829005 -38.256897 -0.885003
			CHANNELS 3 Zrotation Yrotation Xrotation
			JOINT RightFoot
			{
				OFFSET 1.577377 -39.841461 -4.231180
				CHANNELS 3 Zrotation Yrotation Xrotation
				JOINT RightToe
				{
					OFFSET -2.537174 -4.814398 12.334795
					CHANNELS 3 Zrotation Yrotation Xrotation
					End Site
					{
						OFFSET 0.000000 0.000000 0.000000
					}
				}
			}
		}
	}
	JOINT Spine
	{
		OFFSET -0.253288 10.896323 -2.669631
		CHANNELS 3 Zrotation Yrotation Xrotation
		JOINT Spine1
		{
			OFFSET 0.548704 13.518043 0.109247
			CHANNELS 3 Zrotation Yrotation Xrotation
			JOINT Spine2
			{
				OFFSET 0.145701 5.292222 2.542457
				CHANNELS 3 Zrotation Yrotation Xrotation
				JOINT Neck
				{
					OFFSET -0.277840 21.387037 -4.285703
					CHANNELS 3 Zrotation Yrotation Xrotation
					JOINT Head
					{
						OFFSET 0.515184 6.496960 5.134897
						CHANNELS 3 Zrotation Yrotation Xrotation
						End Site
						{
							OFFSET 0.000000 0.000000 0.000000
						}
					}
				}
				JOINT LeftShoulder
				{
					OFFSET 7.884473 12.174932 -3.408961
					CHANNELS 3 Zrotation Yrotation Xrotation
					JOINT LeftArm
					{
						OFFSET 9.097692 3.046888 -0.886815
						CHANNELS 3 Zrotation Yrotation Xrotation
						JOINT LeftForeArm
						{
							OFFSET 25.961220 -1.277207 -2.745643
							CHANNELS 3 Zrotation Yrotation Xrotation
							JOINT LeftHand
							{
								OFFSET 24.923361 0.898606 -0.117091
								CHANNELS 3 Zrotation Yrotation Xrotation
								End Site
								{
									OFFSET 0.000000 0.000000 0.000000
								}
							}
						}
					}
				}
				JOINT RightShoulder
				{
					OFFSET -8.175920 11.883285 -3.861528
					CHANNELS 3 Zrotation Yrotation Xrotation
					JOINT RightArm
					{
						OFFSET -9.601238 3.255117 -0.914307
						CHANNELS 3 Zrotation Yrotation Xrotation
						JOINT RightForeArm
						{
							OFFSET -25.374195 -1.332924 -2.140099
							CHANNELS 3 Zrotation Yrotation Xrotation
							JOINT RightHand
							{
								OFFSET -25.529810 0.777228 -0.555919
								CHANNELS 3 Zrotation Yrotation Xrotation
								End Site
								{
									OFFSET 0.000000 0.000000 0.000000
								}
							}
						}
					}
				}
			}
		}
	}
}
MOTION
Frames: 90
Frame Time: 0.033333
-0.179506 100.054436 2.821913 170.261977 46.694182 179.522542 7.712036 2.370782 -41.749077 -2.005011 16.860246 10.159713 -11.674607 9.814869 19.162983 4.559260 -0.326606 1.338578 -4.587512 -10.682688 13.883575 -3.014659 -0.313459 16.995519 3.649818 -10.299505 -1.527871 3.784012 -1.381593 1.407588 3.115899 7.347683 5.150269 -8.981668 1.991634 3.156366 0.355530 2.841714 -4.712612 -8.807922 1.406770 7.735373 0.038181 15.988800 1.361063 -6.988169 -1.721808 3.446659 -16.102974 7.941998 24.936350 -133.227312 -53.724746 143.463895 -6.087795 -27.975662 -4.728309 -32.522903 10.969211 -17.639536 -15.379316 18.920033 -31.281104 -136.871229 59.216995 -142.105368 2.446825 14.243673 -5.136795 
1.666202 101.262955 0.446226 170.748415 46.569573 -178.377366 6.793146 1.102789 -39.630124 -1.461521 16.389665 8.333374 -11.932536 10.497930 19.528105 5.273089 -0.746535 1.350231 -4.466345 -11.065534 14.298561 -2.835194 -1.383278 16.023751 5.261881 -9.837795 4.364982 3.298801 -1.063766 1.375354 2.145972 8.009666 3.759126 -8.628720 2.609775 3.200216 0.767935 3.283535 -4.744287 -8.368653 0.745637 7.413557 0.435594 13.288027 2.144826 -6.972377 0.624142 4.005312 -14.853484 8.812195 25.117024 -135.522153 -53.892777 143.677700 -5.158233 -29.959005 -7.946080 -30.400317 10.643224 -16.419372 -13.867259 18.920652 -29.783800 -137.690972 57.678132 -142.502666 0.702050 15.918767 -6.278457 
3.612196 103.322334 -2.034544 170.708703 45.504846 -176.860219 5.517604 -0.564013 -36.540604 -0.993165 15.127985 6.589083 -12.032829 10.232716 20.006500 5.233398 -0.575128 1.578958 -4.530632 -10.995447 13.845950 -2.889300 -2.403981 15.381323 7.164649 -10.166315 10.295814 2.648004 -0.952382 1.629804 0.765378 8.629799 1.808829 -7.942329 3.244661 3.760374 1.050245 3.836936 -5.395421 -8.152712 -0.265796 7.784919 0.150206 10.781895 2.715193 -7.373745 2.614372 4.690791 -13.644187 8.903545 25.201322 -136.566268 -54.166281 143.128754 -3.689694 -30.837708 -9.228691 -27.740949 10.655905 -15.278835 -11.897454 19.403673 -28.142238 -140.841186 57.270292 -144.914452 -0.544017 16.183325 -7.159712 
5.333219 106.062027 -4.274395 170.827400 43.232208 -175.366699 3.886501 -1.726767 -33.240934 -1.065233 14.407158 5.738935 -11.990088 10.108653 21.523188 5.115739 -0.689066 1.665562 -3.760294 -11.481999 12.710864 -2.534843 -4.705495 14.717088 8.386967 -10.844827 15.184719 2.139136 -0.611215 1.754430 -0.466725 8.901504 0.601529 -7.114075 3.746973 3.510658 1.051966 4.059177 -5.390876 -7.359775 -1.832815 7.850536 0.507510 7.646921 3.246951 -7.605125 4.500700 5.251833 -13.622789 9.120178 24.701696 -136.281090 -54.991154 141.947826 -2.046443 -30.746149 -11.265346 -24.280408 10.244833 -13.252675 -8.597813 19.425601 -25.205711 -144.915847 56.880956 -147.885837 -1.748762 15.944705 -8.107661 
7.015232 109.215851 -6.345775 171.088510 40.774330 -175.391221 2.213121 -2.641410 -29.423448 -1.141655 13.973231 4.810802 -12.029846 9.629642 23.352387 4.613788 -0.515045 1.662791 -3.080437 -11.967725 9.995507 -2.117010 -7.784166 14.916980 9.738483 -12.034510 21.665295 1.311417 -0.253004 1.694449 -1.732325 8.986849 0.188998 -6.089152 4.297016 3.495214 1.241898 4.206392 -4.783866 -6.635584 -3.290602 7.318466 0.854683 4.744472 3.155165 -8.303683 6.813758 5.642867 -14.539362 10.063529 24.453076 -135.872884 -56.463298 140.158407 -3.953484 -30.704581 -13.785048 -20.313226 9.342861 -11.969144 -2.878613 20.176340 -20.936160 -146.548738 55.645450 -148.253069 -0.361849 15.667521 -11.050135 
8.598607 112.304245 -8.098712 171.529692 38.540737 -174.397634 0.388670 -3.340829 -26.090673 -1.715265 13.562978 5.942775 -11.263628 9.216899 25.397899 3.010198 0.023048 1.933618 -1.636482 -12.078504 5.931622 -1.762974 -11.454098 14.474953 10.224037 -13.380487 27.608996 0.937137 -0.541462 1.508928 -2.802600 8.426705 -0.164123 -4.501864 4.747534 3.824046 1.313727 3.948798 -4.576729 -5.999444 -4.069033 7.154170 1.530164 1.964486 3.136768 -9.380096 9.093867 6.948565 -16.210783 11.448530 24.599570 -133.665994 -57.840601 137.012498 -6.233570 -30.777772 -14.554612 -16.297200 8.041556 -10.110102 4.183503 19.206651 -15.141618 -152.030821 56.168800 -152.388705 2.397742 15.394032 -13.823766 
10.451080 114.718124 -9.948734 172.906250 35.669471 -173.106133 -0.304569 -3.278250 -22.935866 -1.705448 12.865308 7.033004 -10.816045 9.301062 27.484846 1.964831 0.758703 2.492519 0.128963 -11.286187 0.872165 -1.895404 -14.224213 15.001338 9.405959 -14.561186 30.934943 1.269343 -1.346392 1.461684 -3.726896 7.502834 -0.376747 -2.859665 4.714198 4.123123 1.891899 3.321900 -3.987344 -5.824136 -5.297650 6.131735 2.557742 0.069606 2.566878 -10.628104 11.653252 8.703107 -18.329959 13.539799 24.757236 -130.819273 -59.030689 132.541631 -7.691112 -30.983750 -16.604849 -12.335442 6.624903 -8.555579 12.443126 17.479586 -9.331775 -156.723876 57.141617 -156.784218 4.733620 15.354879 -16.705603 
12.369122 116.208374 -12.159516 173.805073 33.409543 -172.203571 -0.659817 -3.420606 -19.843872 -1.524916 11.419481 6.342572 -10.326008 10.166398 28.010282 2.065269 0.576568 2.608809 0.711715 -9.210831 -3.569663 -1.581109 -14.609728 13.955464 8.660408 -15.523304 32.092666 0.756482 -1.066507 1.557107 -3.886836 6.448855 0.212667 -1.734877 4.204984 3.754737 2.367603 2.858500 -3.269639 -5.398404 -6.883294 4.492365 3.433050 -1.324505 1.711420 -11.439154 13.322967 9.573973 -22.099814 14.712088 25.770024 -124.534703 -60.555066 124.978041 -9.914551 -31.682941 -21.246332 -8.634791 5.167781 -7.056852 19.811363 15.920079 -3.566443 -160.397218 62.070570 -160.786655 7.937737 16.401695 -19.736729 
13.761270 116.872040 -14.112671 174.380015 31.381331 -172.940239 -0.644882 -2.703224 -16.192821 -1.235385 9.496862 5.638354 -10.826609 9.729187 28.908079 1.627874 1.147202 3.095948 0.467959 -7.630829 -8.109394 -1.579622 -15.288101 11.935022 7.608359 -15.669712 32.435952 0.649456 -1.275272 1.949914 -3.690434 5.241803 0.330962 -0.163460 3.247638 4.699786 2.435393 2.721639 -3.327822 -5.464843 -7.897285 3.554600 3.997989 -1.770082 1.349645 -13.344900 13.537312 10.296086 -24.389350 15.368212 26.369728 -117.214929 -61.144765 116.509728 -13.232245 -31.558819 -21.019650 -4.444972 4.763610 -5.118547 24.600559 13.185561 0.429094 -165.156842 63.716883 -166.314169 10.885832 16.042041 -18.719121 
14.818506 116.501419 -15.925426 175.251678 29.486790 -173.903452 -0.556361 -1.402472 -12.297974 -0.684262 8.203240 5.438841 -10.681230 10.049434 28.262931 1.717323 1.078368 3.148865 0.086643 -6.040017 -12.801258 -2.352143 -15.561054 11.218730 6.680337 -15.508304 32.024677 0.754870 -1.274510 1.993236 -3.338004 3.582588 2.001661 1.008526 2.599766 3.909861 2.859468 2.166031 -2.751643 -4.638910 -8.133914 2.600135 4.639629 -2.210321 1.029052 -14.362220 14.999168 10.800852 -28.047575 15.592615 26.643725 -109.783141 -61.672273 109.174073 -14.773005 -30.395863 -22.321180 -1.264689 3.414954 -4.044042 31.810518 10.954884 5.189956 -166.225961 72.097472 -166.707074 12.713212 14.855941 -18.015123 
15.673806 114.962479 -17.616966 175.807593 27.886272 -175.432739 0.123184 0.027155 -8.085033 -0.027202 6.298392 5.899938 -10.427075 9.712181 25.960089 1.049546 1.635526 3.382085 -0.867712 -5.573553 -17.304523 -2.664497 -16.542891 8.784768 5.661324 -15.084525 30.010299 1.877218 -1.827855 1.972936 -2.838442 1.810140 3.979144 1.928579 2.144373 3.533318 3.247274 1.487211 -2.263357 -3.635362 -7.889657 1.458494 4.970934 -2.422325 0.985682 -14.823525 15.736368 10.533204 -30.693011 15.055777 27.225077 -104.806515 -61.359545 104.954566 -14.963770 -30.496383 -22.528269 1.028635 2.018951 -3.707531 36.403977 8.277418 8.326818 -165.787888 79.885122 -166.785905 13.498396 14.313398 -18.125014 
16.513353 112.196503 -19.354370 175.858084 26.144291 -177.036878 0.550348 1.785993 -4.255548 -0.160067 4.221784 6.773154 -10.518295 9.485767 23.441441 0.999344 1.122815 2.988262 -2.383996 -6.077676 -21.751510 -2.276106 -18.349854 5.088806 4.868740 -15.468586 28.303493 1.608735 -1.155168 1.975690 -2.693617 0.319584 5.855203 2.735763 1.666417 3.491197 3.683026 0.978851 -1.470315 -2.648005 -7.595169 -0.476760 5.593682 -2.734301 0.327662 -15.156811 16.122954 10.329797 -33.674374 14.312765 27.674466 -102.007579 -61.268037 102.559354 -14.774448 -30.119196 -22.418011 3.326007 0.511137 -2.931278 41.395014 5.908507 10.054743 -56.374344 86.197305 -58.888429 12.245439 12.584339 -18.759119 
18.025303 108.348740 -21.518570 175.152036 25.547240 -179.170183 1.217571 2.961580 1.632029 -0.619690 1.666588 7.389501 -8.888768 8.825675 14.955110 0.156819 1.676670 2.707201 -4.247687 -7.867163 -26.162350 -1.597505 -21.047988 1.774172 4.639510 -16.171702 25.406831 1.827824 -1.403065 1.517151 -3.350101 -0.712091 7.276033 3.671665 1.638661 4.464501 3.983655 0.387746 -1.208824 -1.173676 -6.818711 -2.482215 5.700024 -4.146362 -0.067176 -15.606151 16.819024 10.751115 -35.160514 12.930342 28.503455 -104.640177 -61.138662 105.020673 -10.885114 -30.562915 -24.518005 5.616559 -0.479847 -2.197628 43.872113 4.477239 10.672402 -22.598814 74.992817 -27.476233 7.140349 10.460407 -17.798793 
20.285673 104.123917 -24.621061 173.160885 24.808705 178.884182 1.816695 4.182799 7.284507 -1.469776 -1.336823 8.556172 -7.460744 9.056931 4.079316 0.293119 1.578055 2.009521 -6.516327 -10.388836 -30.252807 -1.225871 -22.726812 0.390361 5.129377 -17.311533 22.246072 0.881012 -0.907226 1.080602 -3.960338 -1.519009 8.686616 4.030145 1.474351 5.169372 3.706370 0.092846 -0.621631 0.486812 -6.175108 -5.191017 5.998120 -5.732499 -0.975790 -15.713427 16.997844 11.116069 -36.717732 11.110620 29.535216 -111.393906 -60.773340 112.079346 -7.220795 -31.187318 -27.656882 7.970881 -1.529371 -1.111906 46.533913 3.143706 10.252603 -19.749260 61.887190 -28.526375 2.589640 8.482518 -17.502150 
23.148300 99.943550 -28.622473 171.391175 24.925769 177.870998 2.372630 5.263840 12.068565 -1.940799 -4.246035 10.636736 -5.675880 9.444020 -7.786570 0.971818 1.241309 1.411793 -8.500456 -12.598570 -35.197658 -1.441796 -24.880999 3.187285 5.446510 -18.353470 19.155199 -0.616676 -0.500567 1.032012 -3.744360 -2.177380 9.335568 3.858794 1.256406 5.848202 2.734110 0.218128 -0.573214 1.944188 -4.315829 -6.738819 5.884392 -6.320973 -2.405787 -15.793557 17.069589 10.792272 -37.102975 10.575387 31.404395 -119.192738 -58.951716 122.107335 -7.248998 -31.187739 -24.208132 9.614962 -2.910750 -0.456715 48.662832 1.635279 9.039894 -18.238490 49.544845 -30.494531 -3.373162 6.832585 -16.988208 
24.694845 96.569336 -31.265985 170.702171 25.707963 176.949306 3.632177 5.961773 17.070227 -2.145738 -5.657438 11.955812 -4.883089 10.160000 -14.323514 2.099210 1.056680 1.354261 -9.774169 -13.689063 -39.623413 -2.158369 -25.970625 9.948691 4.657644 -18.257662 15.635873 -0.947970 -0.268451 0.875720 -3.310178 -2.976588 9.837896 3.804143 0.989221 6.540322 1.719495 -0.041800 -0.666821 2.780448 -2.421752 -7.852499 4.902526 -6.119017 -1.913462 -16.287518 17.655343 10.585178 -38.044069 10.110137 30.790705 -121.995845 -59.966815 126.642250 -11.953499 -30.664900 -20.213953 11.716933 -4.452660 0.048561 48.488856 0.052012 8.053419 -12.512362 37.733792 -28.203873 -2.934468 6.109043 -14.253915 
27.037119 94.492401 -34.468475 171.516047 27.938721 177.619006 5.265207 5.676539 19.983010 -2.647193 -6.409742 16.809771 -5.083151 11.163198 -14.397484 2.896297 0.972648 1.040170 -9.299423 -12.725962 -43.498067 -3.140938 -26.502967 20.930692 1.772978 -17.969367 11.165456 -0.277433 -0.263431 0.802218 -2.509374 -4.129548 8.585850 3.709651 0.980629 6.721693 0.726896 -0.444565 -1.295160 2.795718 -1.090038 -6.564736 3.592358 -5.227917 -0.922078 -16.840904 18.939509 10.384475 -39.483493 11.403750 29.465991 -112.388587 -63.325474 120.540542 -18.753926 -27.934874 -15.684769 13.583261 -5.986310 0.777302 48.246104 -1.557768 6.730501 -7.405813 24.429316 -25.932322 0.908376 5.374483 -11.735590 
29.638733 93.455093 -37.631870 173.159361 31.976749 179.647599 7.635351 4.929094 18.752254 -4.762855 -6.708956 26.207083 -6.212989 12.431278 -8.437234 3.711473 0.925716 0.756986 -7.967746 -9.848598 -46.368291 -3.247792 -24.402290 33.756038 -1.415215 -17.990958 5.284913 0.225014 -0.228292 0.983150 -1.269348 -5.317028 6.367218 3.333667 1.472812 5.617439 0.123414 -0.935499 -0.916151 2.260761 -0.192517 -5.462206 2.248882 -4.655178 -0.312801 -16.546566 20.735396 9.327942 -41.062572 14.341981 25.788559 -86.651486 -66.574193 99.405411 -22.200943 -24.670413 -12.629651 13.570910 -7.562007 0.553481 48.789027 -2.956348 4.412167 -4.536168 11.417418 -25.938477 4.178886 4.625682 -13.996991 
32.364571 92.910881 -40.408092 175.408899 36.010899 -179.113347 9.260617 4.873654 12.468665 -7.824218 -5.516479 42.016355 -7.230185 12.514378 0.329331 3.957688 0.556944 0.128714 -5.886722 -6.655259 -47.332378 -1.160623 -21.106671 40.974162 -3.233949 -16.762630 -0.137972 0.437854 -0.843298 1.312783 0.234863 -6.201228 5.122729 2.931629 1.674694 4.691845 0.005965 -1.716319 -0.936214 1.713910 -0.158081 -4.678009 1.369668 -2.195850 0.105254 -16.472673 22.335707 8.249682 -42.465429 17.462678 21.786546 -51.985098 -62.190665 70.488821 -22.624437 -19.396447 -9.486319 13.003835 -10.096502 -0.108767 47.117151 -4.759082 1.652408 -4.473200 3.787577 -27.266398 8.345072 4.277243 -18.953083 
34.844349 92.713959 -42.772572 177.212829 41.933951 -178.625255 10.856288 5.506451 3.577408 -10.413361 -2.147667 56.238948 -8.355580 11.750391 6.477383 4.205120 0.185525 -0.483272 -3.331856 -3.424995 -45.550966 0.999672 -18.224093 45.149405 -5.197547 -15.175091 -5.859023 0.592190 -1.718900 1.518132 1.671952 -6.542088 5.245762 2.051031 1.375825 3.384767 0.238390 -2.377543 -0.162779 0.211734 0.142410 -3.646120 0.128870 -0.460958 -0.626148 -15.457929 22.286694 6.719576 -43.698420 18.789831 15.831022 -19.454505 -43.828806 42.349380 -17.485153 -13.330042 -5.053229 11.375728 -10.678049 -0.858421 45.459181 -5.072391 0.162871 -3.985345 -1.334068 -25.955636 6.188714 3.110120 -20.026288 
37.248093 92.792610 -44.563217 178.139351 49.557134 -179.237085 11.117090 5.269216 -7.829717 -11.675126 1.541475 68.380514 -7.330358 12.075574 3.371911 4.680413 -0.185638 -0.788602 -1.281286 -0.542704 -43.217439 3.054293 -14.469757 47.893856 -4.919213 -13.119464 -10.920260 0.481000 -2.443961 2.040310 2.105857 -5.983094 6.575063 1.311183 0.398323 1.506599 0.507187 -2.720153 0.470667 -1.117649 1.127822 -2.886956 -0.954511 1.799542 -1.466309 -13.440929 21.184605 5.282642 -42.540924 17.785161 10.043726 -7.140255 -20.520664 29.382465 -14.119032 -7.983785 -4.230372 9.907196 -11.712822 -1.398521 41.920046 -5.468479 -1.033691 -3.486496 -3.836680 -24.362319 4.224083 1.119280 -19.968241 
39.564968 93.250984 -45.990540 176.007361 58.721812 179.050435 11.566347 5.507300 -21.039986 -10.709051 5.252000 75.546847 -5.916754 13.612469 -2.010694 5.453077 -0.516794 -1.229703 -0.169234 1.447563 -40.891976 4.993817 -9.931414 49.203933 -4.567981 -10.260472 -16.514361 0.058722 -2.738048 2.752347 1.741641 -4.543424 7.323286 0.549261 -0.668381 0.237115 0.765367 -2.761608 0.776997 -1.768143 1.842021 -2.271070 -1.330438 2.118129 -2.872909 -11.612519 19.673256 4.076809 -36.859704 15.313609 5.035431 -1.998065 -3.652818 19.236321 -10.309229 -3.552129 -1.832068 8.708265 -12.342535 -1.335623 36.894705 -6.478821 -3.100857 -2.258938 -6.524787 -24.200993 1.529266 -0.319847 -18.078606 
42.955585 94.061615 -48.708973 169.641741 67.584400 172.817261 12.660820 6.069620 -32.650775 -9.595710 7.024567 75.824816 -5.078350 16.215228 -7.314499 6.557081 -0.679046 -1.258518 -0.457312 2.889570 -38.584917 6.942541 -4.602055 51.974810 -3.705183 -10.463729 -19.256836 0.404255 -2.018500 2.749412 0.975499 -3.258238 9.094327 -0.270208 -1.120768 -1.284455 1.317726 -2.699837 1.050155 -1.955365 2.734347 -2.353446 -0.795062 1.107761 -5.133484 -9.753659 19.179757 3.096125 -30.264795 13.696921 0.869694 -0.251754 6.391264 8.143396 -5.395576 -2.454664 -0.175838 7.122144 -13.137172 -1.646223 33.261648 -8.650763 -3.828146 -1.016494 -7.742000 -25.170760 -1.252510 -0.686771 -20.161180 
47.969299 95.273094 -50.376911 152.073703 76.587205 155.561166 13.722574 7.481874 -39.098251 -8.770243 5.552989 67.370076 -4.960952 18.015090 -10.135072 7.413364 -0.477297 -1.334546 -0.867304 3.410556 -35.384029 9.650891 1.167729 54.044876 -1.851382 -9.658660 -21.026917 1.255770 -1.406895 2.396957 0.359261 -2.151897 10.450333 -0.513220 -1.922098 -2.149751 1.685557 -2.584968 0.580730 -2.123578 4.039682 -2.103480 0.012131 0.759177 -6.083794 -7.231552 17.449396 2.504653 -23.260011 12.551375 -1.691524 -1.502050 11.725536 1.682058 -5.313619 -1.111152 2.165775 5.371376 -13.220820 -1.492277 29.985044 -9.828371 -4.788433 -0.787726 -7.395705 -22.734638 -0.150140 -0.456204 -19.544097 
51.928604 96.994713 -54.302925 99.157914 83.365617 103.012273 14.795201 8.003829 -40.759078 -7.955983 0.014551 50.873700 -6.701327 17.867365 -8.592708 8.398372 -0.054540 -1.728489 -2.680110 3.477535 -32.612305 12.902703 7.234581 54.585381 0.764229 -7.765903 -20.673262 2.026164 -1.132905 2.142785 -0.035419 -1.403806 12.530815 -0.875431 -2.271637 -2.995125 2.158381 -2.570523 0.330689 -2.735234 5.447015 -2.953447 0.204292 -0.567447 -7.165702 -5.393459 15.400710 1.945182 -16.765676 12.391746 -3.495198 -3.079770 14.159747 -1.846246 -6.297653 -0.812005 8.678611 3.052176 -13.101797 -2.457666 25.937937 -11.040985 -6.379015 -1.439824 -7.786297 -18.565968 0.109090 0.405460 -14.566055 
53.985859 99.088028 -55.655361 26.514978 79.249743 32.024131 17.174009 8.902782 -37.551545 -6.108130 -8.294322 33.133959 -11.099995 15.720356 -0.584674 7.940448 0.108009 -1.534571 -4.955412 4.547420 -29.781975 16.388439 14.232958 51.853643 2.826953 -0.638283 -21.919884 1.816104 -0.953626 1.942303 -0.068335 -1.308183 13.366580 -1.016485 -2.833213 -3.857983 2.621807 -3.007460 0.220293 -2.318411 3.724975 -3.416104 1.967146 -3.910625 -8.247076 -3.505669 13.139085 0.988246 -11.809537 11.070437 -4.939571 -3.977579 14.202447 -5.069375 -4.604750 -1.527737 12.490081 2.264255 -12.376957 -3.798193 22.479656 -10.703060 -6.520946 -2.245356 -7.054756 -13.361840 1.583181 1.003507 -9.237694 
55.733173 101.067009 -57.184196 6.886072 70.388774 14.344996 18.784315 7.976784 -33.416437 -3.965930 -15.676886 24.282629 -13.658742 14.820551 6.241053 7.314711 0.146802 -1.354448 -7.685941 5.941517 -25.966178 16.851292 22.532701 46.501494 5.465286 5.125030 -19.830049 1.731890 -1.307480 1.669581 0.054737 -1.674298 12.010268 -1.182377 -3.360810 -4.278481 3.055075 -3.677790 0.084727 -1.323708 -0.054996 -2.140136 4.970294 -7.118443 -9.578864 -2.426768 11.231602 1.126356 -6.820018 10.112579 -5.497461 -4.256555 14.015062 -4.859957 -5.351217 -1.437293 17.321311 0.540635 -11.530635 -3.491888 18.665772 -10.937782 -7.404395 -1.769008 -5.447897 -9.261494 4.617430 2.057421 -5.909948 
57.502979 102.586563 -59.183601 -1.732475 55.783569 7.711788 19.330220 5.595522 -28.090838 -4.187594 -21.803402 21.730608 -14.362696 13.222493 5.803218 6.173513 0.454803 -1.171867 -12.033744 5.112144 -23.167685 13.262150 28.144969 36.915228 10.820599 1.086641 -7.644750 1.894888 -1.531647 1.692489 0.847893 -1.750188 11.015260 -1.729957 -3.311573 -5.780769 3.102406 -3.556583 1.178853 -0.039268 -6.725532 -2.288678 7.668322 -12.322533 -10.082479 -0.944053 8.831007 0.262117 -2.970806 7.836228 -7.051822 -4.587339 13.210938 -4.570179 -5.745872 -1.462685 21.230802 -1.290157 -10.483826 -3.733859 14.124577 -10.593824 -7.885419 -0.007608 -2.321069 -6.252518 6.261857 2.440137 -2.678522 
59.378017 103.690353 -61.394611 -3.840830 41.083020 6.364620 17.482909 4.992278 -22.773138 -4.489705 -23.252400 19.711782 -13.762152 12.146777 4.727615 5.116085 0.633820 -0.748778 -14.476044 1.680856 -24.052610 6.339270 26.776745 24.058373 13.814249 -3.856310 3.642543 1.332889 -1.900526 2.313768 1.695339 -2.458109 9.981679 -1.741666 -3.612021 -6.720731 3.446256 -3.664776 1.526524 0.605904 -15.274115 -2.452537 10.371270 -17.998820 -12.289500 0.385242 7.003855 0.125448 -0.496549 7.029118 -8.322968 -5.251417 13.645313 -3.390156 -5.839005 -1.003838 26.542444 -4.660480 -8.438826 -4.036487 9.855088 -10.082802 -9.733839 0.567531 -2.227392 -4.220355 4.622437 2.922265 6.450688 
60.979282 104.584244 -63.710621 -4.000664 24.538672 7.802567 13.898117 4.582007 -19.347298 -4.282280 -20.847320 18.246053 -11.522628 13.636695 0.154332 4.802655 0.508304 -0.587155 -13.147386 -0.521868 -28.177738 2.807310 23.997288 15.905812 14.618459 -5.871015 5.030308 0.094781 -2.005583 3.062538 2.457738 -3.309803 10.285164 -2.383835 -2.919274 -7.912126 3.516470 -3.237822 1.742766 0.476618 -20.198677 -4.598201 12.834568 -19.220757 -14.726584 1.537386 6.654063 -0.705438 1.917418 8.195708 -8.238451 -5.540797 12.424748 -2.415728 -6.034995 -2.692225 27.180232 -8.588597 -6.426954 -4.946654 4.977545 -8.605806 -11.144566 0.562317 -1.621172 -2.368424 2.033198 5.291254 12.917235 
61.934277 105.252953 -66.485077 -3.112237 9.490230 8.495700 10.011763 4.938816 -17.614334 -3.717582 -16.011616 18.080380 -9.112645 16.307387 -1.937493 5.100509 0.297224 -0.312139 -10.843491 -1.331374 -31.964685 1.709710 18.746224 14.242157 13.682454 -8.926412 5.037641 -0.888363 -1.684074 3.574335 2.717772 -3.943436 10.713077 -2.670240 -2.686043 -8.045150 3.303286 -3.035267 1.410849 0.809732 -21.901093 -6.428138 14.202279 -18.175686 -16.257049 2.850414 5.594256 -1.675425 3.890391 9.282488 -8.025911 -5.965765 11.131888 -1.290931 -7.159605 -3.263021 27.600946 -11.991146 -4.644437 -5.950059 -1.037518 -7.531924 -13.421542 1.577867 -0.407657 -2.517567 2.151366 5.915132 17.122293 
62.973457 105.907257 -69.142990 -1.780203 -5.388960 9.562078 6.657752 5.831754 -17.924197 -3.646923 -10.014322 18.671725 -7.366173 19.770050 -1.600889 5.575418 0.152350 -0.046758 -8.004771 -2.071845 -36.568917 2.219960 10.377094 18.764880 11.179985 -12.651208 3.385667 -1.658833 -1.842697 3.861783 2.442329 -4.433176 11.395758 -2.616120 -2.458700 -8.259941 2.897791 -2.901954 0.155036 0.809320 -22.360300 -6.780842 14.414613 -17.304135 -16.687047 3.819566 5.195204 -2.771200 6.167217 9.014853 -7.769517 -5.787730 8.952262 0.378537 -7.185150 -4.194182 27.749470 -14.901621 -3.473809 -7.200933 -8.064358 -6.321085 -16.500581 2.480678 1.268660 -3.169195 1.027095 5.762002 21.278746 
64.254532 106.700760 -71.085014 -0.437675 -18.982564 10.002730 4.323766 6.569490 -18.761531 -4.202192 -5.057261 19.779019 -7.348261 22.304222 -0.370453 6.245055 0.023417 0.316997 -5.454336 -2.344522 -39.450241 3.045815 3.286934 28.813223 7.912942 -16.459846 -0.342506 -2.081145 -1.685028 3.885099 2.725216 -4.838292 11.889800 -2.906048 -2.190523 -8.143319 2.399153 -2.828725 -0.575359 0.653786 -20.961814 -6.782209 13.384240 -15.049674 -16.456388 4.550838 5.018822 -3.420721 7.247675 8.540994 -7.857989 -4.994550 7.208569 0.730389 -5.693962 -5.174913 27.375022 -17.817906 -2.792958 -7.966050 -13.379608 -5.486398 -18.714701 2.893558 2.120414 -4.369912 -0.582280 5.889880 23.630003 
65.688690 107.706879 -72.229736 -0.219902 -33.524745 11.400514 2.796778 6.884986 -20.080066 -4.557137 -1.965324 19.785258 -7.340828 24.236593 -1.029600 6.898238 -0.151096 0.643059 -3.756668 -2.044461 -39.755342 2.688326 -0.873903 37.302706 5.632729 -18.773821 -4.060195 -2.309613 -1.679645 4.006417 3.273225 -5.061862 11.634610 -3.568097 -2.286233 -8.519009 1.964596 -2.680056 -0.721687 -0.005088 -18.094459 -6.296737 11.557756 -11.181902 -15.783457 4.709800 4.828129 -4.038696 6.878951 8.528154 -6.906469 -4.078218 6.718601 1.579726 -4.768564 -6.207151 26.372866 -20.481542 -2.206937 -9.017714 -17.770799 -4.386921 -21.221615 2.721652 1.990496 -6.455148 -3.073170 6.475482 24.375781 
66.851654 109.005402 -72.709671 -1.873497 -48.596462 13.932240 2.044803 7.924998 -22.116817 -3.842652 2.778857 19.239526 -6.821395 23.971355 -4.651914 7.551026 -0.218970 0.593493 -3.290321 -2.740484 -36.322632 1.775970 -2.937514 42.965297 4.546211 -20.096749 -6.278232 -2.037619 -1.611147 3.702478 4.063244 -5.033588 10.881960 -4.468375 -2.607364 -8.909880 1.724187 -2.667984 -0.764532 -0.292593 -15.459026 -5.961422 10.061955 -6.814632 -14.568074 4.011369 4.398572 -3.990059 4.642495 8.170391 -5.915533 -2.846710 5.467872 3.362940 -5.564044 -5.550755 24.253345 -22.506099 -1.903489 -9.535440 -20.388145 -3.806681 -23.376429 2.047800 3.308281 -6.038470 -3.626425 6.437822 26.458308 
67.407097 108.232132 -72.816513 -6.983905 -60.969971 18.499818 2.812278 9.493498 -23.025697 -2.999906 7.274398 17.108543 -5.748915 24.818071 -7.715695 7.566429 -0.303990 0.279344 -3.715415 -4.096338 -30.456279 0.062771 -4.321056 44.124857 3.979210 -21.604366 -6.760623 -1.715864 -1.617469 3.309820 4.986772 -4.715012 9.121267 -5.642274 -2.800194 -9.320792 1.724405 -2.908656 -0.767681 -0.509696 -13.113352 -3.594421 8.587710 -2.213347 -11.948210 2.856508 3.387044 -3.478462 2.032949 6.608179 -5.069607 -2.385239 4.022856 5.864354 -8.059702 -3.984352 22.382755 -24.260544 -1.316728 -9.845109 -22.301744 -2.816517 -25.769287 1.321123 4.067767 -5.484156 -2.921447 5.772023 27.753419 
67.679741 109.043045 -72.916489 -16.536459 -73.112944 27.080605 4.543849 10.498171 -21.339910 -2.189272 11.099321 17.231542 -5.071081 23.386937 -6.157518 6.879352 -0.546629 2.168068 -5.621246 -5.917324 -21.163224 -1.173208 -4.075901 39.968855 4.862420 -21.876206 -5.060005 -1.620142 -2.528909 4.027625 6.314293 -4.821327 8.559611 -7.725877 -3.056132 -8.681035 0.882717 -4.371538 -0.270907 0.840156 -12.277618 -4.223560 8.225831 4.392872 -8.441904 -2.291212 -0.307370 -2.153784 -12.209560 2.092989 -0.939052 -4.118691 -3.241182 15.072777 -12.438772 -5.133925 13.321672 -28.316671 0.019527 -11.594681 -24.339317 -1.228885 -32.490939 -0.001939 1.626184 -11.463125 -5.502123 4.748725 22.112919 
67.990112 107.437286 -73.251297 -37.985377 -80.488944 47.489716 6.270501 12.828383 -21.544675 -1.862252 14.511462 18.503680 -3.874643 24.342260 -7.589847 7.001595 -0.749400 1.348285 -8.634355 -8.084456 -13.665111 -2.432940 -4.275088 35.063186 4.684217 -22.973506 -2.264556 -0.949227 -2.740969 3.534749 6.907144 -4.318136 7.874158 -8.855495 -3.749784 -8.407798 0.483448 -4.787778 0.547989 0.517821 -10.545354 -2.963642 7.956755 10.359237 -6.704405 -2.820245 -2.419379 -1.691629 -16.541002 1.056853 -0.348694 -5.348113 -6.256495 20.811170 -14.510994 -4.851675 11.005808 -30.825730 0.603261 -12.025694 -25.268951 -1.968039 -34.497270 0.681326 0.362338 -12.603476 -5.094133 3.995846 21.133429 
68.500702 107.485489 -73.722237 -93.399706 -82.820146 103.761449 8.466629 15.935002 -23.675818 -1.528524 18.484912 19.367904 -4.118011 24.772078 -5.553384 6.080047 -0.497762 2.141090 -11.293651 -9.953774 -6.947362 -3.253992 -3.878021 25.340340 5.574296 -24.643716 3.406021 -0.754659 -2.347718 3.272726 6.953960 -3.526504 6.068145 -9.341634 -4.428592 -8.561900 1.022073 -5.049311 1.274932 -0.259742 -8.075665 -1.405081 8.487844 17.185643 -5.020596 -2.053175 -3.108341 -2.377576 -15.726573 0.173372 0.069304 -6.008770 -7.924822 25.258979 -16.827589 -4.389855 13.495709 -32.496828 -0.402512 -11.724809 -25.706490 -1.991243 -33.814202 1.317570 0.445101 -10.124142 -1.397497 2.817293 22.442338 
69.313515 107.307831 -74.493156 -137.714706 -78.921907 147.187500 11.068083 19.608909 -26.179580 -1.061400 22.660037 22.109181 -3.645763 24.224259 -4.392807 5.873223 -0.609342 1.049990 -14.159155 -11.687973 -1.545194 -3.011331 -4.255369 18.816954 6.055166 -25.755338 7.559708 -0.001637 -1.720218 2.788800 6.056124 -2.412026 5.112901 -9.047508 -6.004976 -8.898228 1.590902 -4.981718 1.451898 -1.701868 -4.782686 0.505179 8.612634 20.540905 -6.155191 0.778755 -5.230447 -4.059939 -9.935861 -1.449851 -0.630316 -6.482623 -6.947708 29.000558 -17.771756 -3.072799 18.500718 -32.233720 -0.673750 -11.854481 -25.070685 -2.059188 -31.949143 1.720857 0.265064 -9.157064 1.024087 3.311063 23.219568 
70.119736 106.804153 -75.169113 -155.483534 -71.185791 164.505013 14.292136 21.674550 -27.322516 -1.272668 22.416709 25.311241 -3.940802 22.445390 -4.696357 5.636872 -0.646258 0.277296 -16.056926 -12.479326 0.758831 -2.502795 -3.795948 15.909077 6.881484 -25.742736 7.960770 0.564182 -1.432828 2.393189 4.733697 -2.142907 5.393049 -9.017413 -6.702040 -9.174036 1.586585 -5.281654 1.904365 -2.151537 -0.898053 0.018945 8.405504 25.164337 -5.483392 1.671230 -7.186914 -4.604835 -10.780236 -3.191661 0.464397 -8.058956 -8.109464 31.941495 -16.274092 -4.375957 19.056905 -32.752507 -0.319961 -12.325194 -25.945902 -1.014835 -32.651703 1.970294 0.077400 -9.956511 0.632457 3.821963 21.911638 
71.095596 106.422653 -75.618614 -161.016500 -63.730726 168.844235 17.850946 23.776905 -26.884992 -1.627623 21.729072 27.740148 -4.604941 21.613500 -3.169620 5.638082 -0.413055 -0.898123 -17.427735 -13.024859 1.009548 -1.462698 -3.215047 16.282637 7.942425 -25.175820 6.398390 1.217183 -1.367196 1.814632 3.752349 -2.315537 6.176181 -9.888628 -7.248371 -9.209010 1.456954 -5.781052 2.441552 -2.878918 1.813381 -0.343958 9.144808 29.731218 -4.191386 1.355038 -9.466200 -4.333511 -10.965667 -4.253467 1.364308 -8.657805 -7.921176 34.677006 -13.443639 -5.170179 20.717407 -33.278771 0.460794 -13.112857 -26.118238 -0.742960 -33.037970 2.339312 2.353741 -10.710381 0.507502 5.307049 18.344922 
71.926163 106.294510 -75.892082 -165.770882 -56.569316 172.417352 21.199658 24.832266 -25.657720 -1.945770 19.566366 30.782052 -6.153780 22.254415 -0.523647 5.464591 -0.494468 -1.713556 -18.022406 -13.088313 0.147511 -0.476114 -1.917310 16.797707 9.238231 -23.836097 4.104344 1.187863 -1.763326 1.810237 2.712120 -3.216046 6.809194 -10.350082 -7.719987 -8.801698 1.155570 -6.524442 2.805084 -3.897609 3.998411 -1.066864 10.182747 33.286097 -1.733156 1.073339 -10.899935 -3.684010 -13.126312 -5.747985 2.413263 -9.713762 -7.810446 36.985133 -10.557377 -6.769051 19.783178 -34.203728 0.555899 -13.572230 -26.546296 -0.506597 -34.822828 1.905357 5.137206 -15.104608 -1.571320 6.881967 11.772611 
72.623161 106.426514 -75.867622 -170.327892 -48.479491 175.678902 25.535533 25.344694 -22.981948 -1.898473 16.656349 33.030028 -7.894124 21.482708 5.814562 5.218996 -0.341539 -2.229481 -17.405979 -13.417275 -1.753060 0.894654 -1.164894 18.066042 9.329302 -21.826115 2.178135 0.623659 -2.351155 1.577987 1.808743 -4.218126 7.376935 -11.084137 -7.839572 -8.604799 0.712407 -6.912771 2.952637 -5.487291 5.939738 -1.747438 10.912559 36.459504 0.222897 0.899041 -12.083338 -3.446909 -16.376625 -6.632494 3.753783 -10.226082 -8.010278 39.862779 -8.336202 -7.950164 18.412056 -35.620845 0.607184 -14.375159 -27.151679 0.260750 -36.700312 1.324776 7.303353 -17.416166 -3.353293 7.920382 7.272856 
73.362640 104.845993 -75.375168 -173.987387 -41.648377 178.367417 28.613667 24.193262 -20.100258 -1.966501 11.285686 32.708590 -10.593432 21.057269 12.875792 5.378712 -0.324161 -3.009538 -16.579410 -13.022034 -4.412697 2.036760 0.512456 19.354653 8.560943 -20.009782 0.599028 -1.448164 -3.701078 1.738161 1.730791 -5.181714 6.565777 -11.872234 -7.895226 -8.607749 0.409187 -7.139809 3.120445 -7.408388 7.374530 -1.715934 12.051822 39.779390 2.060299 1.224212 -13.321498 -3.572537 -21.842711 -8.656405 4.781685 -9.678455 -8.478972 42.366924 -6.135148 -8.887528 16.815929 -37.749995 0.252841 -14.792093 -27.142604 0.873441 -39.499015 0.306546 9.151481 -20.769213 -4.921401 9.162161 1.352815 
74.132454 105.252022 -74.368385 -176.118164 -33.623429 179.855239 31.777207 21.205219 -15.831332 -2.028568 3.708888 30.585801 -13.392377 21.107603 20.912863 5.911369 -0.116394 -4.706569 -14.940348 -11.650211 -8.530549 3.067482 4.020138 21.268126 5.931155 -19.832431 -0.559091 -3.628461 -5.319064 1.709069 2.110862 -6.551121 5.524218 -12.970162 -7.923173 -9.308436 -0.025226 -7.170988 3.629584 -9.609393 8.345974 -1.179937 14.351669 43.536788 4.773616 1.783678 -15.261251 -4.515530 -28.788742 -11.203579 5.348691 -8.611442 -9.592495 44.810276 -4.435673 -9.063493 15.750487 -40.198837 0.155924 -15.216189 -27.516259 0.709837 -42.283100 -0.894450 10.184687 -24.172905 -5.350043 9.814571 -2.849461 
74.649086 105.425362 -74.828926 -177.745567 -26.440201 -179.613019 33.505150 17.821820 -11.752415 -1.733530 -2.396533 27.775538 -15.724873 21.545164 26.610018 6.346748 0.232201 -5.780786 -13.450569 -10.070614 -12.124754 3.565640 6.796216 24.154314 2.047860 -21.613446 -1.095409 -3.962320 -6.648811 1.404202 2.533966 -7.920306 5.031116 -14.005632 -7.773678 -9.908503 -0.246466 -7.224628 4.157517 -11.922945 8.913059 -1.095696 15.202136 46.664468 6.487782 1.476228 -17.028668 -5.212383 -34.433534 -13.778030 5.528564 -7.786076 -10.325288 43.831919 -1.871038 -9.258985 14.107245 -42.145959 0.453666 -15.880312 -29.076734 0.527232 -44.446693 -1.389968 11.064886 -26.067597 -5.565171 10.004847 -4.062167 
78.868439 105.248886 -75.934616 -178.825536 -19.952662 -179.817511 34.609365 15.313825 -8.487414 -0.874748 -5.823318 24.571780 -16.944233 22.264103 30.061313 6.372001 0.521633 -6.175106 -11.152155 -8.642579 -15.241749 4.941377 7.134890 27.209226 0.044335 -19.830471 -5.556593 -2.454643 -7.758512 1.992081 3.014162 -9.061101 4.444585 -14.889752 -7.701932 -10.539409 -0.441793 -7.366194 4.399819 -13.323790 9.903701 -1.401332 15.845632 48.814252 7.982706 1.811595 -18.620937 -6.547105 -39.720984 -17.286223 6.298419 -6.669752 -11.313591 42.503556 0.626541 -9.571811 14.350827 -43.451998 0.416449 -16.629024 -30.397858 0.978905 -45.581072 -2.507379 12.493598 -26.513432 -6.363679 10.550377 -4.236666 
82.345795 104.816284 -76.167511 -179.770158 -14.098085 179.828462 34.960101 13.273560 -5.465675 -0.550537 -8.537866 21.522338 -17.586865 22.755992 33.803510 6.092528 0.307755 -7.085147 -9.407215 -6.950771 -18.161388 6.206057 8.155178 30.478095 -1.287502 -18.078930 -9.054381 -1.892935 -7.903549 2.394920 3.321777 -10.097596 4.238754 -15.436578 -7.995464 -10.903318 -0.670291 -7.621837 4.381028 -13.819528 10.734525 -2.059888 16.749869 50.342689 8.988584 2.011809 -20.031066 -7.601343 -44.210320 -20.470624 7.094031 -6.273501 -12.569172 42.499151 0.545821 -9.183784 14.895821 -44.150034 0.039348 -17.317768 -31.622851 1.669821 -46.650785 -3.784522 13.836466 -25.833643 -4.818472 10.977844 -3.728661 
85.376053 104.298378 -76.156212 179.232323 -9.048704 178.905817 34.662634 12.599117 -3.545053 -0.202528 -8.243901 19.416814 -17.913613 23.027436 35.313693 6.068563 0.379258 -6.986247 -7.942128 -5.574929 -19.482817 6.444146 7.801909 32.236396 -2.756028 -17.061841 -12.370314 -0.976161 -7.726161 2.801655 3.366744 -10.866762 4.446046 -15.607686 -8.138913 -10.759112 -0.657624 -7.884510 4.281753 -13.784061 11.259336 -2.503009 16.979042 51.097327 9.732053 2.668601 -21.613074 -8.188684 -48.498562 -23.420041 8.243960 -6.261114 -13.645603 42.863060 0.289468 -9.486948 14.543892 -44.606272 -0.142263 -17.948855 -31.962475 2.828080 -47.080536 -5.266480 15.167106 -25.171784 -5.062114 11.072998 -2.411498 
86.043098 103.776878 -76.681076 179.786406 -4.231175 178.687428 34.360328 11.979025 -2.045962 0.266955 -8.942955 18.200131 -17.657880 23.539699 35.577739 5.825249 0.156121 -7.553518 -6.634696 -4.589009 -20.465926 7.133091 8.158636 33.208233 -2.862632 -15.555307 -14.631546 -0.756097 -7.869848 3.552021 4.141559 -11.503021 3.726941 -15.387607 -8.273959 -9.799903 -0.511348 -8.308448 3.719797 -13.765224 11.603022 -2.487172 16.230635 50.855373 9.714115 3.701188 -23.635536 -9.006941 -52.715742 -25.640964 9.994761 -6.497815 -14.528259 42.690213 0.683472 -9.999688 13.822589 -45.409400 0.132533 -18.788649 -32.106297 3.579377 -47.001174 -6.621371 17.655393 -24.326735 -6.273852 11.394739 -2.445661 
87.596367 103.370453 -75.997162 -179.997944 1.460228 178.371309 32.634117 10.967961 -0.161494 0.151802 -10.776268 19.418350 -16.952625 22.969963 35.170376 5.080627 0.069382 -7.096039 -4.896312 -3.284883 -21.491726 7.101859 8.049666 32.671602 -2.663921 -13.389978 -16.566285 -0.642574 -7.209141 4.164406 4.330465 -11.993591 2.999974 -14.610838 -8.799659 -9.528669 -0.221327 -8.612591 3.378856 -14.041005 11.687422 -2.639944 15.476701 51.261339 9.605119 4.582054 -25.597225 -9.687677 -55.477232 -26.365946 10.893582 -6.828257 -15.602546 43.582006 -0.619291 -9.308294 14.414154 -45.996522 0.433624 -19.871742 -32.891655 3.383658 -47.167133 -6.824149 19.169847 -23.579395 -6.215134 11.237849 -0.979426 
89.055908 103.141335 -75.763504 -179.716488 5.984938 178.227203 31.156841 10.674326 1.452644 0.366813 -11.529301 19.571198 -16.683070 23.052521 35.592466 4.732991 0.067726 -6.525831 -2.989590 -2.173247 -22.278745 6.980219 8.101707 32.883605 -2.839138 -11.731892 -17.484754 -0.336878 -6.580606 4.394570 4.921876 -12.443198 2.135327 -14.263749 -9.092039 -8.961416 0.115020 -8.775338 2.836737 -14.485545 11.475695 -1.960412 14.652252 51.757228 9.107530 4.591141 -27.407865 -9.650289 -57.899605 -26.830362 11.450721 -6.746675 -15.752192 42.768631 -0.879598 -9.144460 14.454977 -46.999050 0.991866 -20.544091 -33.241156 3.906192 -46.954710 -7.415687 21.385824 -22.327577 -5.770943 11.193495 -0.253014 
90.786674 103.124062 -75.813492 179.805898 10.130251 178.152166 29.785782 10.295453 2.395563 -0.060842 -12.297976 21.096619 -16.567156 22.709701 36.126643 4.384935 0.146292 -6.252194 -1.695632 -1.243936 -21.928958 6.771477 8.701144 31.662203 -2.829354 -10.578039 -18.687949 -0.127473 -5.873232 4.078879 5.360983 -12.596809 1.710505 -13.851514 -9.437735 -8.444860 0.385831 -8.785793 2.323671 -14.600976 11.011921 -1.214346 14.071889 52.032267 8.871673 4.440734 -28.527086 -9.578634 -59.615149 -26.520176 11.585001 -6.993899 -16.325546 43.611561 -1.142588 -8.887378 15.089131 -47.663184 1.133679 -21.048575 -33.985105 3.854467 -46.478641 -8.432578 24.028448 -21.435438 -5.369026 10.740088 0.822368 
91.636467 103.307777 -76.018051 179.539946 14.324496 177.642247 27.620670 10.342716 2.249406 -0.827818 -11.717143 25.161437 -15.266854 22.377661 35.331989 3.915652 0.065651 -6.311698 -0.831916 -1.367183 -20.865735 6.069588 8.361865 30.070666 -2.006869 -7.859060 -18.996719 -0.407175 -5.729805 4.004773 5.514770 -12.485824 1.552223 -13.463358 -9.543095 -7.624287 0.613931 -8.624857 1.745967 -14.718851 10.434398 -0.374108 13.784143 52.363733 9.101264 4.205929 -29.406774 -9.513381 -61.203883 -25.961736 11.779192 -7.091075 -16.071148 43.706515 -0.652625 -9.345680 15.032170 -48.369701 1.190394 -21.097807 -33.884495 3.992366 -45.962353 -9.798492 28.336112 -20.377718 -5.727505 11.499982 1.977462 
91.690605 103.583069 -76.442558 179.542276 17.766959 176.771069 25.362871 10.318154 1.917309 -2.345971 -11.164878 29.426029 -14.503638 21.270225 32.428621 3.824374 -0.057382 -6.247617 -0.129734 -1.309555 -19.339121 5.380517 8.982004 28.885931 -0.980615 -6.377519 -18.822614 -0.318978 -5.075897 3.579682 6.205100 -12.026532 1.597214 -13.410465 -9.684568 -6.740967 0.603419 -8.553048 1.510907 -14.861518 9.130545 0.344459 14.030830 52.922385 9.653802 2.922347 -29.716891 -8.775231 -61.444923 -24.063807 11.077586 -7.136303 -16.041156 43.844898 -1.207990 -8.983729 14.240819 -49.267251 1.494640 -21.507462 -34.734818 4.167833 -45.823790 -10.749918 31.153301 -20.309427 -4.688838 11.713479 2.381709 
91.248756 103.883293 -76.687973 -179.699320 20.843902 176.014430 23.682708 10.269932 0.737269 -3.420444 -9.681692 33.555492 -14.942705 19.378193 27.747649 3.795912 -0.105349 -5.991277 0.833743 -0.706104 -17.626882 4.936142 9.613029 27.332076 0.155781 -5.675445 -17.881132 -0.392003 -4.713211 3.375304 6.651057 -11.813548 1.819586 -13.258397 -9.844710 -6.824304 0.641874 -8.548423 1.730851 -14.550398 7.789384 0.981950 14.946708 53.612390 11.127002 0.542625 -29.386518 -7.225117 -61.108837 -21.184738 9.987745 -6.685035 -15.008345 43.293190 -2.193593 -8.537082 13.287284 -49.558094 1.731315 -22.017217 -36.355698 4.526875 -46.091609 -11.520207 33.603404 -20.324795 -4.008001 11.858041 2.836168 
90.719543 104.090645 -78.379524 -179.315787 23.196847 175.438046 21.753572 10.279471 -2.579978 -4.800571 -7.457861 40.374629 -14.481172 17.337270 21.524276 3.623547 -0.038061 -5.495521 0.792193 -0.999190 -15.778075 4.849716 10.292825 26.934442 0.648765 -4.680612 -18.098374 0.661230 -4.199342 2.790769 7.238927 -10.856474 2.032677 -13.188819 -9.509905 -6.177730 0.668808 -8.492130 1.223660 -13.761919 6.810544 1.856871 15.077407 53.373101 12.314475 -3.053668 -28.014514 -5.362300 -60.608674 -17.680766 8.560681 -5.800259 -13.936315 40.584234 -2.786894 -7.830803 11.854386 -49.637738 1.856885 -22.307495 -37.114035 4.249813 -45.916121 -14.425980 38.751130 -21.766138 -3.341260 12.329066 2.668512 
90.508591 104.051132 -80.940826 -179.439312 24.692970 175.090170 20.881183 10.600275 -7.097584 -5.484451 -4.215005 46.103680 -13.053619 16.518992 15.811360 4.089144 0.063596 -5.263295 0.048952 -1.142560 -14.601427 5.058104 10.696228 28.364945 0.637348 -4.409216 -19.760155 1.560903 -4.093825 2.270719 7.486034 -9.837984 3.055548 -13.519043 -8.979858 -5.586134 0.562558 -8.344042 1.212341 -12.513349 6.167921 2.689888 15.089894 53.790824 12.598728 -6.670193 -25.500926 -3.709011 -58.282871 -13.941416 6.166706 -4.928006 -13.381782 37.385252 -2.581544 -7.695535 11.006420 -48.851663 1.366007 -22.016699 -37.436949 3.681864 -45.338470 -19.776535 44.659852 -26.035377 -3.146797 13.032682 0.956510 
90.424980 103.769150 -84.160393 -179.060446 25.366936 175.029862 20.677255 11.008904 -12.170144 -6.038529 -0.730618 51.491572 -11.633559 16.011210 7.893153 5.247986 0.245382 -4.716932 -0.691052 -1.228492 -13.088622 5.771080 10.962174 30.097357 0.285161 -4.608461 -22.112427 2.840679 -3.818122 1.851882 7.373104 -8.894268 4.765396 -13.429520 -8.529328 -5.104718 0.455620 -8.311429 1.498792 -11.270580 5.838988 3.073063 13.522410 53.535560 11.851640 -9.838917 -22.059879 -1.841328 -55.036231 -9.516123 3.578091 -3.767371 -12.247075 34.481993 -2.419202 -7.905300 9.526444 -47.709611 0.821454 -21.499107 -37.498638 3.176843 -44.861140 -29.029010 50.317992 -34.493726 -5.236110 14.398560 -1.965785 
91.215904 103.310852 -86.175850 -179.063734 24.888829 174.711942 21.159566 12.169446 -17.896039 -6.416667 3.284534 55.175155 -10.526117 14.900009 3.421189 5.624950 0.511991 -4.383246 -1.274377 -2.413054 -12.482490 6.421177 9.172479 32.759411 -0.498938 -4.179314 -24.513264 3.531657 -3.668997 1.055362 7.247234 -7.941239 6.541717 -12.877795 -8.428950 -5.425074 0.231240 -7.822207 2.015065 -9.288797 6.249733 3.468750 13.153164 52.045146 12.544232 -12.095802 -17.887223 -0.705413 -50.788662 -3.766953 1.629936 -3.384030 -12.517143 31.481249 -2.558694 -7.777955 7.779292 -45.649392 0.621992 -21.623811 -37.503573 3.608968 -44.709970 -40.901556 55.782466 -45.785503 -6.906914 14.903192 -5.832301 
91.756264 102.659721 -88.811378 -178.715134 23.297297 174.857881 21.364782 13.984955 -24.105887 -5.542164 6.170135 55.565235 -10.256797 13.952380 -0.377625 6.220473 0.691910 -3.819166 -1.785537 -3.797559 -11.891070 6.882854 7.898136 35.849799 -0.410539 -4.054780 -27.408892 4.097802 -3.254689 0.428481 7.045693 -6.924746 8.374674 -12.205136 -8.041910 -5.171535 0.414152 -7.502412 1.716825 -7.778889 6.653009 4.932096 9.894529 49.625732 9.936645 -13.290640 -13.635529 0.160961 -46.017292 2.111129 -0.165542 -2.960061 -12.003029 27.153439 -1.556561 -7.101823 6.457207 -43.258137 0.792712 -21.665968 -37.485188 3.605863 -44.221193 -55.626960 59.681869 -60.060191 -10.045497 14.711531 -9.163165 
92.122780 101.912636 -91.579185 -178.045907 19.523908 175.542311 20.528664 15.010308 -29.869722 -4.260596 7.672051 51.309443 -10.258841 13.547482 -0.766938 6.867174 1.106466 -3.366053 -1.769343 -4.499875 -10.970312 7.354834 7.011273 38.200757 -1.171211 -5.990051 -29.816078 4.529044 -3.362420 -0.005124 7.374979 -5.895944 9.723112 -11.850702 -7.516015 -5.538366 0.937735 -6.954017 1.778491 -6.798700 6.222478 5.849921 8.821702 46.584279 9.236393 -12.895132 -9.885951 0.535226 -42.744271 5.843280 -1.401870 -3.399225 -11.364068 24.438923 -1.330010 -7.005562 6.133274 -41.951527 0.975260 -21.278768 -37.209157 3.360983 -44.427133 -70.225911 62.149944 -74.555794 -11.974846 15.666865 -10.832950 
93.261215 101.035194 -94.436531 -178.488871 16.864725 175.375721 19.075775 15.382527 -33.522519 -3.943557 8.625698 45.141338 -9.705956 13.573415 1.111801 6.579851 1.349985 -2.764173 -2.595674 -5.886773 -9.339571 7.176882 4.916780 40.431913 -1.144683 -6.293760 -33.171493 3.810563 -3.763108 -0.142059 7.145696 -4.302456 10.687138 -11.567960 -6.512885 -5.746781 1.251834 -5.549256 2.387187 -5.876049 6.315597 7.587962 6.605473 42.566606 7.351136 -11.350059 -6.492503 0.364548 -37.464302 8.487556 -2.009513 -4.137166 -10.305031 21.521394 -0.465042 -7.298600 7.151656 -40.139715 1.429900 -20.505390 -36.362865 3.198479 -44.784239 -81.759291 61.145153 -87.904144 -16.013244 14.755442 -14.258662 
95.039627 100.190094 -99.147018 -178.757800 13.924125 177.401215 17.215680 14.637952 -36.625659 -3.646705 8.226663 37.442912 -9.760794 13.014880 2.775171 6.662974 1.554794 -2.158720 -2.460711 -7.021488 -7.319327 6.106951 3.193687 40.303641 -1.058783 -6.923530 -36.106985 3.290167 -4.085363 0.001686 7.128368 -2.449688 10.881112 -10.780196 -5.749337 -6.307193 1.961253 -4.214318 3.042960 -5.553937 6.512077 9.204731 4.786173 38.689150 6.275826 -8.727103 -3.146111 0.148179 -32.267936 11.318974 -2.587353 -5.901858 -11.054773 19.979378 -1.172275 -7.330834 7.118167 -38.824683 1.266231 -20.033204 -36.070408 2.744449 -44.924026 -94.706176 58.741948 -101.825625 -18.917369 14.841094 -15.477714 
96.545219 99.494888 -103.609665 -178.843358 11.980573 179.020309 15.116808 13.094730 -38.385989 -2.870044 7.187113 28.838113 -10.301863 12.894814 4.781924 6.752730 1.520320 -1.502816 -1.864047 -8.476016 -4.188124 4.008736 1.567801 38.107243 -0.615386 -6.779250 -38.141510 2.895479 -4.004033 0.319954 6.982446 -0.275706 10.258683 -10.029184 -4.835932 -6.552666 3.049672 -2.818181 3.817174 -5.656896 6.433100 11.350079 3.609623 34.179067 5.649144 -5.511200 0.212721 0.388072 -25.944324 14.680057 -3.105660 -8.218273 -13.221074 19.091351 -1.656687 -6.976337 7.278510 -37.728467 0.926842 -19.352143 -35.056834 2.598635 -45.275310 -106.112208 54.002632 -113.533685 -22.090836 14.410531 -16.094685 
97.641602 99.129875 -109.018822 -179.467730 9.942629 -179.187515 12.364170 10.461012 -39.234556 -2.659945 6.124472 23.544850 -10.469193 13.349889 4.141894 6.792629 1.083805 -0.932070 -1.543859 -9.663030 -0.159497 1.988433 1.179202 34.234062 1.442084 -8.182851 -37.733793 2.519237 -4.041284 1.098223 6.524157 2.134737 9.024202 -8.991054 -3.911960 -7.324523 4.410697 -1.253960 4.971229 -6.118184 5.235041 13.876241 3.152147 29.867940 5.322314 -0.637497 3.044517 1.083960 -19.320464 17.934236 -2.332216 -11.419390 -17.609947 19.128020 -2.670485 -7.407531 8.514885 -38.171972 0.477029 -18.790415 -33.983387 2.819800 -45.618989 -113.519517 49.436860 -120.395776 -25.411318 14.805226 -14.562750 
96.946381 99.122131 -115.303795 -179.565877 8.272338 -176.461696 9.683183 7.081203 -39.117562 -2.681072 4.650393 20.935234 -10.470555 13.532139 2.625316 6.408568 0.620092 -0.436567 -2.101268 -10.687558 4.330984 0.647735 0.720390 27.941538 4.490888 -9.898543 -33.124241 2.047373 -3.958660 1.712720 5.594453 5.014160 6.074022 -7.480837 -2.771830 -7.902432 5.693170 0.609001 5.387085 -6.119261 4.302930 17.628915 2.986974 25.487227 4.884220 3.812089 5.840483 1.970857 -11.448799 19.722159 -1.041273 -13.771349 -24.826146 17.784757 -4.087048 -7.781225 10.577233 -37.744641 0.223460 -17.334551 -33.266403 3.389489 -45.870945 -119.156655 47.258606 -123.725465 -28.250623 15.591034 -11.298517 
95.714630 99.591270 -119.377510 -179.665384 6.284124 -174.493044 6.952036 4.314781 -37.817067 -2.833035 3.853889 18.952507 -9.731241 12.944359 2.485038 5.496216 0.630707 -0.103062 -2.358054 -11.504034 8.296023 -0.460609 -0.273034 21.492455 7.332928 -13.296019 -26.087512 1.272149 -3.702869 2.149958 4.787499 7.090311 3.295409 -5.902636 -2.075945 -8.436181 6.776603 1.803487 5.229233 -6.043360 3.411111 20.916115 2.678410 21.834478 3.935544 7.740997 7.523492 3.054442 -4.337309 20.891579 0.540472 -15.972480 -34.797922 17.919735 -5.352908 -7.978192 13.858632 -37.362285 0.093217 -16.203528 -32.822914 4.086590 -45.982830 -124.131230 44.250496 -125.179771 -30.023090 16.951906 -7.719300 
94.495216 100.580566 -123.619072 -179.848694 3.684512 -172.822592 3.767107 0.707929 -35.380446 -2.843726 2.168236 17.349448 -9.032557 13.266219 3.080506 4.928013 0.507960 0.371292 -2.889242 -11.720176 10.762169 -1.052040 -1.042721 17.887488 10.230549 -17.951138 -14.735462 -0.360020 -3.143565 2.580065 3.615347 8.990967 0.171248 -4.307467 -1.415785 -9.160748 7.832213 2.879133 4.491634 -6.447294 1.731203 24.367928 2.947794 17.506630 3.177036 11.715948 8.360911 4.263938 2.883565 21.080585 1.712648 -16.255562 -43.671266 15.475315 -5.029446 -8.685359 17.666032 -37.226968 0.049241 -15.124438 -31.352972 4.893551 -45.537347 -128.367905 42.064205 -124.820254 -32.206532 18.545156 -2.651503 
93.290939 101.922195 -127.978653 179.817000 1.010381 -171.577909 0.680498 -2.666977 -32.195489 -2.512316 -0.922371 15.537151 -8.151214 13.554001 3.842668 4.750062 0.291567 0.204047 -3.980942 -11.951369 12.021809 -1.452479 -1.411850 16.041231 12.389760 -18.992493 -6.144657 -2.108560 -1.804198 2.333007 1.905687 10.576302 -3.720689 -2.514918 -0.731673 -9.228897 8.682162 3.951102 3.745708 -6.772358 0.383215 27.858108 3.203722 14.412754 2.604438 15.557537 9.035703 4.775854 8.655013 19.775136 1.657521 -14.164872 -54.178329 11.961841 -3.455497 -10.599000 18.712735 -37.487082 -0.185826 -14.067193 -30.689369 6.039639 -45.622510 -131.613166 40.774120 -124.236479 -33.743742 20.483838 0.681699 
92.047379 103.382210 -132.230423 179.360630 -2.481854 -171.369365 -2.180632 -4.685074 -27.996198 -2.420879 -3.596204 13.282247 -6.403475 13.935185 5.102140 4.527760 0.194200 0.011964 -4.993235 -12.093624 12.061239 -1.335467 -3.051137 15.495320 13.771213 -19.621842 2.993721 -4.031002 -0.907495 2.334162 0.434001 11.196027 -6.758608 -0.609085 -0.937007 -9.180337 9.315615 4.790745 2.362119 -7.666144 -0.825094 30.705609 3.700747 11.998726 2.766911 18.740645 8.295512 4.218884 14.086824 17.798363 0.620581 -8.085637 -60.687415 4.488368 0.249762 -14.239945 20.504521 -37.715814 0.333364 -13.756283 -30.543515 6.827995 -45.718463 -134.988859 39.390164 -123.900819 -35.235947 21.812129 3.763259 
89.210258 104.698624 -135.937454 179.569058 -5.323880 -172.232185 -4.203782 -5.381474 -24.413802 -3.306649 -6.126802 13.471192 -5.673041 13.840792 6.559200 4.648103 0.130199 -0.004926 -6.319902 -12.316744 11.073998 -0.689487 -4.227923 16.968459 14.708054 -20.295050 10.945444 -5.421720 -0.075138 2.144462 -0.520067 11.397704 -9.045223 0.964333 -1.149710 -8.933799 9.991439 5.512408 1.205108 -8.181510 -1.995311 32.590763 4.165517 10.181087 2.624262 21.086227 7.148745 2.260510 18.782844 15.393421 -1.627795 -0.091597 -60.617063 -4.263761 4.917443 -15.653764 21.954012 -37.677492 0.685796 -14.211824 -30.668645 7.960748 -45.644932 -136.493495 39.678660 -123.048068 -37.521336 21.853674 6.842720 
87.526642 105.793610 -138.920486 179.395343 -7.788923 -173.080760 -5.745817 -5.226976 -20.648875 -3.790530 -8.624806 12.455327 -5.648277 13.499851 8.236330 4.287362 0.117380 -0.267951 -7.851106 -12.671156 10.138003 -0.759998 -6.252138 18.264136 15.333476 -21.762501 17.717442 -6.801009 0.515121 1.869127 -0.746801 10.955978 -10.338720 2.123081 -1.243609 -9.108063 10.505524 5.833616 0.924489 -8.290532 -3.019933 33.970952 4.499278 9.235144 2.584014 22.870912 5.986353 0.221750 22.563346 13.250056 -4.261215 4.927311 -58.531492 -10.590159 7.924591 -18.000479 23.187950 -37.629701 0.673065 -14.893994 -31.174454 8.422235 -45.389332 -137.519388 40.603150 -123.556316 -38.182016 22.591140 8.355438 
86.325226 106.547516 -141.174942 179.154724 -9.934990 -174.442400 -6.856929 -4.717374 -17.384507 -4.365539 -10.432082 12.386009 -5.834203 13.086369 9.562461 3.720856 0.460541 -0.014226 -9.313670 -12.938397 8.976324 -1.366122 -8.043076 19.714688 14.692604 -22.026324 19.819981 -6.820903 0.070927 1.937248 -0.077525 10.479373 -10.595082 2.664566 -1.270442 -9.208649 10.528628 6.150793 0.116320 -7.936654 -3.391154 34.779780 4.256161 8.398611 2.850812 24.256471 4.736952 -2.445682 25.027121 11.932217 -7.803733 7.222478 -52.504811 -14.122953 11.320797 -20.621408 24.029564 -37.802876 0.918874 -15.661271 -31.313099 8.604732 -45.024990 -137.612487 41.314893 -123.647993 -39.507668 22.947353 8.657557 
85.279404 107.061249 -143.760712 178.803789 -12.265553 -175.347040 -7.955429 -4.137848 -13.895185 -4.390168 -12.476732 11.554137 -6.089901 12.487719 10.244491 2.997163 0.953490 0.166856 -10.239361 -13.535829 7.509403 -1.909288 -9.529973 20.915961 14.082659 -22.008003 20.350658 -5.082093 -0.100619 2.280481 0.224765 9.994711 -10.816060 3.466996 -1.420457 -9.369233 10.870876 6.278568 -0.004923 -8.036318 -3.720051 35.513628 5.075246 7.472853 2.876873 26.372551 2.903406 -4.830307 27.196566 11.040362 -11.767809 7.415920 -46.894800 -17.329539 13.235162 -22.930133 21.823692 -38.361887 1.429129 -16.405263 -30.386452 7.845212 -44.017252 -137.916696 43.079778 -124.474425 -40.120253 24.517225 8.054647 
84.668503 107.266373 -146.594360 179.143236 -14.174049 -176.146828 -7.952770 -3.002958 -11.258147 -4.633753 -13.919701 12.141978 -6.548795 12.526160 8.842590 2.822642 1.042490 0.251066 -10.852160 -13.496761 5.091798 -1.778033 -9.748710 22.230210 14.150028 -21.777418 20.231448 -4.583878 0.013239 2.298693 0.805261 9.223080 -10.607592 4.183149 -1.637708 -9.686559 11.499887 6.076338 -0.051440 -7.626508 -3.968139 35.450601 5.768755 7.049589 2.601204 28.398200 0.827297 -6.963141 28.707020 10.037708 -15.717575 7.343606 -40.478002 -19.552975 15.074724 -23.239211 20.201270 -38.548091 1.905641 -16.858754 -30.003413 6.862216 -43.077088 -136.287071 46.000962 -124.466508 -39.985633 24.946011 8.201053 
84.295250 107.260834 -148.864075 179.667937 -16.394756 -176.756435 -7.744367 -2.306989 -8.778432 -4.271195 -15.551389 11.965434 -6.803965 12.749522 6.634229 2.719741 1.266264 0.423935 -10.864854 -13.081042 2.596236 -1.469969 -9.618784 22.620979 14.267467 -21.531417 19.313943 -3.481030 -0.322475 2.847121 1.438404 8.219234 -9.831143 4.735239 -2.069931 -10.348361 12.425255 5.595535 -0.024819 -7.639949 -4.065595 35.322840 6.403388 6.753392 2.537752 30.356555 -1.315137 -8.775153 30.731843 9.447303 -18.592829 7.169271 -35.677887 -21.634847 16.828237 -24.236311 19.369880 -39.242676 2.388549 -17.446792 -29.987585 5.481478 -42.081404 -134.971217 48.092042 -124.274872 -40.958098 25.844899 7.747924 
83.064667 107.078506 -150.718735 -179.225603 -19.740031 -177.803532 -7.480619 -1.348473 -5.784683 -3.621573 -17.137244 11.169498 -6.570967 12.656630 4.280371 2.757493 1.125230 0.424046 -10.845908 -12.568498 0.000100 -1.261085 -9.459629 23.851557 14.336286 -21.589503 19.717746 -3.418494 0.180803 3.034928 1.686169 7.094080 -9.268160 5.685797 -2.933572 -11.044200 13.348818 4.845371 0.313085 -7.288956 -4.614329 34.393647 7.379524 6.938590 2.824692 31.949978 -3.567190 -11.020697 32.195173 8.388937 -21.433256 6.284294 -33.703840 -22.211014 18.991495 -24.934730 17.253713 -39.350883 2.455993 -18.070465 -28.943732 4.694541 -40.590290 -134.874927 49.135488 -125.124024 -41.732468 27.083258 6.915980 
81.921280 106.773636 -152.042450 -178.090971 -21.619739 -179.266913 -6.951273 0.118578 -3.138557 -3.413400 -17.759100 10.891611 -7.003487 13.005542 1.396450 3.135573 1.084257 0.354892 -10.250138 -12.589842 -3.257140 -0.406963 -9.367907 23.693099 14.788416 -21.796631 19.707133 -3.447151 0.470463 3.310869 2.292222 5.995554 -8.309768 6.832121 -3.527151 -11.612968 14.509632 4.024917 0.311570 -7.112497 -4.753403 32.712513 8.032405 6.952842 2.781765 33.633000 -5.835195 -12.495442 33.498448 8.141376 -24.061263 5.936516 -31.711832 -22.720125 19.423761 -25.282632 18.182995 -39.166473 3.182108 -18.137384 -28.467528 3.577057 -39.292237 -135.125735 50.316579 -126.699361 -40.761257 27.402198 7.527017 
80.507805 106.373383 -153.628647 -176.428019 -23.589265 179.218422 -6.072170 1.435269 -0.446415 -2.671241 -18.736152 10.552258 -7.659465 13.049876 -1.672120 3.479030 0.889578 0.210944 -8.448755 -11.859884 -7.562376 0.221403 -9.187619 22.285747 15.503023 -21.716486 19.913953 -3.464889 0.732642 3.675691 2.696233 4.455128 -7.464283 7.806752 -4.452815 -12.376639 15.822696 2.703382 0.691557 -7.322251 -4.701823 31.241692 8.779504 7.500336 2.904375 34.944349 -8.258920 -13.746145 34.549032 7.871489 -26.181726 5.359531 -30.145941 -23.244056 21.028647 -25.744367 17.409231 -39.269413 3.478939 -18.205388 -27.609844 2.563886 -38.043021 -135.441121 50.882864 -128.850673 -41.555188 27.090152 6.512011 
78.045288 105.810013 -153.938599 -174.025981 -25.632360 177.236658 -5.221118 2.991525 1.590512 -2.390057 -18.964741 10.762439 -7.908678 12.767052 -4.840380 3.547638 0.625404 0.421525 -6.428993 -10.797591 -12.015321 1.033974 -9.077100 19.294892 16.875305 -21.607040 19.907413 -3.966269 1.200831 3.910130 3.035668 2.781947 -6.430009 9.025215 -5.496529 -13.084129 16.752782 1.291289 0.742575 -6.916067 -4.806480 29.795077 9.504040 8.199884 2.954370 36.146566 -10.858766 -15.349352 35.594976 7.365198 -28.244397 4.673414 -29.614076 -23.233570 21.682240 -25.407752 16.975031 -39.061023 3.585156 -18.122978 -26.835332 1.464294 -36.894368 -135.113685 51.908902 -130.359089 -40.789926 26.703684 6.473456 
76.406120 105.050392 -156.003036 -171.999880 -25.959205 175.327864 -4.759127 4.584286 3.948416 -2.236769 -19.181752 12.013298 -6.778620 15.405206 -8.461768 3.477601 0.481975 0.979179 -5.081700 -9.908582 -17.298380 2.103201 -10.190918 18.288993 18.054482 -20.968031 18.927823 -3.927916 1.122182 4.211200 3.130730 1.278672 -5.054714 10.253285 -6.262625 -13.544221 17.220420 0.345300 0.748913 -5.960396 -4.361232 28.543573 10.129768 8.510476 2.675376 36.826036 -12.380897 -16.610937 36.656736 5.763970 -31.151340 5.157031 -29.191023 -23.699373 20.322249 -24.567781 16.221211 -37.697966 3.360956 -17.703822 -25.906315 0.917223 -35.586177 -135.622276 52.912301 -131.889014 -39.851884 25.977028 5.984071 
74.934975 104.081360 -158.048584 -169.294992 -26.892465 172.983836 -3.894324 5.320346 6.768542 -1.683270 -20.028085 11.612956 -6.816772 17.407513 -11.450770 3.041354 0.227097 2.093535 -3.016654 -7.691322 -22.707196 2.982926 -10.536433 15.542518 19.760563 -20.569970 18.532658 -4.646871 1.303448 4.585977 2.670964 -0.463284 -3.841477 11.709935 -7.221304 -13.389986 17.754305 -0.794173 0.135660 -5.205577 -3.587190 26.753893 11.591362 9.193676 3.796538 37.980825 -14.507754 -18.483585 38.302429 3.821713 -33.698076 4.953608 -27.540343 -24.752814 19.376732 -23.059325 16.277310 -36.372456 3.264654 -17.211353 -24.543685 0.513967 -33.786329 -136.663575 52.049506 -133.734852 -40.237863 24.097988 4.610116 
73.599236 102.878387 -160.101196 -166.757698 -27.614980 170.570601 -3.158834 6.612712 9.267421 -1.755984 -20.854127 12.857788 -7.822011 16.964018 -16.103955 3.312603 -0.146254 2.892387 -1.202794 -5.275879 -27.803895 3.926135 -10.326049 14.863703 21.641105 -19.569524 17.969835 -4.937034 1.523286 4.935245 2.263268 -2.110042 -2.653222 12.876404 -8.582693 -12.728180 18.456127 -2.200722 -0.462062 -4.477550 -2.390588 25.546316 11.962055 9.923025 3.794857 38.503399 -17.116891 -19.745676 39.574679 2.258920 -35.786287 4.645908 -25.881050 -24.563961 19.173884 -21.199513 16.182778 -35.007979 3.403712 -16.743734 -22.624209 0.130522 -32.195602 -134.562509 51.412670 -132.737952 -40.397789 21.600929 3.261545 
72.414520 101.518852 -162.189148 -164.708185 -28.200417 169.076602 -2.824337 7.847293 12.884665 -1.261254 -22.507934 12.655633 -8.610345 16.783420 -20.583775 4.304744 -0.196355 3.296760 -0.247632 -2.068101 -33.725578 5.631431 -11.029320 18.051342 22.106054 -17.519510 15.511377 -2.751247 0.452624 5.687000 1.831115 -4.045774 -1.039811 13.708031 -9.592248 -12.072000 18.534922 -3.534593 -0.783217 -3.187173 -0.445025 24.546288 12.419692 9.778203 2.613626 39.823613 -18.763873 -21.054777 40.711196 0.592534 -37.171074 4.437932 -25.222323 -25.676485 18.376220 -20.339091 14.827418 -33.645982 2.760042 -16.541694 -20.070089 -0.418749 -29.905214 -135.434592 49.994722 -133.803885 -41.727971 20.125721 0.285287 
71.366348 100.132233 -164.290253 -163.829861 -28.245610 168.646583 -2.075125 8.701320 15.389381 -1.518308 -23.084047 14.291688 -8.608254 15.538429 -24.238407 4.655903 -0.247065 3.664069 0.105276 0.597535 -37.956210 6.059473 -11.379243 20.070829 21.449216 -15.736097 12.536428 -1.407443 -0.209144 5.820021 1.595933 -5.290599 0.265036 14.586297 -10.559466 -11.179834 18.351706 -4.558237 -1.114700 -1.689364 1.502523 23.341738 11.867882 9.961915 1.318940 41.033819 -19.965619 -22.909796 41.394300 -2.113919 -38.444645 4.089007 -24.236892 -24.935100 16.535001 -18.580340 13.919677 -31.801015 2.331953 -16.559674 -18.187709 -0.048166 -27.853471 -135.559323 48.740465 -132.835182 -40.544551 17.853265 -2.192884 
70.318321 98.893349 -166.334030 -162.134459 -27.427760 168.111051 -1.268343 9.448611 17.468953 -1.525042 -23.545195 15.652215 -8.659663 17.025281 -27.565261 5.235049 -0.495866 3.822979 0.057647 2.108944 -43.309048 7.448339 -13.455310 25.910403 20.449161 -13.784455 9.778987 -0.636633 -0.441887 6.010821 1.393058 -6.375345 1.639243 15.555475 -11.470915 -9.953255 18.103570 -4.975821 -1.932274 -0.385476 4.057147 23.337059 10.985673 9.511074 0.063071 41.318734 -20.746957 -23.339212 40.988344 -4.187011 -39.748584 4.830428 -24.746083 -25.265535 13.633947 -16.589288 13.491201 -29.369151 2.053669 -16.432842 -14.768805 0.952906 -26.278646 -136.608797 45.603119 -132.199546 -39.794811 16.848086 -3.130746 
69.292709 97.990829 -168.088425 -160.086158 -26.245819 167.117413 -0.223986 9.746516 18.790588 -1.425852 -23.754633 16.843402 -8.972322 18.554223 -29.330579 5.990158 -0.610855 3.270127 -0.400843 3.220434 -47.663281 9.112654 -14.633467 30.437517 18.789997 -12.229775 7.174658 0.065835 -0.568113 5.877431 1.669603 -7.272159 3.036237 16.544060 -11.901166 -9.090860 17.664243 -5.339661 -2.449527 0.783844 6.513908 22.448360 10.353822 9.905735 0.764723 41.058440 -20.832181 -23.039712 39.560016 -6.195489 -40.284651 6.372493 -26.979949 -23.804503 11.054146 -16.021191 12.252970 -26.726264 1.231608 -16.570799 -11.623186 2.010299 -24.565849 -139.028874 43.132526 -131.708317 -37.653711 16.746741 -3.867309 
68.340622 97.506454 -169.411530 -159.116709 -24.738373 167.450155 0.806308 10.347972 19.717833 -1.636519 -24.326540 17.612228 -9.919354 16.822593 -30.036252 7.485752 -0.845320 2.460113 -1.031951 4.199876 -50.323884 9.785230 -14.951273 34.089695 16.814243 -11.197342 3.236400 0.292119 -0.193761 5.766768 1.578451 -7.568338 3.513519 17.122519 -12.598223 -7.701818 17.268263 -5.199874 -2.981629 1.773665 8.535215 22.385958 9.676910 9.700320 -0.181773 40.301182 -21.066257 -22.260989 38.341473 -8.205720 -41.420616 7.339318 -29.549061 -23.303640 10.464692 -14.965321 9.860805 -23.995460 0.650986 -15.840609 -7.738024 2.671301 -23.393281 -141.175419 40.186032 -129.531074 -37.093957 17.019650 -2.758961 
