HIERARCHY
ROOT Hips
{
	OFFSET -0.179506 -22.333345 2.821913
	CHANNELS 6 Xposition Yposition Zposition Zrotation Yrotation Xrotation 
	JOINT LeftUpLeg
	{
		OFFSET 6.951974 -9.140623 -0.681533
		CHANNELS 3 Zrotation Yrotation Xrotation
		JOINT LeftLeg
		{
			OFFSET 3.427654 -37.519855 -0.449580
			CHANNELS 3 Zrotation Yrotation Xrotation
			JOINT LeftFoot
			{
				OFFSET -1.359570 -39.796059 -4.369333
				CHANNELS 3 Zrotation Yrotation Xrotation
				JOINT LeftToe
				{
					OFFSET 2.635814 -5.579078 11.928840
					CHANNELS 3 Zrotation Yrotation Xrotation
					End Site
					{
						OFFSET 0.000000 0.000000 0.000000
					}
				}
			}
		}
	}
	JOINT RightUpLeg
	{
		OFFSET -6.767048 -9.052170 -0.431982
		CHANNELS 3 Zrotation Yrotation Xrotation
		JOINT RightLeg
		{
			OFFSET -3.829005 -38.256897 -0.885003
			CHANNELS 3 Zrotation Yrotation Xrotation
			JOINT RightFoot
			{
				OFFSET 1.577377 -39.841461 -4.231180
				CHANNELS 3 Zrotation Yrotation Xrotation
				JOINT RightToe
				{
					OFFSET -2.537174 -4.814398 12.334795
					CHANNELS 3 Zrotation Yrotation Xrotation
					End Site
					{
						OFFSET 0.000000 0.000000 0.000000
					}
				}
			}
		}
	}
	JOINT Spine
	{
		OFFSET -0.253288 10.896323 -2.669631
		CHANNELS 3 Zrotation Yrotation Xrotation
		JOINT Spine1
		{
			OFFSET 0.548704 13.518043 0.109247
			CHANNELS 3 Zrotation Yrotation Xrotation
			JOINT Spine2
			{
				OFFSET 0.145701 5.292222 2.542457
				CHANNELS 3 Zrotation Yrotation Xrotation
				JOINT Neck
				{
					OFFSET -0.277840 21.387037 -4.285703
					CHANNELS 3 Zrotation Yrotation Xrotation
					JOINT Head
					{
						OFFSET 0.515184 6.496960 5.134897
						CHANNELS 3 Zrotation Yrotation Xrotation
						End Site
						{
							OFFSET 0.000000 0.000000 0.000000
						}
					}
				}
				JOINT LeftShoulder
				{
					OFFSET 7.884473 12.174932 -3.408961
					CHANNELS 3 Zrotation Yrotation Xrotation
					JOINT LeftArm
					{
						OFFSET 9.097692 3.046888 -0.886815
						CHANNELS 3 Zrotation Yrotation Xrotation
						JOINT LeftForeArm
						{
							OFFSET 25.961220 -1.277207 -2.745643
							CHANNELS 3 Zrotation Yrotation Xrotation
							JOINT LeftHand
							{
								OFFSET 24.923361 0.898606 -0.117091
								CHANNELS 3 Zrotation Yrotation Xrotation
								End Site
								{
									OFFSET 0.000000 0.000000 0.000000
								}
							}
						}
					}
				}
				JOINT RightShoulder
				{
					OFFSET -8.175920 11.883285 -3.861528
					CHANNELS 3 Zrotation Yrotation Xrotation
					JOINT RightArm
					{
						OFFSET -9.601238 3.255117 -0.914307
						CHANNELS 3 Zrotation Yrotation Xrotation
						JOINT RightForeArm
						{
							OFFSET -25.374195 -1.332924 -2.140099
							CHANNELS 3 Zrotation Yrotation Xrotation
							JOINT RightHand
							{
								OFFSET -25.529810 0.777228 -0.555919
								CHANNELS 3 Zrotation Yrotation Xrotation
								End Site
								{
									OFFSET 0.000000 0.000000 0.000000
								}
							}
						}
					}
				}
			}
		}
	}
}
MOTION
Frames: 71
Frame Time: 0.033333
-0.179506 121.471619 2.821913 -88.215721 16.136740 -144.864355 27.949836 28.948566 -50.295912 1.940704 15.962302 28.667608 0.183458 10.835593 4.540085 -0.553308 0.183987 -0.667445 -43.774308 -13.374909 -11.373723 3.807766 12.543899 24.409159 10.502930 3.787787 5.639092 1.759310 -0.695752 -0.809428 4.185363 5.269710 29.719931 1.573970 -1.252108 4.051085 2.026896 1.751302 -3.612317 -7.353599 10.558045 13.106152 2.131785 4.308858 -22.207400 -14.933344 0.387440 2.348283 -22.953210 6.263705 -0.989336 -1.369311 -18.472872 -16.095088 70.792770 -5.998573 -10.910455 8.995698 2.127243 -1.604214 13.916980 -0.588889 -18.181045 -61.319486 56.022688 -73.926089 -49.104483 2.648891 -17.077965 
-0.588139 121.713882 2.772045 -91.386253 12.754594 -138.706237 27.724357 28.388510 -55.202130 1.957881 15.796740 32.988916 0.695571 11.102488 3.644824 -0.531623 0.265255 -0.619588 -42.945189 -15.188876 -12.654196 3.404908 11.045353 19.584503 12.468360 3.121787 6.765394 1.751339 -0.909451 -0.585370 3.410618 6.964867 33.123992 1.346781 -1.622368 4.052876 2.257232 2.400422 -3.320644 -6.992425 9.942405 9.209102 4.066332 1.387915 -23.710726 -14.367308 -2.978704 0.579650 -20.472414 1.628625 -0.984524 -1.827811 -17.649375 -17.555716 69.737811 -6.614320 -9.900454 10.681146 4.358794 -1.979235 14.740470 1.967873 -15.405803 -67.806203 59.676093 -77.582250 -49.895628 4.162709 -15.872100 
-1.084241 122.267792 2.444826 -97.956546 8.181985 -130.590861 27.447834 27.489641 -60.533209 -0.218133 14.029159 36.518883 0.937406 9.374821 0.493973 -0.332756 0.322453 -0.560861 -41.638333 -17.776029 -13.963165 2.366136 9.564186 12.407411 15.157085 0.951436 9.259543 1.610754 -0.865312 -0.711266 2.308195 9.197420 37.008697 0.704987 -1.380993 5.403896 2.566268 3.265550 -3.552705 -7.754067 8.299454 2.746238 6.209576 -2.697082 -25.042963 -12.661355 -9.652559 -1.943362 -14.752476 -4.401118 -3.294993 -1.627188 -19.357275 -18.748739 65.573027 -9.245080 -8.176705 11.196950 9.625852 -2.554534 15.456809 5.648746 -13.671890 -74.167698 62.033067 -80.458059 -47.557626 7.672368 -12.951268 
-1.408273 122.938492 2.141155 -107.268830 3.170943 -116.790360 26.148065 26.314201 -65.778459 -4.351182 12.383795 43.960572 0.017663 7.068730 -7.141042 -0.290067 0.109847 -0.363939 -38.812385 -21.744521 -18.917131 1.293809 6.178747 6.992061 17.033509 -0.676828 9.809456 0.619005 -0.551880 -0.316922 1.593785 11.077973 41.606747 0.566087 -1.203138 6.427236 2.598855 3.930914 -5.759421 -8.748081 7.263431 -3.009164 7.717102 -6.435073 -25.837676 -9.326630 -16.458245 -4.031013 -5.013171 -10.096178 -7.134383 -1.713537 -21.754978 -19.733988 60.620942 -12.699659 -6.680038 11.572751 15.688509 -1.746518 14.121922 10.944754 -12.496631 -69.763142 63.011605 -75.782640 -47.338958 9.252241 -13.760139 
-1.156715 123.866333 1.662112 -116.879675 -1.318130 -96.606533 25.880887 27.080474 -69.978931 -7.672921 10.239615 49.354571 -0.772372 3.676177 -13.175107 -1.235417 0.527124 -0.372055 -38.649603 -26.200685 -24.556533 1.728662 5.019462 3.517785 20.312348 -1.359294 9.888535 0.917385 -0.775127 0.771198 1.622433 11.006935 46.310220 -0.318616 -1.017301 5.110988 2.993617 4.260312 -7.274451 -10.857067 6.586934 -6.116022 7.741009 -7.449752 -27.420720 -4.368396 -22.483327 -6.838023 6.631943 -11.444755 -11.617766 -2.523593 -24.517702 -19.984799 58.117870 -14.071561 -6.002706 7.567382 22.701452 -2.619980 5.777685 17.979909 -18.446805 -54.082502 60.776131 -65.581539 -49.776809 7.841954 -15.575642 
0.043653 124.841324 0.955850 -123.615324 -4.648089 -82.308339 28.959956 28.261467 -67.997175 -10.214199 0.794503 48.670915 -3.276455 1.708569 -15.539654 -1.527433 0.455886 -0.998705 -38.391279 -30.194278 -31.131353 2.439376 5.886288 3.192157 20.696248 -2.828418 7.534509 -0.176875 0.010890 0.576123 2.128265 8.723771 49.313545 -0.707961 -0.620195 2.696157 3.657776 4.879126 -8.767795 -11.262896 3.767588 -8.969732 8.460005 -8.166255 -28.189823 1.127049 -26.161245 -10.332987 12.818472 -11.903754 -14.665469 -2.502340 -24.808882 -21.620022 56.425292 -14.869636 -5.553138 -0.231474 29.271605 -6.033677 -5.127617 24.688765 -27.588688 -37.468253 56.430001 -52.256143 -47.758617 8.281046 -15.567517 
2.028154 126.352051 -0.164244 -132.135656 5.339077 -74.196438 32.599873 28.626096 -63.955572 -10.288356 -4.163381 47.664859 -5.346297 0.834174 -18.493709 -1.078524 -0.359843 -2.117367 -38.191301 -32.096820 -36.952025 2.502356 4.481956 4.685198 21.219911 -3.663743 6.610766 -2.248038 1.662946 0.057510 2.458916 6.712412 51.431847 -0.715303 -0.014961 3.367985 3.083208 5.020844 -11.275961 -11.825598 1.496268 -9.185559 9.335803 -8.297184 -30.939961 4.142419 -31.147769 -11.950182 16.462436 -13.693582 -16.817253 -5.111484 -21.943312 -20.347795 58.055754 -17.728981 -4.274492 -6.009131 34.745360 -8.564991 -16.345448 28.714498 -36.473154 -28.900271 49.306044 -47.519628 -54.998790 8.200837 -15.781920 
5.090496 128.160049 -1.008565 -140.004333 10.923035 -67.503106 36.358793 27.167615 -54.046350 -5.846135 -11.243517 30.435946 -10.338677 0.729495 -15.470629 -0.275558 -0.357440 -2.978847 -37.328678 -31.668532 -41.180569 2.473811 6.236840 8.500793 18.705513 -3.274225 1.125230 -0.301428 1.522237 0.201620 3.320914 3.379118 50.889613 -1.982634 0.975260 1.726405 3.310603 4.993598 -11.725980 -12.076203 -1.318733 -8.848660 11.000594 -8.308250 -31.717350 6.715953 -33.326042 -14.642707 17.944786 -15.600011 -18.865024 -3.922409 -19.638260 -20.265192 58.240639 -20.105730 -2.459820 -10.739289 38.033620 -11.119858 -23.658789 30.181710 -42.051001 -24.729193 43.787393 -45.289193 -57.646302 7.816546 -16.666775 
8.818645 130.245255 -1.983272 -150.326710 20.660767 -67.071235 37.593446 26.542542 -46.766426 -0.582716 -11.781897 14.199559 -13.949931 1.392964 -10.273724 -0.115161 0.158800 -2.456827 -36.408986 -29.519758 -45.713955 3.254842 6.891618 14.723171 15.839850 -1.827756 -3.717260 1.594934 0.782090 0.563948 4.572899 0.488546 49.620837 -2.196298 0.502932 2.293940 3.653233 4.256897 -11.714420 -12.063690 -1.467191 -6.256632 11.338935 -9.042950 -30.892863 7.714207 -36.308110 -15.673463 19.058914 -17.630766 -20.388369 -4.156242 -18.866606 -18.820088 52.575253 -23.951534 3.359723 -10.729052 39.183646 -11.093087 -25.256247 27.923081 -43.209914 -25.802621 41.765954 -47.216357 -58.993429 7.483893 -18.499996 
13.169369 132.673340 -2.490790 -161.638231 32.856821 -71.002952 35.687040 26.728690 -42.228208 0.648403 -5.133058 2.266446 -16.062126 3.101464 -3.711643 0.125408 0.749340 -1.115090 -32.935719 -25.115623 -50.713314 5.512724 7.413269 22.319261 11.187556 -1.869252 -11.675651 4.006851 -0.578565 1.335949 4.455874 -2.181670 49.531091 -1.690066 -1.575106 1.518266 4.480540 2.594721 -10.748597 -14.151303 -0.519877 -7.409894 11.068078 -6.938026 -31.592236 10.178625 -39.033711 -17.153060 18.650794 -18.828312 -22.105744 -3.221218 -17.650830 -17.456450 46.154915 -25.150847 8.451610 -12.943703 39.477302 -11.406032 -23.189437 25.247872 -41.422786 -27.528666 40.578359 -48.507528 -55.869755 8.303606 -18.132648 
17.384853 134.826813 -2.194417 -176.199226 40.764888 -81.617402 31.299377 23.688137 -39.963564 -0.717114 -3.615185 -0.854983 -15.767645 4.834549 -2.633894 2.093102 0.782626 -1.112391 -26.843245 -22.865446 -62.174379 10.536013 1.207669 39.926412 8.780823 -1.842757 -18.423663 3.853142 -0.816277 1.823912 3.842027 -4.992286 50.342941 -0.240831 -3.919930 -0.158051 4.893884 0.516171 -8.652436 -14.413034 0.966955 -7.332996 10.108730 -7.448556 -28.580766 12.588911 -39.798020 -18.487802 17.263894 -22.307531 -25.407535 -1.166369 -15.855245 -17.845313 42.331818 -22.769159 10.381537 -14.758628 37.263803 -13.227685 -14.443253 26.491011 -37.589481 -31.851260 40.858700 -50.821666 -56.356168 6.027312 -18.403399 
21.048597 136.022247 -1.652915 165.217515 44.603493 -98.440946 26.171362 23.266774 -36.958499 -2.457497 -0.249655 -0.532167 -15.858969 5.271973 1.885326 1.774407 0.378021 -0.375124 -22.288426 -15.958419 -67.437725 8.812912 -2.778619 42.419401 7.891666 -2.580169 -21.584767 3.371048 -0.365213 1.742965 3.121041 -7.430762 49.484592 1.838025 -5.828510 -1.775332 5.381620 -1.694941 -5.999671 -14.044147 2.211253 -7.281889 8.885504 -7.441519 -28.312316 14.183176 -40.570079 -19.211094 13.937962 -26.739751 -26.284463 0.282001 -16.270060 -15.463548 35.340432 -21.389974 11.125530 -13.940578 35.047719 -12.855763 -3.932204 27.527508 -32.007483 -37.718570 40.285792 -52.855525 -55.324902 3.632679 -18.464309 
24.130163 136.352371 -0.775357 140.380561 42.300603 -122.859110 18.928368 24.068341 -31.522011 -7.998136 -1.487257 5.331997 -15.583375 2.186597 3.433565 1.447765 0.170081 0.321815 -19.211959 -6.659324 -65.711838 5.011811 -5.229957 42.070496 5.581544 -4.152929 -20.118006 3.293818 -0.155883 0.961969 1.976917 -10.922090 49.182984 4.591731 -8.326321 -4.373275 5.315954 -3.607693 -2.849541 -14.425414 2.483675 -7.610579 6.357444 -8.368539 -26.400685 14.981600 -41.734611 -19.430552 9.172603 -32.223685 -27.663200 2.579212 -18.711152 -12.658350 30.740482 -19.988213 5.202556 -12.056678 32.183010 -12.644195 8.775482 25.510731 -24.819265 -42.228235 38.532741 -53.308213 -57.631512 1.719537 -16.875324 
25.530945 135.797607 -1.083855 121.434136 33.197519 -143.664337 19.740392 24.539245 -22.764802 -15.129452 -4.722926 21.981289 -13.115966 -1.545346 -2.024300 0.941766 -0.082365 0.214692 -18.502848 -3.823555 -64.627329 1.766686 -7.813706 41.373120 1.251676 -5.787027 -14.499967 4.410676 0.430426 -0.346052 1.050756 -14.151091 48.514985 6.661427 -9.142369 -4.478485 4.830329 -5.694316 -1.946049 -14.830528 1.168611 -4.780874 4.304716 -9.152040 -26.691242 12.364717 -40.802514 -16.653076 2.693398 -39.291238 -26.167549 6.608302 -28.301955 -12.350587 31.459928 -18.042199 -8.242225 -9.942644 27.343209 -10.482121 18.480159 20.186286 -19.692346 -43.245321 37.279699 -53.010285 -60.206883 -1.845281 -21.549481 
26.348742 135.323105 -1.859202 111.021615 20.795047 -158.245477 29.662846 24.471335 -12.691689 -23.649247 -2.791256 47.178344 -9.340336 -3.452732 -9.093946 0.657501 -0.404715 -0.433970 -21.329002 -6.347273 -59.385961 1.462623 -6.973233 37.743671 -1.697140 -5.859777 -9.135480 5.188781 0.771934 -1.279627 1.404190 -15.087126 45.416539 8.223563 -10.841724 -1.341601 4.460255 -6.682365 -2.961861 -16.559437 1.532965 1.339765 1.434903 -10.340105 -27.663035 9.076906 -38.155655 -12.582207 -6.412257 -42.397809 -20.316672 10.975368 -42.701740 -10.926871 33.998653 -15.931810 -17.754554 -6.276384 22.370815 -6.600693 24.980026 13.861430 -17.639443 -43.953874 36.699009 -51.370128 -63.109708 -5.177210 -23.436421 
29.034313 134.962021 0.051046 106.318250 9.122150 -167.900733 39.980307 21.544491 -7.796871 -28.479936 -0.416120 63.080101 -8.171857 -4.552696 -12.108325 0.846918 -0.636472 -1.342445 -27.959305 -11.364698 -52.366076 0.313953 -5.980941 30.007333 -2.952860 -7.806871 -7.075303 5.474182 0.504037 -1.239924 1.830944 -13.538444 42.197716 7.717664 -11.913487 2.035600 4.088261 -6.558861 -4.611520 -16.711003 0.840902 7.531428 1.268032 -11.816045 -27.155456 6.174029 -32.398364 -8.193852 -10.880079 -40.431683 -17.264639 19.188277 -56.843572 -16.245216 41.088339 -13.613691 -25.507574 -4.266373 16.786508 -2.516852 32.215553 8.502391 -15.382624 -42.882563 36.961798 -47.857378 -67.179920 -7.246410 -22.371223 
31.859980 134.372971 3.569134 106.093815 -2.966346 -178.083063 49.514261 19.233980 -13.010529 -30.503629 2.118449 77.502802 -4.503622 -3.324148 -16.145951 -0.572358 -0.951450 -1.215551 -35.576078 -17.618314 -45.838942 -0.196213 -3.711107 24.050877 -3.402642 -8.162925 -5.094030 3.414935 0.238850 -1.629252 1.011336 -10.783108 41.602717 6.575665 -10.835118 5.017385 3.940474 -6.029715 -6.929345 -16.535063 1.569975 15.178581 2.546646 -14.633546 -27.408660 1.838495 -25.152425 -2.909592 -3.874302 -30.947180 -19.916001 49.424044 -66.030808 -47.033326 49.658235 -8.296421 -29.333066 -0.770467 12.591946 3.704566 36.840272 2.041169 -13.372084 -38.427050 36.644080 -44.423359 -70.916858 -12.299641 -22.626612 
35.617706 130.818054 9.925517 105.876331 -13.793912 169.281938 53.603254 24.893211 -26.217128 -30.261992 0.334241 76.439719 -1.946906 -1.710272 -17.818183 -0.728903 -0.945506 -1.107387 -41.003122 -21.537861 -41.085524 -0.372191 -2.178680 22.314313 -2.425727 -8.160896 -4.632697 2.041467 -0.256577 -1.517306 -0.134047 -7.419772 45.438329 4.571411 -8.940459 5.204252 4.630040 -4.664642 -7.373085 -17.363709 2.055610 22.149666 4.255857 -16.193244 -27.700595 -1.304996 -18.325456 -0.151555 5.149796 -19.407579 -23.553249 62.944933 -62.411197 -64.341866 56.621019 -4.431202 -28.632707 1.483309 8.758301 8.073400 40.086766 -3.487045 -10.360751 -35.058291 37.682586 -40.470638 -73.647854 -11.337492 -21.390299 
36.436920 128.517822 11.511008 110.575633 -18.805544 156.480568 52.557856 31.362995 -37.366755 -26.328065 -0.985355 70.129973 -0.782479 0.984471 -18.179501 -1.007843 -0.845038 -1.199854 -45.293490 -22.170235 -36.785326 -0.540679 -0.071356 23.992026 -2.101055 -7.506608 -5.472962 2.211375 -1.095523 -1.114481 0.183471 -5.099725 47.808782 3.508385 -7.717381 6.900649 4.280605 -3.283071 -7.849446 -18.097109 2.954478 26.076791 4.717025 -16.285646 -28.459180 -3.760094 -14.099406 1.811171 10.082111 -9.933424 -23.994575 56.049885 -58.136414 -62.960072 60.838976 -4.337922 -26.043129 4.004071 7.298112 11.113600 41.752226 -7.114916 -8.245852 -31.289247 37.107777 -38.425472 -74.967047 -8.948063 -19.197176 
35.724480 126.025757 11.742121 116.359488 -19.862254 143.422058 48.869549 33.347574 -42.570208 -22.194416 -2.572642 58.237711 -1.444131 1.593295 -15.270487 -0.982700 -0.922194 -1.464206 -47.368786 -21.862758 -33.926515 -1.107540 0.787605 27.036484 -2.357433 -8.715502 -6.300358 2.566635 -1.373778 -1.118507 1.607612 -4.562150 49.052673 2.467872 -6.130591 8.020752 3.562224 -2.394064 -7.740938 -19.594536 2.481452 27.284188 2.445358 -14.612037 -25.764422 -7.770352 -9.833512 4.036253 9.626644 -4.529096 -21.948100 53.092065 -56.048994 -62.928927 62.956671 -5.683798 -23.259996 6.302806 5.992077 12.876201 42.025152 -9.942404 -6.445113 -30.156630 38.159020 -38.206642 -74.250455 -5.873111 -17.814257 
34.339588 123.761795 10.734711 124.168262 -18.222009 130.437967 46.339782 32.819709 -43.043780 -18.413167 -3.514135 45.290325 -3.173609 1.219652 -11.733994 -1.373062 -1.021253 -1.357829 -49.181664 -20.871894 -31.553429 -2.185284 1.167779 28.105875 -3.099667 -8.447834 -6.659835 4.829504 -2.039846 -0.897150 3.418094 -5.308199 50.952259 1.809417 -4.869274 10.163982 3.105391 -1.724662 -9.044445 -20.312388 2.278118 27.407855 0.062349 -11.667244 -23.762258 -13.373630 -6.094022 6.777579 5.630923 -0.854458 -18.177122 46.836395 -55.189448 -58.003851 64.661006 -6.312906 -22.684505 9.245785 4.522444 14.149058 40.543596 -11.415110 -5.383489 -28.373424 40.078642 -37.357111 -73.508611 -3.055567 -16.524097 
33.154022 122.019409 11.761940 133.490177 -16.088891 115.579675 43.890041 30.735422 -42.095226 -13.161875 -3.314119 36.457166 -6.860883 1.340767 -6.096319 -1.441526 -0.646090 -1.050026 -49.770327 -19.190220 -30.330924 -4.151044 3.416147 27.820419 -2.224599 -7.685954 -5.254719 5.312819 -0.771485 -1.721662 5.996857 -6.350581 50.867494 0.807827 -3.471359 13.796320 3.659589 -1.727160 -10.090424 -20.638124 0.846427 27.015814 -1.694156 -8.671379 -21.061229 -21.955123 -1.788304 9.903020 -1.992865 1.207274 -12.825291 41.718795 -55.421315 -51.155242 65.826132 -8.115776 -22.996441 13.016733 2.711950 15.185447 37.836276 -13.026054 -4.745590 -26.533037 44.447563 -34.856391 -73.628231 1.449406 -16.301260 
33.073875 121.035645 12.694199 143.394158 -11.698433 103.098742 45.480844 28.274749 -35.847996 -8.934312 -3.078718 29.167542 -11.160539 1.154315 1.178454 -1.268914 -0.397068 -0.716635 -52.497655 -17.935434 -26.616655 -6.237613 4.552426 21.632263 -0.470037 -7.619288 -0.498589 4.479657 -0.344565 -2.317500 7.510271 -7.068338 48.500505 0.413228 -2.105246 16.228262 3.522445 -2.716908 -10.376563 -20.210087 -1.811598 25.837452 -2.852766 -4.533604 -18.779422 -30.049439 4.261247 13.820211 -14.420925 4.059287 -4.556811 18.609214 -54.046307 -27.048390 64.683849 -6.956428 -23.986193 17.144167 -0.320259 16.385325 35.017227 -14.578758 -4.282093 -22.489889 49.816620 -30.789542 -71.505863 5.324695 -17.050278 
33.117569 121.008301 13.631289 151.739664 -3.629231 89.966337 49.910106 26.521819 -25.208331 -6.765635 -5.621447 18.244596 -15.292625 0.796623 7.925751 -1.278005 -0.183128 -0.245296 -54.455890 -16.893781 -23.219856 -5.265163 4.458104 16.439778 -0.274566 -6.314827 5.163652 5.737883 -0.533537 -2.033419 8.055801 -8.182754 44.634246 0.253467 -1.018634 17.879788 3.627643 -3.209917 -11.115880 -19.483096 -3.879915 25.143166 -1.067565 -1.166281 -17.588961 -36.452271 9.622680 15.873847 -25.244536 10.012561 3.014204 0.503753 -46.432521 -7.530759 67.064488 -6.584340 -25.403085 19.616104 -3.360109 17.253490 30.183854 -18.514374 -3.156587 -11.036506 53.440242 -19.679201 -71.729974 9.681581 -17.893192 
32.958313 120.907776 14.974309 159.389385 3.621305 78.518879 55.668678 25.020196 -17.805105 -5.398650 -7.221366 12.606509 -19.794930 2.272053 17.623292 -1.797577 0.197611 0.368753 -56.280335 -17.578487 -21.125331 -3.498837 4.559136 10.776762 3.158713 -5.212136 13.820292 5.086581 -0.684437 -1.368830 7.782156 -7.779805 39.515378 0.874393 -1.082010 19.288591 4.033373 -3.850370 -11.562506 -17.572992 -5.636596 22.757128 1.475384 0.591950 -17.753884 -39.917938 12.389373 17.561222 -29.301868 13.677968 6.248257 -8.720803 -36.251374 0.978456 69.291646 -4.958681 -27.281064 21.049774 -5.796265 18.195900 25.232551 -20.766685 -1.819838 -5.208396 49.950069 -17.655361 -69.237697 10.813067 -19.042410 
32.291855 120.393234 16.357925 164.620840 9.621695 72.386792 58.158565 23.107096 -15.665098 -4.115347 -9.714083 10.729819 -21.048010 4.493298 21.564768 -1.654344 -0.053955 0.726415 -54.676638 -19.749566 -24.404114 -1.505570 3.962128 8.004730 3.144640 -5.918446 17.479482 4.454051 -0.388160 -0.598269 6.490841 -6.923487 36.833063 1.800946 -0.400560 19.362495 4.080770 -3.938952 -11.235692 -15.435940 -5.209787 21.302280 3.952496 2.596125 -19.382339 -38.577598 13.754653 18.407106 -30.355652 16.628662 8.224764 -10.737095 -33.010356 0.873620 73.031879 -1.440204 -27.631715 20.467102 -6.822266 18.453401 23.773303 -22.044673 0.278918 -4.146331 46.065110 -18.127234 -70.161859 10.931951 -17.437906 
31.311415 119.290344 17.400761 169.432972 12.046738 69.468193 59.744884 22.456570 -14.785551 -3.247953 -9.398483 9.913311 -20.505272 6.605252 25.223908 -1.351367 -0.137661 0.159513 -52.391861 -22.421519 -27.762542 1.636868 5.027334 8.983451 3.322241 -5.746667 17.548866 2.849530 0.400043 -0.413383 4.923035 -5.307917 34.349081 2.303712 0.631308 20.228395 4.022214 -3.098929 -10.835373 -15.176378 -3.579427 21.250929 6.040618 2.436241 -20.684576 -35.759590 13.093752 18.158637 -28.392642 17.149790 8.351663 -9.929026 -29.140773 -3.284363 75.087084 0.193775 -24.923586 20.265325 -6.630490 18.171960 22.785195 -21.966379 1.455197 -0.927596 40.095166 -16.872965 -68.872458 11.174479 -14.525966 
30.164602 117.636154 18.101820 175.142506 14.427620 70.354829 58.591347 23.099990 -17.710379 -2.876720 -7.251085 15.408371 -17.719534 7.842026 23.498140 -0.813845 -0.167158 0.128886 -47.305964 -24.775239 -33.507908 4.724087 7.057014 11.815468 3.195656 -3.918743 15.653325 2.595696 0.404010 -0.308135 3.101536 -3.536289 33.413910 3.451593 0.753476 21.083166 4.329205 -2.519072 -10.092128 -14.488343 -1.153154 20.424596 7.270311 2.808972 -22.035165 -32.680513 11.475287 17.575193 -27.080098 17.120463 7.808994 -9.959072 -23.987456 -6.692155 77.267085 0.230871 -21.735698 20.059358 -5.917262 17.625971 21.856064 -21.046370 1.452202 -0.938463 35.156554 -18.626280 -67.179676 9.360197 -14.046170 
29.030949 115.616165 18.376640 -177.413942 18.447563 72.832654 56.514652 24.737207 -22.626581 -3.051635 -3.527863 22.255604 -14.156046 8.370892 23.123876 -0.217229 -0.280523 -0.546606 -39.975541 -26.771394 -44.412962 8.660137 7.802780 17.803133 1.585532 -1.257007 13.577796 3.238467 0.343522 0.080399 1.351809 -1.672521 33.425070 5.035473 0.232887 22.305342 4.767554 -1.718972 -9.808050 -13.840627 2.020956 20.828053 8.253532 2.103579 -23.266388 -29.398249 9.489318 17.045181 -27.265553 14.974201 6.056284 -8.948925 -19.043463 -10.586005 77.825392 0.868084 -19.311207 21.483925 -4.286505 16.709190 23.480898 -16.732441 -1.343845 -2.669590 30.644321 -22.417794 -65.592124 7.537301 -15.404077 
27.958342 113.106201 18.364820 -165.196617 24.418471 83.410200 52.034173 26.453068 -29.058513 -5.123514 -0.319199 29.652396 -10.926638 8.322418 19.684938 -0.525026 0.068403 -0.730865 -31.361306 -26.635840 -55.971606 12.632524 6.692277 23.517317 0.183930 0.531711 12.772134 3.648912 0.031669 0.529016 -0.461541 0.110008 35.224955 6.358161 -0.533825 22.151731 5.197956 -0.872433 -8.787930 -12.325013 5.184184 18.278220 9.283500 2.039825 -24.228718 -25.700322 7.396994 16.157170 -27.448560 13.238126 5.532853 -8.570469 -16.397349 -11.114335 77.296441 1.736088 -18.454709 22.319873 -3.570441 15.184247 26.360598 -14.008082 -2.903550 -3.277834 27.543940 -25.983950 -64.392710 3.786389 -18.477569 
27.302610 110.538528 18.624830 -152.803999 27.622855 91.435183 46.676144 27.365005 -35.015928 -6.355547 4.096312 38.659560 -7.671799 7.230803 13.995840 -0.678565 0.022106 -0.647749 -23.113593 -26.377671 -67.786326 16.411892 2.127793 33.700122 -1.288739 4.501166 10.085547 4.608596 -0.055144 0.025820 -1.128916 1.118703 39.006933 7.178545 -0.873046 21.212681 5.016570 -0.587211 -9.445208 -12.228741 7.726407 20.403094 9.548001 -0.155393 -24.645404 -24.887707 6.129176 15.763603 -26.116992 10.465425 4.236009 -6.601158 -14.149565 -10.425514 73.384366 -1.834629 -15.377420 23.600051 -3.049427 14.793308 29.077538 -12.738459 -6.649624 -6.962012 30.906894 -30.189707 -64.384715 0.165640 -20.774341 
27.238800 108.182083 19.066916 -138.206023 29.952914 103.212624 42.060847 28.350573 -39.051765 -7.294777 7.740721 48.219397 -4.869448 5.911012 9.081383 -0.874037 -0.058848 -0.829283 -19.170553 -26.364715 -72.815679 17.257441 -0.398748 38.805776 -2.371809 6.922093 6.631397 4.545939 -0.262619 -0.263370 -1.704102 1.788442 39.787899 7.355884 -1.264407 20.537336 4.680042 -0.252781 -9.513292 -11.693515 10.347597 19.532822 9.926384 -0.469784 -24.313277 -22.222212 5.137552 15.789346 -23.101249 9.380218 3.662775 -4.323103 -16.990928 -10.888328 71.789605 -4.691250 -13.512926 23.197384 -1.931278 14.282589 28.633392 -13.017469 -9.971343 -11.718204 35.672013 -37.613923 -63.244914 -2.115527 -24.639109 
27.356102 106.228409 19.856749 -125.406994 32.866754 115.400286 39.082954 27.818291 -41.169618 -5.983202 8.029852 47.976507 -3.782373 7.807854 4.420222 -0.391587 -0.647999 -1.002411 -18.884795 -25.691613 -70.436893 16.052171 0.124339 38.522402 -1.949439 6.409976 4.863130 4.354540 0.100837 -0.586242 -1.960061 1.595041 39.406273 6.218370 -0.901266 19.968027 4.388623 -0.148200 -9.989137 -11.531720 12.497844 18.926912 9.581366 2.283447 -25.085124 -20.630591 5.228238 15.245579 -19.924496 10.973477 4.578011 -2.532376 -23.344350 -10.473857 73.293822 -6.660297 -12.821610 20.457784 -0.666457 12.478646 25.918169 -13.618216 -11.082503 -18.842454 41.153729 -43.206743 -61.666682 -2.126325 -25.276766 
27.214445 104.828911 20.904158 -110.771736 33.351207 134.325430 39.272487 28.218003 -40.854229 -3.485569 7.036661 44.601477 -3.298788 8.500885 1.478002 0.222268 -0.693802 -1.246702 -21.399403 -28.187450 -65.591649 13.633202 2.262367 36.783333 -0.550481 4.725219 4.779268 4.269663 0.474071 -0.654215 -1.323379 1.672454 36.558507 4.926012 -0.566108 18.835065 3.735441 0.366590 -9.611732 -11.023387 12.073022 18.420894 9.657972 3.085830 -24.686318 -18.599719 4.632758 13.377062 -16.220129 10.908039 4.295880 -6.373588 -27.799235 -9.549967 75.818271 -6.813547 -12.448881 16.216571 0.255776 10.393187 20.062803 -13.457253 -14.121705 -25.449097 45.463362 -48.908027 -61.050911 -0.742390 -22.638628 
26.674999 103.772469 22.020798 -101.798086 27.873546 150.590998 40.032638 27.466595 -40.663292 -0.633380 5.929541 37.060034 -3.278813 10.233095 -0.227321 0.798342 -0.779259 -1.493459 -25.428436 -28.573826 -57.967886 11.997721 5.883080 35.698326 1.679597 3.593591 4.605620 3.967131 0.856412 -0.727809 -0.701648 1.885378 33.940619 3.302144 -0.209359 16.891463 3.045940 0.689399 -9.040861 -10.372128 11.588850 17.838820 9.340787 3.551888 -25.405692 -17.328128 3.473419 10.816553 -12.872260 10.007255 3.385691 -5.904855 -29.371096 -11.821903 77.511466 -6.970179 -12.313789 12.978964 0.582937 7.891255 14.047369 -13.427578 -16.320154 -31.456820 48.203854 -54.016721 -58.747022 0.773129 -21.207767 
26.022091 103.076561 23.012901 -95.670311 20.820029 167.432249 40.796070 27.611793 -41.914056 1.700469 4.277100 30.156348 -2.439990 11.598617 -0.052882 0.353292 -0.428643 -1.035501 -32.057987 -26.722442 -43.408330 10.382580 10.127304 35.372076 3.390212 2.500583 3.804384 3.217876 0.725432 -0.579913 -0.788923 3.677532 31.228370 1.968063 -0.555600 14.251093 2.793827 1.442339 -7.901530 -9.663876 12.276415 15.952272 10.022697 4.320053 -25.874570 -14.868050 1.761451 8.553444 -11.200185 9.234874 2.004610 -3.899958 -30.168966 -15.482739 79.747376 -5.908315 -12.032670 10.692682 1.592942 5.479606 11.037749 -12.784224 -18.026562 -40.596991 51.726174 -61.287291 -56.214264 1.686360 -20.498857 
25.259247 102.644852 23.763985 -93.450436 11.677025 -176.684100 40.777561 27.717183 -45.224109 3.173985 3.471504 26.070675 -0.961073 12.289587 1.908563 -0.251370 -0.078283 -0.592327 -37.703682 -21.388786 -27.879799 7.520342 12.836055 33.056306 5.427492 0.411835 5.778630 2.294029 0.706252 -0.486503 -1.389711 6.041637 29.163842 0.451804 -1.171144 11.510058 2.516422 2.219198 -6.341805 -9.427149 11.673224 13.765518 10.584367 3.940596 -25.920419 -12.605700 -1.103466 5.689956 -8.746673 6.387321 -0.741251 -2.689199 -26.993275 -19.882877 80.469169 -4.842715 -10.063863 8.979943 2.902968 3.248778 10.108306 -10.273285 -18.959787 -48.910330 54.114998 -66.246942 -53.689912 2.014925 -19.077992 
24.385317 102.322365 24.049391 -92.902771 3.580265 -165.872095 39.740893 27.510719 -49.713905 3.136801 3.032513 26.209762 0.822480 12.362522 2.531114 -0.672009 0.151706 -0.315529 -39.423292 -18.311091 -18.861158 6.437466 12.995322 32.069426 7.157685 -1.455800 8.068575 2.029678 0.494680 -0.469785 -2.203016 8.785447 30.075655 -0.420329 -1.760691 9.026223 2.684586 3.044143 -4.724847 -9.645204 11.787732 11.494639 10.548824 3.623114 -26.106786 -10.152125 -4.382405 2.865385 -6.720404 3.509622 -3.161246 -1.114991 -24.574768 -23.154325 79.158317 -4.803204 -7.884546 8.319615 5.369777 1.256082 11.579446 -6.384684 -18.179123 -61.244750 57.557307 -73.834096 -51.447977 3.255779 -17.246020 
23.628138 102.058067 23.984415 -95.478791 -5.728538 -154.044033 36.928942 25.341945 -56.470488 1.524727 2.078039 26.613910 1.686182 12.571026 1.290014 -0.606896 0.580166 -0.656024 -37.797933 -16.678378 -13.264470 4.381491 12.324789 25.530890 8.870364 -3.957994 9.300467 2.393027 -0.102928 -0.264875 -3.180278 11.742598 32.744794 -1.178685 -2.189486 7.496561 3.125997 3.884524 -3.678846 -9.665242 9.387755 6.829809 11.802698 1.196469 -26.808709 -6.996974 -9.529880 -1.838873 -3.673459 -2.442582 -7.313737 1.623443 -21.264911 -27.868079 76.169447 -5.166550 -6.424256 7.294294 10.366737 -1.706556 13.177154 0.714836 -16.388547 -72.172348 59.005606 -79.542053 -49.356931 6.246699 -13.927489 
23.279451 101.879997 23.618711 -101.471202 -12.728784 -143.085615 33.511058 22.122486 -63.586711 -0.995503 1.289311 30.925820 1.012221 11.248574 -2.278845 -0.416326 0.486665 -0.895796 -33.301051 -16.536886 -13.995438 2.120161 8.603066 16.741930 11.243194 -5.580780 9.129847 2.693666 -0.627026 0.124067 -3.495597 13.783087 37.898012 -1.429097 -2.733472 6.059814 3.155936 4.017507 -3.656366 -8.920064 7.498999 3.493214 13.081994 -1.276570 -26.285985 -4.234825 -15.093939 -5.730950 1.812933 -8.291896 -11.836334 3.399113 -19.369945 -30.954417 71.649330 -7.595730 -5.638509 6.261972 16.235564 -3.803665 15.118358 10.881585 -14.490400 -67.176738 60.110916 -72.602056 -50.251430 8.605219 -11.260662 
23.557901 102.331116 23.094080 -112.090129 -22.115101 -127.231140 29.982076 19.166737 -70.262951 -4.953402 -0.119427 34.877889 -1.349276 6.787902 -9.256371 -0.554005 0.461179 -1.138046 -28.032230 -16.332738 -20.898882 -0.489930 5.856294 9.942733 13.327893 -6.694238 8.750515 2.600835 -0.575794 1.547041 -3.169144 14.251641 42.735303 -1.457864 -2.722910 7.383617 3.262583 4.159374 -6.588508 -10.167135 3.529122 1.695231 14.915106 -5.154748 -25.891730 -0.108101 -20.952346 -9.111479 11.312816 -12.493023 -17.332200 6.603713 -23.353472 -31.320435 64.807541 -10.007431 -5.134863 3.978239 22.377625 -5.129971 12.059968 18.084197 -16.575181 -57.935787 56.857682 -66.209360 -49.874193 9.635831 -13.689493 
24.794155 103.597153 24.040205 -127.004363 -28.107674 -107.291697 27.532351 19.714610 -74.510701 -8.013023 0.035579 37.436489 -2.073770 2.304487 -16.881639 -1.025197 0.415912 -0.506209 -26.352643 -18.153576 -27.307022 -1.156679 3.949448 2.751526 18.027882 -6.207885 10.109786 1.611348 -0.475458 2.412879 -2.721662 13.171070 47.278359 -1.746473 -2.673427 6.743588 3.342335 3.791649 -8.189733 -12.048710 1.699636 1.961259 15.089270 -7.301756 -26.811031 6.818580 -25.927450 -14.161318 21.136409 -14.250335 -23.522633 3.526591 -20.539681 -31.725328 59.267372 -10.559340 -5.234621 -2.047377 26.395875 -7.783665 2.864545 22.670683 -23.518705 -41.458240 52.943166 -53.349264 -49.368690 10.147217 -14.537476 
27.366095 105.638428 24.453552 -141.966372 -26.928405 -91.265667 25.678141 21.879037 -77.057393 -10.016646 -3.528805 37.433336 -2.818683 -1.354243 -19.447489 -0.986344 0.358940 -0.263166 -26.965813 -20.866341 -35.176182 -0.898775 4.764065 0.613292 19.178727 -5.608144 10.233196 1.605517 -0.254298 2.493504 -0.655690 10.383590 52.198126 -1.562771 -3.486199 5.507535 3.321390 3.737326 -9.974387 -14.276571 0.585931 2.920306 14.307149 -7.202343 -29.167653 13.094122 -29.769140 -18.945197 26.853508 -14.381086 -27.440718 3.585288 -19.158733 -30.899197 56.215158 -12.946833 -2.590286 -10.213012 30.587552 -11.090859 -7.859057 23.418100 -33.061380 -30.280213 45.290735 -47.669142 -50.344133 9.690962 -14.629395 
30.894377 107.486481 24.659992 -152.334247 -22.142238 -83.425521 26.295061 24.813659 -73.567002 -9.636004 -7.800596 28.760268 -5.558869 -4.050044 -18.540386 -0.763949 0.487763 -0.347746 -28.983793 -22.227977 -40.692256 0.719504 5.394369 1.938671 19.184353 -4.864273 6.759588 2.181760 -0.390943 2.266740 0.986887 7.157033 54.391188 -0.896762 -3.750477 4.036821 3.521619 3.423766 -10.936516 -14.143756 0.829544 2.764430 13.805992 -6.663747 -30.827197 17.261877 -31.552821 -21.564899 29.896943 -14.958891 -29.531333 3.236823 -19.125967 -27.954017 54.322187 -16.435722 0.752243 -15.662667 32.734303 -12.924067 -17.510550 22.471683 -39.995555 -19.810126 35.811452 -43.399094 -54.047570 9.641745 -15.047073 
34.854702 109.355606 24.939821 -163.406490 -15.266853 -78.840412 28.437748 27.014805 -63.756663 -6.247350 -9.881861 18.322948 -9.824969 -0.723055 -11.922901 -0.214307 0.753485 -1.263492 -31.521696 -22.333021 -44.016365 1.704192 6.893085 5.795643 17.673794 -3.981130 2.506689 3.970954 -0.534849 2.109224 2.730579 3.419537 53.079104 -0.706239 -4.119376 4.537968 3.180057 3.030886 -11.071989 -14.165604 0.742979 4.024642 13.647050 -7.309944 -31.958938 19.763987 -33.630088 -23.468796 31.461761 -16.429257 -32.654861 4.443057 -17.112537 -29.912705 52.382944 -19.100962 5.470142 -17.813751 33.640195 -13.813986 -23.655800 21.991998 -44.199138 -19.334720 32.485647 -44.192070 -55.532480 10.245192 -12.672661 
39.052773 110.710037 25.839090 -173.573861 -4.232507 -82.835595 29.735884 28.512034 -58.071726 -4.054258 -11.414157 12.918491 -12.092261 -0.908268 -7.395804 -0.478525 1.019085 0.296643 -32.067195 -22.054712 -47.622282 3.552809 6.640907 12.599741 14.735423 -0.351014 -2.428372 3.906229 -1.161508 2.073326 4.092032 0.482549 52.506708 0.107432 -4.309565 5.073387 3.502793 2.295773 -10.847575 -13.852004 2.337680 9.716963 12.091771 -7.322263 -26.911979 17.225438 -36.240364 -21.929238 30.128355 -19.102368 -32.403605 3.193271 -16.776452 -26.975666 47.757878 -22.176470 10.909921 -16.998347 35.600172 -13.259727 -21.450574 22.025300 -43.575162 -22.500064 31.974123 -46.432134 -55.148752 9.902843 -16.696356 
43.393353 111.673889 27.200872 174.073511 6.153084 -85.001793 27.859581 28.558728 -51.647795 -2.820825 -3.318146 3.663210 -13.668192 2.020441 -0.450648 0.319971 1.190672 -0.499063 -30.203295 -20.327985 -55.399587 5.804651 4.882747 27.247137 9.781430 -1.525151 -13.619510 4.083138 -0.745638 2.163941 4.775778 -3.247043 52.843605 0.724904 -4.781465 2.866335 3.828537 1.329369 -9.654786 -14.801364 1.546428 4.050971 11.889764 -7.946602 -30.329420 19.503223 -36.487757 -23.898122 27.552792 -22.363420 -34.395767 5.774648 -16.545070 -27.055411 43.311406 -17.553214 8.869829 -17.398891 34.232043 -13.454720 -21.069052 21.946594 -44.478413 -27.634058 31.559843 -49.795325 -56.115554 6.081283 -15.747548 
47.102955 111.997192 29.467066 161.958789 14.751519 -94.926477 24.376289 27.418425 -47.019101 -4.368284 -0.634087 1.470809 -14.123076 1.996535 0.571806 1.462949 1.169478 -0.315341 -27.861693 -18.446396 -61.586978 6.126820 0.505417 39.894742 6.688292 -2.250852 -22.338618 4.304322 -0.755792 2.218490 5.145295 -6.502335 52.693183 1.666600 -6.141473 2.337658 4.222811 0.048126 -8.261283 -15.068186 0.939147 4.902673 10.995912 -9.201443 -27.312446 18.122523 -38.292310 -22.883975 24.302881 -25.253501 -34.729104 5.401055 -16.404893 -24.401598 40.442114 -16.295754 7.028694 -17.229823 34.578166 -13.606934 -15.951021 23.040754 -41.952123 -31.261032 32.395530 -52.239275 -57.790655 3.756938 -16.151842 
48.258240 111.858536 32.103779 149.354540 21.224780 -106.357373 22.531040 27.841130 -43.073955 -6.803399 1.835102 6.420706 -14.545016 0.011045 -0.510445 1.692350 0.404852 -0.481540 -25.880435 -16.481956 -67.346999 4.332783 -3.676405 51.154131 3.788481 0.111578 -25.344283 5.227553 -0.253580 1.800367 4.380467 -9.556160 52.289196 3.147470 -6.818437 1.104255 3.961056 -1.633498 -6.579643 -14.621516 2.887521 5.345852 8.968175 -10.910270 -27.589836 18.680310 -37.712907 -23.118383 18.667268 -29.380209 -34.223859 7.797693 -19.547368 -22.493543 37.818150 -14.801647 0.851764 -16.609043 32.116419 -14.693613 -7.527894 26.268420 -37.556614 -38.803693 34.084032 -55.501088 -59.949193 0.755262 -17.972880 
48.927063 111.473175 30.989510 133.691609 18.699574 -124.059853 22.390659 28.991610 -35.135995 -12.346276 -0.207385 14.749154 -13.407610 -2.319382 -3.881416 1.696571 -0.162434 -0.479401 -23.776862 -12.511408 -67.960150 4.206004 -4.905941 52.773408 0.395333 0.944833 -26.954448 5.855789 -0.055399 0.987760 3.280488 -12.568207 51.729112 5.604715 -7.482808 0.344326 4.317412 -3.544149 -4.778065 -14.638495 3.458317 6.446674 6.555009 -11.780600 -27.413968 15.873660 -37.314243 -19.985528 10.210240 -34.840309 -30.642943 9.286605 -27.855493 -16.881387 34.782951 -14.231983 -5.667622 -13.104476 29.292613 -12.621944 4.993530 26.437880 -30.374565 -38.448717 31.645802 -53.422312 -60.680149 -3.280650 -18.983552 
52.012058 110.573257 27.158697 117.368565 10.729824 -140.893931 26.883970 28.589890 -27.974234 -18.720966 -0.594693 32.872899 -11.342937 -4.442050 -8.744497 1.789152 -0.536370 -1.262976 -23.622749 -8.532213 -64.460415 1.435946 -5.771731 47.176728 -1.878430 -1.930928 -26.051274 6.869910 -0.240239 0.584542 2.594863 -13.882695 48.609100 7.864081 -10.128379 1.019816 4.720450 -5.417685 -3.778936 -14.606214 6.788067 9.106557 2.525325 -12.210391 -26.643656 11.181973 -34.474722 -13.552402 -1.868518 -38.279742 -24.472381 12.736662 -41.201355 -12.536329 37.761419 -14.964473 -17.428991 -8.923369 24.152755 -8.951182 20.296969 22.988088 -20.941385 -39.847986 30.974888 -50.629569 -66.227854 -6.298223 -21.865798 
54.314907 109.547684 27.463430 106.969803 -3.703176 -154.161756 39.086573 25.772511 -17.541776 -22.083072 -1.496406 46.396990 -8.310797 -4.342363 -12.459349 0.979037 -0.808495 -1.671911 -28.253355 -10.613984 -58.046329 1.412197 -4.428061 35.970992 -1.996228 -3.234179 -19.925594 5.782459 -0.528951 -0.298425 1.905409 -15.291823 47.029855 8.160445 -10.536417 3.810671 4.453411 -6.506155 -4.922443 -15.400779 8.184833 11.860084 -1.216326 -12.600216 -25.617641 2.342824 -29.639199 -4.434189 -10.277578 -33.994916 -17.424173 17.979540 -55.962441 -14.679740 42.744247 -12.420906 -26.855612 -3.020025 18.463786 -2.136473 26.921055 16.060917 -18.312092 -38.899616 31.325675 -48.377008 -68.204772 -8.645268 -23.719913 
57.021152 108.184906 31.433186 101.904830 -16.245087 -162.650007 47.013126 21.807961 -17.544082 -26.535432 -3.656060 60.246343 -5.645513 -3.448214 -16.311417 0.174957 -1.040198 -1.946436 -34.553862 -14.837198 -50.100564 0.538215 -1.580629 26.624145 -1.088986 -5.107189 -13.943653 4.347970 -0.921003 -1.078630 1.502639 -13.405646 45.889018 6.611783 -9.566815 6.262523 4.425418 -6.147864 -6.328653 -15.768682 5.825771 17.472458 -0.888288 -12.155412 -24.919014 -3.870887 -21.771409 1.675809 -10.177636 -25.953572 -16.175643 38.278845 -65.851231 -34.866315 50.399228 -8.611038 -28.497730 -0.568448 13.184598 3.327547 33.163237 9.128176 -15.796634 -37.647166 31.100224 -46.308320 -70.986966 -10.951347 -22.220530 
57.440674 106.342148 35.708393 100.182627 -26.901462 -170.357788 53.315862 23.149174 -24.055202 -27.992274 -0.909977 74.862399 -3.215205 -1.109703 -18.971537 -0.516190 -0.965771 -1.969105 -39.848640 -19.685667 -43.569112 0.975133 -0.124111 22.527603 -0.807100 -5.154784 -9.847447 2.733174 -1.218466 -1.530567 0.849378 -9.793359 47.059166 4.576042 -7.761216 7.766929 4.528223 -4.774531 -7.074752 -15.967002 3.580157 22.952495 1.497028 -14.133986 -27.755279 -8.482898 -13.832477 4.527368 -5.885558 -15.277419 -17.178754 50.903921 -64.984546 -50.583610 56.126843 -4.141709 -27.721056 2.309803 8.549232 8.515916 37.098477 0.438542 -13.773921 -35.328456 32.375964 -43.863428 -73.709057 -12.600531 -20.643990 
56.459785 104.372795 37.538151 101.652650 -34.024470 -177.265230 56.196004 25.940112 -31.122421 -26.770041 -2.716596 78.070906 -3.509327 2.008064 -16.632081 -1.073164 -0.889158 -2.351478 -42.133034 -20.933047 -40.135039 1.306398 1.262357 23.482046 -1.757915 -5.761900 -7.687114 2.541154 -2.275838 -0.368327 -0.288424 -7.108006 48.358017 3.875308 -6.466817 8.422305 4.886353 -3.892981 -7.588401 -16.788769 1.753001 26.039233 3.813038 -14.736699 -29.588134 -10.783345 -7.181127 6.513936 -0.527601 -5.343863 -17.193308 42.135611 -60.627886 -46.437265 58.515527 -1.187872 -27.084914 4.508337 5.298435 10.948281 39.990691 -5.161533 -11.227310 -33.536180 34.613095 -40.933788 -75.102946 -13.148561 -20.504580 
54.785603 102.475365 38.847496 105.094080 -38.016082 175.053211 55.809369 28.084131 -35.069925 -24.356148 -4.515483 73.883219 -3.724100 2.368876 -14.976288 -1.129768 -0.722165 -2.237226 -44.426945 -21.574504 -37.308006 0.875691 2.795556 26.053094 -1.911616 -6.813078 -7.257119 2.541188 -2.361453 -0.417182 0.548345 -5.171652 48.369159 3.110523 -5.094746 8.950520 4.442764 -2.976124 -6.732864 -18.058830 0.102592 26.963500 4.230960 -13.980362 -29.117682 -14.266522 -2.181887 8.391846 -2.034008 1.724506 -14.865075 34.461661 -58.300962 -41.165742 60.007651 -1.541933 -23.883099 7.159755 3.146755 12.693189 40.419247 -9.199861 -11.118324 -32.404965 35.733194 -39.691504 -74.741221 -10.552230 -18.680373 
51.629520 101.077850 37.949741 112.448180 -41.385312 163.595541 54.339098 26.929760 -35.322649 -20.008867 -8.532711 63.054052 -4.299801 3.105950 -13.661863 -0.956199 -0.958126 -2.261587 -46.140797 -22.338496 -37.489694 1.036506 4.292211 32.192920 -3.068603 -6.979468 -8.193064 3.412381 -2.755859 0.022300 1.898295 -5.822499 49.508131 2.624672 -3.139667 9.556621 3.772023 -2.592140 -6.891641 -19.193580 -0.592439 27.030847 2.568178 -11.387476 -26.394988 -19.150200 3.356629 10.196549 -5.643386 7.170249 -10.726948 26.776195 -56.285487 -34.879421 62.539227 -1.568999 -22.262403 10.155884 0.763510 13.833265 39.391639 -12.568604 -9.863975 -30.243206 36.181327 -37.268282 -73.454718 -7.202807 -17.434502 
48.303902 99.842728 34.701702 123.296792 -42.079663 150.103685 54.142910 24.117878 -30.874235 -14.244964 -11.818674 47.038233 -6.593312 1.993755 -9.394128 -0.769380 -0.879111 -2.378353 -48.266318 -22.395543 -37.707895 0.516539 5.223029 36.963651 -4.096011 -8.525796 -9.811890 5.078668 -2.539181 -0.386915 3.592304 -7.673774 49.641145 2.158407 -1.619713 11.590177 3.455792 -2.854010 -7.961100 -20.034008 -0.636908 26.400068 -0.642434 -8.065357 -22.742152 -26.187056 10.006313 12.156923 -10.587692 13.578960 -5.976040 12.681627 -50.927983 -21.623745 61.831340 -3.669358 -20.537178 14.647574 -1.835130 13.711825 37.741160 -14.649638 -8.994938 -30.208948 37.361921 -37.466560 -69.862334 -3.757742 -17.663383 
48.029339 98.739449 35.433773 136.603031 -42.516715 132.863243 52.134621 21.966408 -27.735049 -10.162740 -13.093352 37.206084 -9.840675 2.237667 -2.765917 -0.315208 -1.030401 -2.627178 -49.357115 -22.973660 -38.871679 -1.006600 7.341175 37.743277 -4.784701 -7.873732 -8.210582 6.993417 -2.165961 -0.616222 6.296153 -9.453657 48.866001 1.949851 -0.466772 14.273755 3.759567 -3.109417 -9.898605 -20.041709 0.507491 26.858836 -3.449870 -2.957690 -19.066173 -32.656518 14.726512 13.852674 -18.947637 17.547817 -2.471566 0.537117 -40.167806 -8.888553 61.214841 -6.678683 -19.822534 17.592839 -3.715553 14.748385 36.260423 -16.624094 -7.936504 -27.457587 39.883855 -33.062622 -67.026768 1.802386 -16.323840 
48.145721 97.686058 36.580978 151.992017 -42.168037 113.028848 51.571806 20.025042 -24.371972 -7.020305 -14.344572 31.975961 -12.082983 4.296769 1.104838 0.314530 -0.802941 -2.024199 -50.779416 -22.230792 -38.652431 -4.108510 10.658088 32.205706 -3.167498 -8.870570 -4.708628 5.597764 -0.779763 -1.685154 7.961291 -11.249862 44.212234 2.007746 0.620611 17.153200 4.290247 -4.170223 -10.667803 -21.759135 0.522666 26.767578 -5.162242 3.508043 -17.092230 -37.837646 19.136827 15.750934 -27.525525 22.516077 1.586755 -5.314192 -34.099827 -4.548597 61.518842 -1.848314 -22.587973 20.056624 -7.408013 16.599928 35.059925 -21.443015 -7.086633 -25.018888 44.213446 -31.995752 -66.262931 4.320545 -13.947970 
48.050522 96.563919 37.977867 166.992526 -38.353663 91.853591 51.246729 19.852532 -22.256906 -4.322353 -15.238035 24.745911 -14.896422 4.240265 8.471971 0.013985 -0.206501 -1.314809 -51.715312 -21.217558 -34.610862 -6.862440 8.257375 19.059364 -1.332877 -6.855779 2.146406 5.810601 -0.745559 -1.410368 8.379946 -10.261656 41.051951 1.368517 0.881857 18.864779 4.432163 -4.149668 -10.362421 -19.688310 2.248339 26.722083 -2.019661 6.258473 -15.327638 -40.057423 19.194082 16.879513 -34.355018 23.115100 4.117375 -10.126719 -30.246421 1.872838 66.651188 1.517230 -25.029127 21.002126 -10.345767 17.337789 34.372609 -25.893784 -6.443750 -16.100725 43.043208 -26.490368 -68.649729 5.429965 -15.132756 
47.874462 95.037727 39.372692 176.999595 -35.632050 78.993925 52.032783 19.226685 -22.227051 -2.948651 -17.656666 22.501187 -16.876084 5.437552 13.527516 -0.005384 -0.107159 -1.137412 -52.331935 -20.649456 -33.662062 -7.605317 7.761868 14.361043 -0.586398 -5.826235 7.214756 5.192538 -0.753794 -1.201197 8.405786 -8.948776 38.661190 1.211300 1.876651 19.795982 4.294983 -3.659313 -9.623264 -17.199822 2.923045 27.686765 0.841010 7.869239 -15.479359 -39.155298 19.310931 16.268838 -35.727775 22.378056 4.743969 -10.535688 -30.527440 1.494271 69.217193 3.707144 -24.932350 19.453997 -12.418360 18.334468 36.766905 -28.570465 -7.251469 -13.116058 37.833414 -26.480286 -69.905414 5.119624 -15.669711 
47.623764 93.274261 40.487843 -178.140759 -31.619400 74.214699 52.835516 18.268917 -20.687541 -1.858678 -17.870971 20.132822 -18.266892 6.341897 17.832746 -0.472973 0.058632 -0.896904 -52.788072 -19.770737 -31.783175 -8.661707 6.349910 9.129125 1.443547 -5.932298 9.403496 4.124271 -0.602552 -1.070087 7.755629 -7.585138 36.600453 1.095322 2.493357 20.580388 3.926789 -3.181242 -8.990634 -15.575517 4.488900 27.771011 2.030290 9.211351 -14.653258 -38.172442 18.430649 15.756393 -32.625557 22.036995 5.792388 -10.000191 -32.664701 -1.576839 69.585434 1.553062 -23.797377 18.913213 -12.656208 18.943295 34.502141 -29.073582 -6.714426 -9.954441 36.370081 -26.664667 -67.481483 6.634427 -14.171932 
47.337040 91.279060 41.569092 -170.140554 -24.177179 69.882817 52.700526 19.973249 -21.551550 -0.757116 -13.853746 16.808051 -18.510600 8.120158 22.375713 -0.800974 -0.026814 -0.636535 -51.608749 -21.348636 -31.595917 -5.938274 4.886757 6.376222 1.870719 -5.036226 14.781389 3.982165 -0.579769 -0.923059 6.993354 -5.566423 36.627528 2.168908 3.307431 21.342306 4.860083 -2.192846 -8.943669 -13.267469 6.580019 27.517813 3.345771 10.165887 -14.726869 -36.173814 17.030284 15.782035 -31.761971 18.923150 6.965400 -10.573162 -32.766251 -1.051656 71.393291 -0.940586 -21.001362 19.066055 -11.732967 19.015562 32.501562 -27.396182 -5.953669 -6.661289 32.447376 -26.703957 -64.689810 6.247957 -14.557467 
46.965118 89.081482 42.576130 -160.507510 -17.184185 70.290943 52.120573 20.214035 -22.800754 1.006847 -8.963983 12.736250 -16.871100 9.567822 25.523173 -1.189871 -0.011060 -0.584547 -49.603316 -22.868377 -33.625357 -2.766240 4.718564 8.269778 2.417534 -3.242840 17.832716 3.559348 -0.071387 -0.722522 5.698757 -3.991692 38.047090 3.773650 3.420560 21.685471 5.245165 -1.197074 -9.027075 -10.564152 7.488850 26.547049 5.119548 10.260060 -15.607543 -33.166209 14.879748 15.627658 -33.227866 15.302188 6.111017 -8.758514 -29.930204 -2.389612 72.059082 -2.768274 -18.171936 19.159889 -9.707030 18.628436 30.342555 -22.669315 -6.362594 -5.646889 31.073283 -27.537209 -60.624378 6.338758 -15.081731 
46.705215 87.046059 43.554756 -149.061849 -6.276064 75.603910 51.152979 22.392287 -25.329485 0.815439 -3.298062 14.304295 -14.642336 9.676627 25.281030 -1.389490 0.144467 -0.447479 -46.485977 -24.148071 -35.394854 0.734632 3.523238 9.760389 2.699112 -1.442409 18.698638 3.539281 -0.164644 -0.707657 5.362833 -2.397551 37.813745 4.636958 2.647330 20.691012 6.111330 -0.273918 -8.826057 -10.065605 7.676426 25.340241 6.297675 9.021813 -16.795708 -30.003823 11.596038 15.918763 -33.737493 11.332635 5.622869 -8.278534 -24.512072 -3.542423 72.477733 -2.267055 -16.935911 18.927380 -6.630075 17.929270 27.784669 -18.275293 -7.500432 -7.368068 32.789357 -29.863112 -57.050104 4.453202 -18.724310 
46.485634 85.211952 44.495102 -137.844217 -3.467938 83.735047 50.444758 23.443098 -28.645344 0.867278 -0.356647 20.531287 -10.951229 9.288114 20.517236 -1.499687 0.175522 -0.471045 -42.920662 -26.620902 -39.249611 4.082500 2.624524 14.347741 3.535853 -0.842745 19.210113 4.278982 -0.270373 -0.905967 4.478820 -0.654187 39.542317 5.081684 2.264877 19.158917 6.559563 0.947163 -9.039018 -8.588839 9.183913 21.999105 7.708706 8.160056 -16.850526 -27.102802 8.789450 14.367948 -30.262453 9.546427 4.429913 -7.965639 -22.466825 -1.853305 68.698872 -4.294410 -13.325809 17.922676 -3.602912 16.135592 24.103689 -14.791486 -10.440581 -13.023034 38.327986 -34.045065 -51.810000 2.449094 -20.673091 
46.395912 83.563568 45.421932 -129.262040 -1.407098 89.731061 49.178056 25.714075 -32.354722 0.113411 1.532280 29.771808 -8.137825 8.383431 15.783372 -1.717290 0.144914 -0.633592 -40.185787 -30.202097 -41.587521 6.915866 2.354549 16.865330 5.148870 -0.082834 20.328099 5.322955 -0.121760 -0.802640 3.321340 1.081576 39.418509 4.259286 1.801195 17.840796 6.159034 1.669227 -9.249468 -7.912860 11.323673 18.871525 9.126493 8.562964 -18.311728 -24.073023 5.559029 12.907303 -24.727964 8.713961 2.033258 -8.124939 -20.880927 -1.941360 66.878013 -5.868337 -10.687945 15.123972 0.341275 13.510915 19.867080 -13.202049 -14.787191 -22.182696 45.948993 -42.323043 -49.331133 1.131968 -22.825306 
46.343582 82.100571 44.387184 -119.637406 1.420616 100.580221 48.418005 26.093609 -34.270069 -0.029774 1.081956 31.899618 -6.037052 8.139908 7.524212 -0.881035 -0.147737 -0.843856 -37.735869 -32.699201 -43.290080 8.578851 3.920409 16.198031 5.729077 -0.228016 16.978702 5.517974 0.045870 -0.831428 2.771100 2.863759 38.053359 3.334404 2.162423 15.232973 5.956777 2.537190 -8.572869 -5.906237 13.513284 15.794323 10.015595 9.852804 -18.582273 -19.833896 3.803422 10.676698 -19.458904 9.613124 -1.131660 -7.717304 -20.112558 -4.893205 66.537106 -7.045736 -9.315560 11.498067 2.574144 10.558473 16.622086 -11.932583 -16.802952 -30.336298 49.916848 -49.340672 -47.776524 1.978803 -22.800256 
46.285080 80.987907 43.114193 -113.450857 2.954576 110.174856 48.313748 26.762287 -35.417263 0.443106 1.542700 31.911884 -4.805733 7.955337 1.032904 -0.244739 -0.254434 -1.101399 -36.167071 -34.801180 -43.382325 9.215699 3.439096 14.997931 7.420659 -1.141625 15.024953 5.443137 0.210682 -0.947921 1.655627 4.248357 36.238241 2.275763 2.356864 12.222949 5.337487 3.172806 -7.871471 -5.040672 14.779851 12.405892 10.103034 8.905663 -19.704119 -14.769459 2.872742 8.816448 -16.537705 10.808377 -4.307591 -5.920642 -19.213719 -7.832936 67.489053 -7.632437 -8.141664 8.193441 4.434329 7.947765 13.889696 -10.311819 -18.038866 -39.951574 53.011643 -56.494066 -46.933084 2.549056 -22.080149 
46.291798 80.235474 41.516850 -109.371289 2.905537 119.093994 47.502155 26.173463 -36.283412 0.850355 0.303751 27.102064 -4.186311 7.334553 -2.031631 -0.116203 0.010590 -1.088693 -35.703397 -35.203693 -41.962865 9.519727 3.530480 13.649304 8.406440 -1.624829 10.913250 5.654389 0.054859 -0.630697 1.130281 5.431201 34.369382 1.256866 2.541982 9.933506 4.644843 3.749178 -6.935158 -5.106683 16.776118 8.097984 9.752362 7.245548 -21.346815 -10.939435 1.859898 6.478867 -13.921622 11.644978 -5.485249 -5.227176 -18.631869 -11.399263 67.777837 -7.224473 -9.610385 7.031155 5.422025 5.496178 11.590166 -9.175786 -17.325821 -45.356464 55.839443 -60.254026 -46.283041 3.942299 -22.111936 
