HIERARCHY
ROOT Hips
{
	OFFSET -0.179506 -22.333345 2.821913
	CHANNELS 6 Xposition Yposition Zposition Zrotation Yrotation Xrotation 
	JOINT LeftUpLeg
	{
		OFFSET 6.951974 -9.140623 -0.681533
		CHANNELS 3 Zrotation Yrotation Xrotation
		JOINT LeftLeg
		{
			OFFSET 3.427654 -37.519855 -0.449580
			CHANNELS 3 Zrotation Yrotation Xrotation
			JOINT LeftFoot
			{
				OFFSET -1.359570 -39.796059 -4.369333
				CHANNELS 3 Zrotation Yrotation Xrotation
				JOINT LeftToe
				{
					OFFSET 2.635814 -5.579078 11.928840
					CHANNELS 3 Zrotation Yrotation Xrotation
					End Site
					{
						OFFSET 0.000000 0.000000 0.000000
					}
				}
			}
		}
	}
	JOINT RightUpLeg
	{
		OFFSET -6.767048 -9.052170 -0.431982
		CHANNELS 3 Zrotation Yrotation Xrotation
		JOINT RightLeg
		{
			OFFSET -3.829005 -38.256897 -0.885003
			CHANNELS 3 Zrotation Yrotation Xrotation
			JOINT RightFoot
			{
				OFFSET 1.577377 -39.841461 -4.231180
				CHANNELS 3 Zrotation Yrotation Xrotation
				JOINT RightToe
				{
					OFFSET -2.537174 -4.814398 12.334795
					CHANNELS 3 Zrotation Yrotation Xrotation
					End Site
					{
						OFFSET 0.000000 0.000000 0.000000
					}
				}
			}
		}
	}
	JOINT Spine
	{
		OFFSET -0.253288 10.896323 -2.669631
		CHANNELS 3 Zrotation Yrotation Xrotation
		JOINT Spine1
		{
			OFFSET 0.548704 13.518043 0.109247
			CHANNELS 3 Zrotation Yrotation Xrotation
			JOINT Spine2
			{
				OFFSET 0.145701 5.292222 2.542457
				CHANNELS 3 Zrotation Yrotation Xrotation
				JOINT Neck
				{
					OFFSET -0.277840 21.387037 -4.285703
					CHANNELS 3 Zrotation Yrotation Xrotation
					JOINT Head
					{
						OFFSET 0.515184 6.496960 5.134897
						CHANNELS 3 Zrotation Yrotation Xrotation
						End Site
						{
							OFFSET 0.000000 0.000000 0.000000
						}
					}
				}
				JOINT LeftShoulder
				{
					OFFSET 7.884473 12.174932 -3.408961
					CHANNELS 3 Zrotation Yrotation Xrotation
					JOINT LeftArm
					{
						OFFSET 9.097692 3.046888 -0.886815
						CHANNELS 3 Zrotation Yrotation Xrotation
						JOINT LeftForeArm
						{
							OFFSET 25.961220 -1.277207 -2.745643
							CHANNELS 3 Zrotation Yrotation Xrotation
							JOINT LeftHand
							{
								OFFSET 24.923361 0.898606 -0.117091
								CHANNELS 3 Zrotation Yrotation Xrotation
								End Site
								{
									OFFSET 0.000000 0.000000 0.000000
								}
							}
						}
					}
				}
				JOINT RightShoulder
				{
					OFFSET -8.175920 11.883285 -3.861528
					CHANNELS 3 Zrotation Yrotation Xrotation
					JOINT RightArm
					{
						OFFSET -9.601238 3.255117 -0.914307
						CHANNELS 3 Zrotation Yrotation Xrotation
						JOINT RightForeArm
						{
							OFFSET -25.374195 -1.332924 -2.140099
							CHANNELS 3 Zrotation Yrotation Xrotation
							JOINT RightHand
							{
								OFFSET -25.529810 0.777228 -0.555919
								CHANNELS 3 Zrotation Yrotation Xrotation
								End Site
								{
									OFFSET 0.000000 0.000000 0.000000
								}
							}
						}
					}
				}
			}
		}
	}
}
MOTION
Frames: 84
Frame Time: 0.033333
-0.179506 146.324753 2.821913 34.006888 -29.594889 165.329205 16.872512 12.392355 -27.370147 -12.162395 11.513482 99.831877 -1.241296 14.106343 -2.576581 -0.948661 0.914061 -0.170622 -11.559468 -11.531200 -16.274935 7.400183 -0.875447 74.727686 -0.713377 -15.161319 7.940325 -0.284023 0.013521 -0.928914 -2.366555 1.780899 7.797114 1.975883 -6.720778 -1.141720 0.628978 2.318288 -8.049385 -8.333491 -3.414264 2.365678 8.759267 6.641073 -31.346189 26.761709 -24.069857 -19.274552 23.810697 -13.979972 -26.184371 23.705078 -38.408319 -34.765893 56.700121 -16.234616 0.324604 -31.547300 25.481128 -15.331010 -14.313763 12.887786 -33.952893 -29.977697 34.706001 -35.597174 -50.595100 12.257994 -3.389316 
1.997327 146.039627 3.863024 32.629753 -43.375227 170.197736 19.239194 14.154681 -33.194490 -10.967237 13.216217 109.543999 -0.618594 13.669076 -2.828434 -0.540659 0.919700 -0.370089 -9.647437 -10.038770 -16.552718 8.323641 -2.179066 83.877481 -1.907923 -15.281042 10.049278 -0.789006 0.252589 -0.687410 -3.976670 1.846870 9.925811 3.238702 -7.726793 -0.494200 0.215039 1.863907 -9.597156 -6.675194 -3.539295 -1.087100 7.843823 5.791610 -28.069806 25.403635 -24.976539 -20.113259 24.597004 -13.291168 -24.236201 24.459808 -38.051945 -36.114744 52.176191 -17.042234 2.049977 -27.932370 25.896424 -15.951044 -19.101242 12.780902 -34.047959 -31.014305 33.866358 -37.601291 -46.423847 14.117010 -0.801230 
3.086598 145.035660 4.921049 39.640312 -47.500503 159.485699 15.600395 10.327566 -28.788114 -12.269832 9.374441 101.663280 -0.249681 14.317456 -2.307969 -0.713383 0.666418 -0.084984 -9.851562 -9.744029 -21.931838 9.035621 -1.385065 87.556882 -1.677486 -13.919836 8.391681 0.106330 0.263217 -1.405351 -1.706040 1.554823 10.382624 3.399466 -6.648972 -1.034705 -0.080875 2.557703 -7.905923 -11.358121 -2.173960 2.526916 6.158833 6.591567 -29.975777 28.115249 -28.104440 -20.605386 23.041026 -12.790185 -24.636118 19.357014 -40.194912 -29.350791 50.616097 -15.896764 3.378314 -30.646379 27.439857 -14.897038 -13.993170 11.514667 -34.140086 -35.715017 39.459539 -39.962353 -49.409357 14.196660 -0.343388 
4.743458 144.789642 6.299315 27.897385 -52.592509 165.075117 16.840812 11.519762 -34.780331 -9.336634 8.503028 103.390991 0.770456 15.584048 -1.174915 -0.494219 0.592466 -0.055295 -7.761712 -9.273885 -31.952180 6.082404 -2.488723 83.667508 -2.563256 -14.867458 7.092519 0.446487 0.458740 -0.780845 -2.518765 0.891827 14.226669 3.689857 -6.674917 -1.590388 0.551851 1.771406 -8.580019 -11.815096 -3.731188 4.220303 8.724454 8.295022 -29.699773 26.706030 -29.037694 -20.632158 23.721441 -11.760861 -23.207420 16.877668 -40.221298 -28.848101 51.629111 -16.463543 5.905290 -32.662058 28.702428 -16.119240 -14.854676 13.022758 -34.536890 -34.424729 41.216406 -41.479230 -53.675676 10.699233 -1.431302 
5.619602 144.014130 7.534585 20.670738 -61.214728 166.411778 13.623611 9.814533 -38.416881 -8.659179 8.055955 102.269944 2.227797 15.090297 -0.322518 -0.485997 0.265069 -0.064174 -6.002714 -8.019584 -38.941772 3.775341 -3.497843 80.673017 -2.891057 -14.739447 8.078616 0.880344 0.708054 -0.722792 -1.247893 0.567367 18.564659 3.834445 -6.461107 -1.849579 0.229483 2.116213 -9.268525 -13.620503 -4.453475 6.547707 8.794770 8.956822 -28.254827 26.793387 -32.758321 -21.587832 24.834006 -13.249863 -24.159724 14.554294 -38.050881 -27.007626 49.206736 -16.682497 7.277772 -32.527495 31.268571 -15.638710 -14.694477 12.618475 -35.014463 -34.327560 43.275059 -41.141820 -54.142360 11.094672 0.007898 
5.511156 142.718506 8.845403 20.544681 -70.753957 156.662676 12.101313 7.904567 -43.790912 -10.285909 7.958852 95.491717 3.219818 14.497663 -0.293574 -0.265463 -0.095533 -0.211944 -6.530514 -6.741252 -48.629416 5.698706 -3.479468 75.234984 -2.510601 -13.523471 7.624992 1.663935 0.743899 -1.034979 1.063308 -0.835784 24.863903 4.059374 -5.858636 -2.550155 -0.342358 2.350166 -8.613426 -17.411146 -5.078633 11.069181 8.776782 10.496435 -26.646461 25.984109 -36.033652 -22.383228 25.824460 -12.958857 -25.150194 14.539790 -38.594206 -27.186016 47.671637 -15.962814 6.949595 -32.487149 34.251661 -14.732613 -14.200680 9.171861 -34.439292 -37.242216 46.083424 -44.927712 -53.287472 10.283777 -2.632091 
3.831620 140.764633 9.803838 30.345654 -74.939713 140.233683 9.981654 6.753082 -45.065241 -10.572089 7.008673 87.368177 1.772140 12.241146 1.786218 -0.339762 -0.413252 -0.206681 -7.271599 -5.856455 -54.125215 3.886325 -5.063907 71.619513 -1.864763 -12.273042 5.799108 2.565034 0.891428 -0.889473 2.825299 -3.022235 28.948823 3.432227 -4.678500 -3.019648 -0.789080 2.480630 -8.158452 -19.246971 -5.650771 14.516207 10.265171 10.920274 -22.700870 24.789903 -37.058968 -22.904261 25.406798 -13.723523 -26.180220 16.722177 -39.316410 -30.170979 44.423396 -14.561872 7.978476 -32.317394 36.987691 -14.328626 -12.686075 9.769268 -34.279491 -41.580272 45.953929 -50.773234 -50.936652 9.759075 -4.765127 
0.655689 139.327606 10.560452 56.386596 -77.398742 107.109279 9.911114 5.768982 -48.687972 -10.720600 6.286582 78.559457 2.415440 11.929613 1.835476 -0.379876 -0.266231 -0.602839 -9.883891 -6.305187 -57.544885 3.144779 -4.419022 70.931449 -2.633451 -14.201114 3.346309 2.962905 0.610094 -0.990889 4.425343 -3.713281 31.502959 2.845391 -3.822166 -3.074761 -0.866350 2.713577 -7.171729 -20.087698 -7.152435 14.290585 10.998850 9.525270 -23.207160 22.622059 -37.382452 -21.985355 23.490029 -13.313378 -25.800611 19.903392 -42.315948 -30.251914 43.307836 -12.221529 6.870996 -31.968950 37.955708 -13.162736 -11.890412 9.571804 -33.634170 -39.464072 47.671416 -48.273271 -50.986239 9.021966 -3.803195 
-2.956739 138.785217 10.413889 77.940382 -74.237256 77.618572 10.907015 7.457452 -55.542177 -11.434021 7.854325 72.207918 2.295513 9.548584 0.140758 -0.170674 -0.027421 -0.972331 -12.789709 -8.247322 -59.689192 2.820673 -3.354840 73.081937 -2.639441 -15.610505 -2.245850 2.696463 0.066104 -0.988006 4.635768 -3.855127 33.858988 2.640785 -4.763841 -2.639238 -0.675014 2.284244 -6.379853 -18.695519 -6.810774 15.178058 11.722311 9.516778 -22.724883 19.146778 -37.753630 -20.411158 26.473512 -10.249122 -25.855322 26.956008 -44.758327 -37.279682 44.193722 -11.586004 4.087414 -29.595214 38.264561 -11.462245 -13.675076 11.028467 -35.504642 -41.403255 46.869157 -53.274730 -51.018402 6.149491 -7.844055 
-5.351565 137.749603 9.375185 95.992714 -29.833990 33.527138 15.885609 9.697966 -65.426679 -8.784761 12.939402 84.971919 7.635246 11.828139 -1.764022 0.880433 0.564094 -0.753794 -13.759729 -7.796600 -57.822675 7.652982 -1.259937 82.346170 -5.870910 -19.488510 -3.235340 1.815724 0.247792 -1.078793 3.684053 -2.333253 31.915717 2.263290 -4.888868 -1.302411 -0.181426 1.916612 -2.528009 -16.487028 -7.844667 13.344784 10.645769 4.805058 -27.791010 18.404370 -36.332547 -19.449254 22.997837 -10.148553 -23.510958 31.863453 -53.529967 -40.060369 45.122205 -12.126984 -2.967519 -30.038473 34.103402 -11.668204 -7.209813 11.179693 -32.400711 -38.316649 51.366381 -46.490011 -51.841029 7.770136 -6.039514 
-5.776865 135.599121 6.483855 110.699432 10.399633 29.994376 13.671142 9.302680 -64.946785 -12.494620 11.158917 69.328627 7.552430 9.946949 -0.062749 0.768732 0.573817 -1.425398 -17.898256 -7.907039 -59.341441 5.822580 -0.717010 106.312264 -12.920477 -18.032888 2.682986 3.030392 -0.196197 -1.615311 6.270488 -3.354769 34.069898 3.391016 -3.487563 0.707364 0.007881 2.434008 -4.780467 -17.986336 -8.035182 13.536369 8.555167 3.073258 -23.651207 13.742277 -35.492477 -16.422292 16.973650 -13.170199 -22.590035 34.356454 -60.051098 -38.816692 44.804294 -8.872785 -5.831131 -26.197524 33.889217 -6.624104 -3.028310 12.390664 -30.535709 -53.190762 57.925898 -63.305569 -47.218427 4.087093 -11.288659 
-5.131857 131.188553 3.690747 125.526894 33.919907 36.606431 15.371584 10.412648 -69.190997 -13.673116 10.188270 64.733919 7.396273 5.398572 0.357062 1.235739 -0.233251 -1.051752 -20.724292 -5.545989 -55.702380 6.687649 0.930902 118.175770 -15.233329 -15.140314 4.804602 3.039774 0.492024 -1.881320 4.997811 -4.906625 37.361099 2.399537 -3.399945 4.335556 0.196261 1.883629 -5.724916 -18.645042 -6.898181 16.424032 6.384668 -1.824130 -22.262853 4.410947 -34.791220 -11.114627 17.338916 -14.668448 -20.044911 50.116672 -66.788745 -57.782150 35.559843 -6.335956 -16.490140 -21.443961 33.718690 -4.264967 0.765526 21.756893 -29.272290 -57.159385 60.580645 -67.110541 -40.505800 1.703736 -18.716600 
-3.103970 125.415359 2.308527 135.471321 41.892876 42.770504 16.148847 9.487714 -71.867782 -13.759895 14.072029 66.165237 7.690611 5.043075 -0.238950 1.086061 -0.551525 -0.672991 -21.550000 -4.137323 -44.359570 8.256815 -0.479732 122.155632 -16.126515 -14.258033 3.064538 2.541894 0.474109 -2.148556 4.011040 -2.156906 35.703388 1.540979 -3.839103 7.232949 -0.307758 2.095306 -6.144977 -17.835519 -3.494493 21.821153 6.291310 -2.735166 -18.798688 3.434060 -33.839443 -9.082465 14.775034 -14.671363 -20.015501 58.300572 -66.576898 -67.248989 33.530580 -10.697345 -16.042456 -18.037817 34.384972 -1.669809 8.944994 22.224341 -23.305780 -57.103336 63.465287 -60.864264 -36.444564 6.905184 -16.875887 
-1.101176 122.134552 0.954183 143.637492 45.222884 48.258017 16.423854 8.967907 -73.586243 -12.138355 19.750076 72.403265 7.078725 5.818709 1.842029 0.818614 -0.189392 -0.420881 -21.342432 -3.705938 -35.307587 9.144604 -2.572117 124.382398 -17.045386 -13.000088 1.815548 3.183867 0.184250 -2.106158 2.699856 0.953970 34.681420 1.021546 -4.309646 8.045751 -1.001633 2.648194 -7.111671 -15.030464 -0.173392 24.832350 7.344360 -1.290945 -15.868981 5.925748 -30.816802 -9.369870 12.294054 -12.235176 -16.476342 62.252533 -68.874964 -68.474018 31.623753 -14.674155 -11.158253 -18.110895 32.875869 -0.763744 14.635884 16.306933 -17.597823 -59.546416 69.617029 -61.001695 -33.942050 6.630269 -16.333083 
0.393047 119.441650 -0.803479 149.518895 47.351187 51.664893 16.832268 9.755162 -78.092107 -11.153609 22.092211 74.451768 7.295545 5.870067 2.820649 0.399095 -0.148863 -0.462922 -19.670628 -2.903590 -33.123037 9.198467 -3.924911 125.953423 -17.534379 -11.576150 1.844612 3.698149 -0.031200 -2.086484 1.731826 2.758122 36.554967 0.693500 -4.220251 7.505493 -0.778680 2.970501 -7.544285 -14.928597 1.086161 28.267234 7.659756 -1.897408 -13.960949 6.806568 -29.128562 -9.228072 15.019452 -9.420637 -17.401780 53.443057 -66.218282 -58.581501 27.590859 -18.017952 -3.290137 -17.322803 33.018776 -0.316748 15.233013 18.840646 -17.580420 -55.068119 69.692102 -54.727595 -33.036086 7.562678 -15.921582 
1.027359 117.065063 -2.090631 153.394904 49.225516 50.632426 18.564672 11.571349 -80.200538 -9.700949 22.305776 73.956927 6.531432 4.774510 1.742303 0.154558 -0.379623 -0.517631 -20.256923 -2.931829 -32.395881 8.739733 -4.302653 126.298996 -14.500441 -7.935000 5.109661 3.733636 0.052118 -2.078732 0.936939 4.709404 38.854715 0.956519 -4.033539 7.711186 -1.078903 3.499349 -8.351444 -13.129068 3.304556 31.350737 5.836837 -3.573275 -13.910249 7.516771 -26.957116 -8.317489 15.763858 -7.783416 -17.759316 41.186371 -63.095855 -45.726903 26.273591 -19.218698 -1.122075 -16.832966 32.406235 -0.372270 14.369070 26.492851 -19.506366 -50.624130 66.907259 -48.499110 -35.441990 6.600431 -16.519154 
1.344717 115.636658 -2.799582 159.402295 51.991688 52.216345 20.158632 11.479719 -82.125044 -7.634727 20.333461 72.132744 7.067120 4.987585 1.900168 0.235257 -0.227726 -0.510868 -18.833569 -3.242356 -35.779152 8.081294 -6.526587 126.183749 -12.128420 -5.523097 8.929862 3.525208 0.019650 -1.830613 -0.012661 5.928673 40.354536 0.694041 -3.424468 6.951899 -1.226927 3.996159 -7.825416 -13.022222 4.596397 33.288959 5.398852 -2.863069 -13.086597 8.281957 -26.468723 -9.146230 17.109444 -5.758398 -18.553865 49.801104 -62.956261 -54.503143 22.833032 -19.711651 2.036404 -16.659150 33.511325 -1.648479 8.533774 29.137353 -24.535793 -46.730448 63.690753 -43.867577 -33.265485 11.068874 -11.827087 
1.412494 114.624466 -3.291123 169.073967 57.090028 55.900471 20.277692 12.068386 -81.857053 -7.651143 19.055121 67.013402 5.606836 2.997429 4.606107 0.350325 -0.129439 -0.034246 -16.141203 -2.082264 -40.363055 7.289111 -7.781570 125.607989 -10.952604 -4.771129 10.343174 2.924433 -0.058466 -1.392617 -0.318947 5.701091 42.705968 0.324595 -2.430474 6.109898 -1.148123 4.276865 -8.049311 -14.112167 6.025855 32.643385 5.157950 -1.474773 -13.018874 9.292125 -26.704114 -11.488358 17.844609 -5.674537 -20.622609 64.457173 -59.868061 -66.993999 24.085697 -18.502578 3.811041 -17.046977 35.929712 -4.046882 2.108431 31.372250 -29.495942 -40.784790 58.438860 -37.891033 -31.565815 12.860201 -9.544163 
0.993910 114.123199 -3.479330 177.271994 63.019373 57.589425 20.137305 12.172115 -83.388525 -7.060162 20.758179 64.319167 6.637892 3.373999 2.336995 -0.245921 -0.312336 0.804398 -14.916832 -2.735589 -50.135848 6.543020 -9.925810 123.077629 -10.129454 -3.478659 9.389335 2.751889 -0.055467 -1.141508 -0.632320 5.384763 44.056861 0.845813 -1.282338 4.901248 -2.290658 4.430291 -8.546046 -13.704993 7.476965 33.467991 4.543830 -0.651541 -13.115887 9.123793 -27.253128 -13.011231 17.386417 -7.978928 -22.231417 84.005942 -54.914983 -83.362972 25.787956 -19.059124 8.067699 -14.793180 37.348453 -4.088783 -2.892676 31.620514 -33.247110 -48.289103 56.491639 -45.571275 -30.429890 16.053607 -6.666116 
-0.115421 114.036606 -3.553989 -172.829019 71.941609 61.290403 19.691332 12.056736 -84.502004 -7.317349 21.133577 61.855905 5.261271 2.404327 3.903410 -0.535974 -0.198572 0.888537 -14.196408 -4.417508 -58.874972 5.090578 -12.573420 115.841564 -7.486381 -2.468580 5.776344 2.310510 -0.599763 -0.583749 -0.091039 3.909660 44.999236 0.086462 -0.425611 2.920311 -2.686419 4.007906 -9.103584 -13.794723 7.529839 30.291434 4.698862 0.865234 -12.538138 8.644095 -27.088236 -14.945232 16.286719 -10.866128 -24.252525 92.935151 -49.265950 -87.725221 27.202630 -21.069588 9.914851 -12.786960 36.166192 -4.088280 -8.231239 30.324083 -36.651873 -60.894871 57.012052 -58.691626 -32.095377 19.910929 -5.430791 
-1.891177 114.403992 -3.773662 -151.458417 79.443444 78.292465 18.058503 11.771194 -84.508880 -7.654873 21.040988 60.904844 4.654991 0.691281 1.946539 -0.519522 -0.270614 1.109223 -13.835405 -5.140871 -65.682784 4.506004 -12.956789 106.296073 -4.040553 0.293469 3.798168 1.508716 -0.561497 -0.600320 0.358816 2.503997 44.419008 0.725863 -0.254218 0.719082 -3.079165 3.904801 -7.536710 -13.097174 7.413257 28.288169 3.788568 0.892762 -13.466705 6.563163 -25.912767 -14.129481 13.668911 -12.149713 -23.918173 100.579038 -46.903161 -92.006160 33.096423 -22.706785 9.304686 -9.682396 34.629040 -3.592611 -11.323388 30.415835 -39.448897 -74.885307 57.271371 -71.513674 -35.807685 22.512364 -6.791914 
-3.995939 114.230621 -3.865712 -69.000708 80.753378 158.232500 17.517877 9.237316 -81.000821 -6.841568 18.067880 57.000570 4.515011 1.418392 -0.920543 -0.690410 -0.062294 0.850358 -13.924312 -4.142970 -66.706675 5.792697 -10.358036 93.576727 -1.407116 1.736205 -1.865748 0.721169 -0.553802 -0.192729 1.805422 2.186041 41.061201 0.985037 0.660949 -0.154841 -3.118019 4.363583 -6.474036 -13.213166 3.700265 25.418726 5.334643 1.143937 -14.787908 5.665565 -24.232075 -15.002779 10.299828 -12.619724 -22.249686 110.141339 -46.722914 -98.620539 39.763865 -23.567355 7.761081 -9.460878 32.362576 -4.671050 -10.389889 31.329878 -39.887103 -87.075153 57.337802 -84.095871 -41.003515 22.171342 -6.502993 
-6.031458 113.349365 -4.220891 -27.150457 66.452317 -154.951377 15.362758 5.955030 -76.705690 -8.643073 15.357157 47.862979 2.650597 0.342002 0.860117 -1.046489 0.312210 1.138115 -13.085674 -5.376866 -62.180248 7.559296 -8.413967 73.820183 1.995226 2.357706 -5.147442 0.005686 -0.985854 0.280230 3.041712 2.679803 37.927656 0.881291 0.995369 -1.983571 -2.186335 4.554375 -6.495866 -11.206462 1.106267 23.364245 6.009864 0.569770 -12.693570 7.209433 -23.664343 -16.310697 11.148590 -13.652740 -23.246788 114.615936 -45.694638 -100.554398 42.694044 -26.681812 10.581892 -8.879470 29.168044 -4.599975 -10.974906 31.547450 -41.087876 -102.979754 55.237394 -95.912475 -41.742332 22.089008 -3.569449 
-7.999820 113.298737 -4.998963 -30.026555 33.819571 -151.613032 14.773990 4.988114 -69.789265 -8.098970 10.079167 42.898137 -0.305677 -0.443411 4.601663 -1.074563 0.495870 0.978390 -11.935838 -7.200961 -46.585345 8.227054 -2.740735 54.142378 6.886429 3.493449 -0.642918 -0.968871 -0.801943 -0.039590 2.468649 4.472724 29.813126 1.656684 -0.464640 -2.539426 -0.745720 4.529173 -5.790508 -8.819736 -0.029022 16.104536 7.105567 -0.026091 -10.980603 9.087104 -21.794411 -16.072191 9.621897 -16.329470 -21.611835 115.042151 -47.724725 -101.018982 52.180332 -27.720715 5.231823 -9.532198 25.814909 -5.499933 -4.645368 33.896105 -36.133640 -115.448522 55.791727 -105.131871 -48.243702 20.024856 -5.139060 
-8.891880 113.139252 -6.634603 -33.952646 4.910685 -152.967996 15.027212 3.640335 -58.967895 -7.434848 4.214082 35.605082 -3.826888 -0.293817 9.656105 -1.251285 0.741790 1.034343 -14.298819 -8.410328 -27.001581 6.631326 3.342571 40.213248 11.403055 3.519318 8.274108 -0.938306 -0.581066 -0.140378 1.870792 6.396113 21.295413 1.641935 -1.243947 -2.985036 -0.536952 4.729727 -5.309078 -6.971742 1.296111 11.590176 7.485900 1.209262 -11.961939 11.957332 -19.214051 -16.621562 8.695642 -20.835322 -22.252950 112.381923 -49.424690 -99.311042 57.148922 -26.177435 -0.194519 -11.435734 22.829534 -5.787938 1.958644 37.282586 -32.377987 -122.268875 55.355404 -110.474275 -51.886874 16.053008 -6.935490 
-8.502209 112.626114 -8.001278 -37.355325 -16.539543 -158.079737 16.635107 2.493661 -51.252742 -7.423273 0.225953 34.603919 -7.157063 0.635724 16.112569 -1.155166 0.788377 0.712949 -16.573200 -9.547094 -10.750804 5.453728 7.389509 33.408912 14.109240 1.510448 14.786960 -0.808490 -0.171822 -0.198612 0.255885 8.054258 14.281546 1.826122 -2.207597 -3.563163 -0.930721 5.116365 -4.471136 -4.624863 2.920843 6.522120 6.345912 0.747574 -15.185839 14.736890 -16.573240 -17.799108 9.998663 -23.111805 -22.494723 106.527078 -50.805288 -93.400240 60.496299 -24.720855 -3.668420 -11.717285 20.897000 -7.184817 1.608420 40.340842 -31.184461 -120.024698 57.099200 -108.231809 -55.184073 12.774184 -8.408041 
-7.468246 111.492325 -7.060323 -41.986138 -30.040642 -163.605790 16.947444 2.034861 -44.122008 -8.251835 -2.931736 32.071082 -8.471219 1.412717 17.967012 -1.142300 0.848403 0.762292 -18.276015 -9.722620 -0.360757 5.455788 10.425465 31.410447 15.590147 0.335006 18.761279 -0.901655 0.028379 -0.433648 -1.014619 8.568121 10.116357 1.146939 -2.910649 -3.809249 -1.364216 5.434998 -3.641213 -4.437826 2.924239 4.493691 6.411781 0.238767 -17.409990 15.736353 -15.287200 -18.030168 9.525957 -24.520784 -21.272094 95.945573 -53.391241 -84.989955 58.429232 -24.784115 -4.634329 -12.073633 20.613279 -7.865216 2.305446 41.266760 -29.642109 -114.398748 61.268916 -102.489305 -55.340444 12.142442 -10.971394 
-6.624458 110.007309 -5.777377 -45.070488 -46.796583 -167.838444 16.157608 1.365630 -38.168032 -9.765076 -4.014193 36.202006 -8.600258 1.908780 17.464630 -0.902221 0.587359 0.709222 -18.985693 -9.743877 5.639632 5.233173 11.151796 34.362771 14.658304 -0.333877 20.261419 -0.646478 0.724733 -0.761888 -2.511535 8.729623 7.045643 1.106553 -3.475485 -4.611443 -1.512545 5.624767 -3.861606 -4.876884 3.428934 2.072125 5.594839 -0.641898 -19.139707 17.476899 -13.589117 -18.875306 9.624315 -27.474310 -19.424844 79.587934 -57.788715 -70.514798 57.270010 -23.097393 -5.353200 -12.318196 19.530162 -9.073552 3.407586 42.814956 -28.132656 -102.945890 63.840026 -91.436606 -55.745789 11.165533 -11.984631 
-7.723242 108.235092 -5.899394 -49.779209 -62.067177 -166.086217 15.128653 1.984450 -34.548610 -12.063113 -2.783655 45.615128 -7.101698 2.009859 14.043029 -0.982112 0.716962 0.554802 -19.430134 -10.894139 7.925182 4.761099 11.013303 34.705717 13.346182 -2.259483 19.202510 -1.078822 0.609133 -0.737867 -3.337218 8.674919 6.098011 0.338614 -4.476281 -5.912134 -1.183424 5.548130 -3.577308 -7.794512 2.720477 0.073065 6.066413 -0.165909 -19.463962 20.736116 -14.526852 -19.869436 9.387705 -30.745288 -18.528515 60.796229 -58.250387 -53.158237 56.640116 -19.224945 -3.682576 -15.887783 19.633350 -10.652455 3.842303 38.103119 -26.610026 -92.063587 66.482593 -80.390074 -54.772181 9.354881 -11.323918 
-9.166141 106.362732 -5.299199 -71.954855 -74.380142 -143.916928 13.742413 2.031679 -31.011923 -13.407198 -2.779837 53.394522 -6.390922 2.473807 10.004767 -1.134206 0.927546 0.319009 -20.579179 -12.226605 10.111381 3.326391 9.413086 31.303768 12.101071 -4.651190 17.426411 -0.769490 0.262856 -0.624547 -3.343272 8.595689 6.269431 1.112081 -4.835878 -7.396349 -0.476687 5.511698 -3.348727 -9.117835 2.547156 -2.995393 5.350876 0.149272 -19.731236 24.336343 -14.970113 -21.217046 10.196887 -32.177973 -18.465713 42.346389 -58.131033 -35.393939 51.912564 -16.075103 -0.804685 -19.091955 18.473101 -13.300762 1.753577 32.848934 -26.344257 -77.512385 66.031829 -66.569727 -51.788415 7.874446 -8.982106 
-10.998652 105.014053 -4.482800 -126.830169 -75.799466 -90.033121 12.648832 1.613848 -27.575439 -15.083322 -3.010410 65.696134 -4.676997 2.644128 3.655035 -1.008720 1.038252 0.303181 -20.050460 -13.385608 10.434145 3.036184 8.820540 30.281847 11.702402 -6.584075 17.115765 -0.561768 0.324340 -0.505749 -3.443150 8.387719 7.182019 2.086286 -4.723137 -7.861299 -0.229151 5.737996 -3.103060 -10.388892 2.868171 -4.654807 3.760009 -0.683106 -19.609324 26.971856 -16.742722 -23.043584 9.946277 -32.248649 -18.781111 27.876225 -54.747335 -21.856158 48.185546 -14.666514 2.401182 -20.172126 19.429164 -15.021087 0.004480 28.000858 -26.380314 -67.793976 63.903983 -58.829611 -49.476434 7.559365 -7.076937 
-13.444548 104.084106 -4.125055 -162.067585 -64.065887 -59.430968 10.808961 2.098206 -21.735494 -15.362275 -3.355732 72.592087 -4.772217 3.043801 2.618859 -0.886609 1.119291 0.490500 -17.351784 -13.840189 7.782160 4.443199 8.123684 33.288352 11.211900 -5.334997 16.095853 -0.299202 0.266147 -1.067903 -3.884985 7.596323 9.144318 3.720981 -4.691406 -9.369653 0.552586 5.191640 -2.286956 -10.618347 2.252034 -7.566590 3.697981 -1.970665 -19.159518 31.039894 -18.816003 -25.047756 8.605647 -32.479630 -17.326385 16.305693 -53.587976 -11.067901 41.564456 -11.964613 1.627760 -20.776798 21.742394 -16.758325 0.545132 25.078106 -26.105556 -63.230383 60.587367 -58.553671 -50.203406 6.062100 -7.901795 
-15.500958 105.436127 -4.727129 -178.690841 -50.576584 -50.513676 8.870588 4.114557 -13.774455 -13.496979 -5.982430 65.274200 -5.497027 5.026048 1.113645 -1.107298 1.232096 0.622159 -15.093203 -13.596989 1.784578 4.338344 4.849955 31.369856 12.003871 -5.476927 16.244868 -0.115475 0.099504 -1.116164 -3.247956 6.078455 10.641859 4.777038 -4.518925 -10.294218 0.662913 4.707692 -2.105201 -10.196572 0.532574 -8.061538 4.823565 -3.492134 -19.318140 34.688615 -21.474644 -28.334871 10.806051 -33.843508 -20.240285 13.660470 -50.789820 -9.165961 40.567435 -13.061092 4.655888 -20.504901 23.559189 -17.986852 -0.160061 22.926599 -26.579528 -64.103769 57.810459 -61.815409 -53.000705 7.307467 -7.050430 
-16.836653 107.025024 -5.775601 169.606408 -36.316002 -47.484426 10.827987 7.367859 -6.652166 -11.611421 -8.904503 59.023091 -6.545687 7.187510 2.586180 -0.987373 1.067838 0.567147 -13.382929 -11.884194 -6.802922 5.707921 3.629394 34.560914 12.946308 -4.448518 16.300370 -0.368959 0.341180 -1.858829 -2.607059 3.468588 13.629888 5.732616 -4.757987 -11.453259 1.002512 3.525358 -2.381123 -9.672127 0.518208 -7.543408 4.279208 -4.276788 -18.508320 35.705100 -24.098814 -29.820854 16.154842 -33.706395 -24.587868 10.114774 -46.213531 -6.974775 39.314488 -15.035106 7.217494 -19.406382 25.156820 -18.151741 -3.638815 22.832021 -28.510624 -62.646341 55.487001 -61.836836 -59.121958 8.453362 -4.111769 
-17.211000 106.616150 -6.609651 159.157913 -22.061318 -47.737878 15.443043 11.297010 -2.016792 -9.513792 -8.384474 51.952479 -8.088838 9.721269 6.559745 -0.798938 0.945333 0.585649 -14.350492 -8.939835 -14.674682 5.911595 4.329364 34.516286 11.374923 -4.518065 12.688794 -0.425151 0.476909 -2.581416 -1.112870 0.658610 17.420591 5.682121 -4.585544 -12.362669 1.009262 2.338618 -2.869338 -9.366838 -1.606561 -7.187729 4.869674 -4.263985 -18.495191 36.124302 -25.378265 -30.566127 19.989830 -33.533270 -29.348309 10.442636 -43.146135 -7.205158 42.419884 -16.863382 6.948536 -20.218391 26.059058 -17.777878 -5.436397 22.285993 -30.215702 -63.303304 53.094619 -63.013958 -65.098296 7.635749 -4.642315 
-16.908524 106.272339 -6.475254 150.550844 -12.620034 -50.663748 19.189929 14.470101 -0.844779 -11.218970 -5.122925 54.087484 -10.153188 9.566530 7.066806 -0.782510 0.735997 0.499282 -16.489822 -5.828863 -24.737675 4.216605 4.503562 33.095708 9.381413 -6.129692 8.982390 -0.146842 0.467055 -2.821910 0.112389 -2.182680 21.798159 6.287524 -4.398181 -13.256041 1.540756 1.120398 -2.912698 -8.886754 -3.131861 -7.203008 5.051501 -5.395558 -18.376565 36.283003 -26.512497 -30.522735 23.992202 -33.733524 -34.566922 9.552822 -38.935655 -6.452282 42.063547 -21.756291 8.664719 -22.041504 25.951661 -18.136908 -6.273475 22.949406 -32.411311 -62.358700 50.391170 -62.283349 -68.932103 7.053516 -7.043968 
-20.315390 105.577057 -8.938075 142.191114 -2.095424 -55.161533 20.770765 15.970110 -2.682387 -12.925734 -1.031540 67.847835 -10.353122 9.639407 6.835716 -0.923444 0.682119 0.390001 -17.345382 -3.998922 -36.951162 3.245791 4.963572 36.170294 8.074056 -7.357051 8.581262 0.203720 0.268416 -3.018896 0.749426 -5.278761 25.815175 7.627617 -4.561015 -13.222090 1.787954 -0.404670 -2.724209 -9.315281 -3.948614 -6.741778 4.961415 -6.255328 -19.234369 36.369318 -28.504678 -30.459579 26.953799 -33.346787 -38.109289 10.994925 -37.959319 -7.374448 38.540029 -22.546399 9.043874 -21.965291 25.652420 -17.496355 -5.550095 21.293930 -32.339707 -68.593132 49.400322 -66.720733 -70.253259 7.129347 -7.538011 
-30.194582 104.775314 -12.372501 136.643737 8.562045 -63.915776 21.845593 17.480631 -8.539163 -14.038113 4.927843 84.028379 -10.615970 7.342326 5.187872 -1.120121 0.619664 0.484000 -17.085473 -3.171033 -50.237710 3.662065 4.576566 43.427471 7.143376 -5.912061 7.262080 0.448524 0.003247 -3.393458 1.618594 -8.126400 30.475659 9.330517 -5.008886 -13.660397 1.897426 -2.143597 -2.210564 -10.083523 -4.637719 -4.633444 5.008881 -6.092989 -20.613820 37.011732 -29.618883 -31.948724 28.253043 -30.752965 -39.477881 12.993849 -36.670722 -8.970921 36.653620 -19.356906 4.934221 -20.760778 25.377553 -15.626891 -5.190828 18.431439 -32.141327 -75.816410 49.205909 -70.993973 -70.486133 4.999377 -7.215548 
-41.609741 104.294510 -18.027554 126.133029 19.203321 -80.316227 22.396213 20.807704 -14.464053 -15.375545 12.919270 91.807775 -12.006732 2.675289 4.943433 -1.253699 0.556639 0.259094 -18.328519 -1.729723 -61.718079 2.984396 2.785315 62.590208 3.904698 -4.045799 6.214887 1.022713 -0.217068 -4.028403 3.030029 -12.271495 35.875150 11.085066 -5.585333 -13.619057 1.763508 -3.752210 -1.256322 -10.761277 -4.834053 -3.079024 6.186947 -6.515589 -24.732626 35.550285 -31.546900 -31.871443 25.639699 -29.114336 -39.107017 15.020826 -37.051851 -11.146559 36.321409 -16.556846 -2.979685 -19.712693 24.142429 -13.480502 -1.607732 14.369080 -33.139615 -81.951521 47.941028 -74.000528 -66.881344 2.884663 -9.121156 
-51.751480 104.317253 -26.646486 109.345347 24.779298 -105.495822 20.718573 22.484891 -19.223324 -15.694517 19.004679 98.014241 -10.416325 -1.319906 2.667888 -1.048133 0.582803 -0.226482 -21.686408 -0.506134 -65.375605 2.677884 4.268769 89.620257 -1.370568 -5.391346 -0.031116 1.637133 -0.382304 -4.132861 5.019379 -15.384479 37.923957 13.143865 -6.937337 -11.925324 2.210997 -4.975201 -0.719266 -11.663084 -5.433553 -0.962083 5.632576 -5.556515 -26.625992 32.197223 -32.868321 -30.024201 22.500335 -29.482914 -39.223396 17.393421 -40.789368 -14.631969 37.190133 -12.541076 -9.956416 -18.129846 21.622501 -10.838968 3.828107 9.964781 -32.186633 -83.640321 45.744999 -75.624775 -65.972852 2.190282 -8.314236 
-50.872158 105.129066 -31.082914 89.648323 16.392383 -131.116187 19.530220 22.767078 -23.494728 -16.995368 24.781834 101.692082 -6.165279 -5.488973 -0.731120 -0.031576 0.701256 -1.236429 -26.471921 1.102746 -63.007435 6.231836 7.543402 107.612736 -7.668440 -7.655630 -0.995175 3.900767 -0.401507 -3.797024 6.921683 -17.714072 37.576936 14.386565 -9.530736 -9.114460 2.465443 -6.462741 -1.115025 -13.508650 -3.858906 5.172696 2.862959 -5.835683 -25.735714 26.788398 -34.049918 -25.582191 16.855568 -31.147027 -37.872753 19.825190 -44.999041 -18.158569 36.810952 -12.374367 -16.686338 -15.843769 18.551509 -8.477859 10.940882 7.197984 -28.399918 -81.804352 45.282900 -74.434769 -60.760166 0.320453 -14.198535 
-51.843643 106.380615 -28.294842 75.609481 -5.730900 -142.740392 18.350279 21.596165 -30.489928 -19.226393 28.521214 99.635564 -4.330614 -6.715674 4.445305 1.137911 0.548032 -2.983297 -29.975179 4.737431 -55.895803 9.562837 11.030778 120.309766 -16.583004 -13.568551 -0.951750 5.782446 -0.317696 -3.171508 8.193297 -17.278694 34.269706 13.318324 -13.656573 -3.263352 2.855916 -7.084698 -2.624309 -12.713642 0.314160 13.955194 0.897750 -1.976727 -20.952712 14.633721 -32.367069 -14.932736 10.879456 -30.514400 -33.048026 23.872806 -53.308692 -21.532136 36.346586 -11.439850 -19.190533 -8.807776 11.583157 -3.679779 19.934170 0.079623 -25.314464 -80.097846 41.541636 -75.315046 -55.974694 -1.748023 -23.708621 
-52.460407 106.754608 -24.528259 59.235724 -30.702871 -139.849519 16.306124 18.992448 -38.925359 -17.041099 28.163757 96.819414 -0.361614 -4.994741 3.443969 1.300001 0.680650 -3.101627 -30.718764 7.144141 -43.469380 10.937651 13.621151 123.302529 -18.828899 -15.350050 1.534341 5.776857 -1.024718 -2.790214 7.385179 -14.432119 32.562963 13.064302 -14.999822 0.044902 2.890299 -7.501025 -3.292580 -10.767026 -0.463640 20.244912 0.921601 -3.449510 -20.640968 3.624757 -25.667434 -4.421838 9.029046 -23.208060 -29.225382 31.675773 -57.649683 -32.447953 34.197680 -12.598070 -19.789141 -1.830772 9.015075 2.488993 30.345895 -2.507340 -17.222822 -104.739529 45.422307 -93.937220 -56.939049 -0.592654 -21.955431 
-53.264175 105.350975 -20.628838 45.055968 -43.018360 -127.925424 15.754873 18.523051 -46.441129 -17.737754 27.713075 85.865746 -0.186319 -2.234296 3.652246 0.857745 0.836924 -2.573393 -30.669498 7.508267 -37.782385 11.579914 12.054085 124.744234 -16.345778 -16.146836 -2.911291 4.611597 -1.245312 -3.538579 6.578044 -12.028182 30.930639 11.249238 -14.342892 1.784858 1.787598 -6.625648 -3.951734 -9.285022 0.508285 25.495780 0.365174 -3.599805 -20.477602 -4.977956 -17.796776 2.289371 6.899612 -10.063713 -22.646673 31.895440 -53.903349 -38.913974 35.118427 -18.356995 -13.895184 4.060178 6.439324 4.562915 34.077301 -6.085006 -14.276583 -107.742668 47.085367 -102.110152 -57.282014 -0.528690 -24.488810 
-54.180073 103.340454 -18.030550 29.254748 -46.254612 -114.276637 14.015429 15.001030 -49.303690 -16.703459 24.893041 75.043651 1.230285 1.977567 3.640295 0.734057 0.934366 -2.153388 -27.856240 7.397833 -36.931156 11.785868 7.294723 127.666892 -15.912582 -15.001912 -6.392386 5.315426 -1.378559 -2.991415 5.057279 -8.682872 29.449696 10.879110 -12.014755 2.570948 1.858370 -4.760151 -4.679751 -7.375321 2.047602 32.126350 2.114677 -6.914728 -21.939657 -4.302302 -13.809840 5.064038 8.140523 -2.228021 -20.762404 19.861480 -42.941059 -29.353631 34.626002 -22.878957 -5.095412 4.177183 5.764360 4.729778 37.824359 -4.966695 -13.438013 -108.831049 46.304146 -105.179491 -62.678544 0.586611 -25.308265 
-54.392265 101.321823 -16.259737 16.930329 -47.647470 -105.107393 14.244209 12.754449 -50.116438 -12.279385 22.565771 72.464610 3.840548 5.404152 5.709231 0.112737 0.748108 -1.103598 -25.243579 5.990713 -38.770188 12.445781 3.042096 128.165026 -14.715128 -12.441881 -4.676030 5.374307 -1.532216 -2.588105 2.395635 -4.859416 28.817986 11.053658 -9.574347 2.630372 1.759997 -3.071416 -4.687373 -5.949256 1.588891 36.376909 4.113697 -6.957365 -21.651688 -2.200910 -12.767084 6.962065 7.886650 2.807071 -16.840878 8.945997 -31.881697 -20.179721 30.944405 -22.387388 5.409897 1.876929 7.622718 4.060380 39.223951 -1.257487 -11.230144 -110.925205 49.521292 -107.649702 -58.133779 1.123465 -24.738899 
-53.935635 100.278534 -15.429850 7.738148 -45.805192 -101.162788 13.807897 11.225150 -48.942270 -11.202933 20.645917 68.928749 5.409933 7.019339 7.388134 0.221752 0.446537 -0.877477 -23.271580 3.932978 -38.286569 12.486580 0.323944 127.151587 -13.676982 -9.633501 -2.863598 4.099515 -0.369225 -2.880501 1.040386 -1.976271 26.123590 9.530318 -8.005637 5.771027 1.211984 -1.018666 -5.154064 -7.715584 1.834328 39.124571 4.964495 -6.652127 -21.179043 -3.125334 -13.629688 7.722604 8.458061 4.914158 -13.046416 5.193016 -27.633788 -15.929373 22.430004 -21.660157 14.380799 3.035568 12.343261 6.296673 33.583866 2.885304 -10.833686 -112.481314 57.301278 -108.131142 -46.814329 8.310452 -22.512896 
-52.959892 99.813858 -15.523724 3.360406 -45.051657 -101.798634 17.660130 12.363499 -49.051551 -11.673958 18.018281 69.364662 4.203454 6.326446 10.171616 0.108507 0.156560 -0.826243 -23.155944 1.903248 -36.191787 14.067242 -1.909509 126.986833 -12.203098 -7.254234 -3.848114 3.287252 0.417074 -3.076959 -1.108648 1.119719 25.976986 8.023488 -6.815232 7.444991 0.936424 0.805754 -5.726471 -7.759438 2.983245 40.517793 7.013891 -8.415127 -20.237560 -1.926368 -15.898360 7.445590 10.187691 6.455843 -10.761943 2.414988 -25.810260 -10.993267 15.866416 -19.124669 20.248135 2.259667 18.990767 7.225341 29.365715 9.388586 -11.189401 -113.151509 65.563723 -106.288937 -34.431954 11.184752 -18.828305 
-52.018772 99.717384 -15.819635 -0.897518 -44.511531 -103.817646 22.353161 14.478151 -52.345187 -12.074064 16.387990 72.275449 2.035508 5.652346 12.971650 0.480867 -0.325061 -0.938538 -23.210364 -0.212535 -33.686941 15.980733 -3.303734 126.268288 -12.267003 -5.669576 -2.512691 3.661715 1.365537 -2.994719 -2.711937 4.623192 27.095969 5.436764 -5.345644 9.212396 0.340814 2.947232 -7.171320 -7.956276 3.002819 40.697607 8.883448 -8.117975 -17.906780 -1.114804 -19.890658 6.155939 11.569689 7.465703 -10.736900 2.477113 -26.699580 -7.599837 15.581389 -18.990130 21.101680 -1.059424 27.893824 6.634799 19.784332 17.292670 -15.345538 -87.906624 75.995566 -81.159245 -24.748253 11.774121 -17.940692 
-51.189384 99.064674 -16.054821 -6.131445 -44.100517 -103.768152 26.500251 16.049925 -54.311321 -12.908165 11.147160 69.951631 -0.416368 5.239922 15.168822 0.751460 -0.227608 -0.908350 -23.108716 -1.604651 -32.590296 17.043508 -4.528759 124.598852 -10.873357 -6.300700 -3.282223 2.890308 1.511683 -2.832391 -3.704152 6.500101 29.833815 2.885863 -3.424028 10.483447 -0.288865 4.554860 -8.644844 -9.360548 1.492881 39.000539 11.637381 -7.974898 -15.351722 0.432047 -24.006398 2.690326 13.270839 6.884368 -11.219858 6.515290 -33.435661 -10.084534 17.446050 -19.826809 18.543598 -6.369831 36.505549 3.648795 4.297115 20.184098 -23.805714 -36.336481 72.058723 -30.749843 -20.567741 14.964720 -15.584244 
-50.525986 98.296097 -15.839197 -12.719355 -44.596070 -100.604534 29.260042 16.207306 -55.469872 -13.969820 5.624053 62.088092 -1.601028 6.392045 13.366870 0.810039 -0.061900 -0.300129 -22.028200 -3.293600 -33.630289 17.063628 -6.228208 120.830395 -8.977440 -6.413978 -4.196696 1.930385 1.062942 -2.505412 -4.358098 7.224334 33.740445 -0.504182 -1.429770 9.280616 -1.081201 5.026498 -8.802094 -10.879076 -0.091784 35.323601 13.887228 -7.780036 -13.141050 2.129782 -25.658163 -2.873150 13.838019 3.042071 -12.708971 17.400218 -40.353616 -19.747384 24.115054 -22.438609 14.327969 -12.016742 40.429736 -0.962606 -7.499943 19.590725 -30.024744 -17.759967 62.063881 -13.366778 -19.107302 18.378752 -13.159760 
-49.640984 97.799629 -14.951052 -24.719207 -45.650435 -93.076476 29.658475 17.225412 -57.945564 -13.198082 1.770897 52.809704 -3.886023 6.545399 14.898431 0.566566 -0.018022 0.008439 -19.414300 -5.452140 -36.888230 16.410345 -6.700644 114.919531 -7.303397 -4.980462 -3.541327 1.450472 0.568976 -2.374562 -4.608224 7.583309 36.142070 -2.344315 0.006338 8.345425 -1.097310 5.170437 -8.986528 -11.373345 -0.722076 33.523433 16.628303 -7.260994 -12.766469 4.688726 -26.806316 -6.983906 13.958242 -2.734578 -15.308026 30.994340 -46.287068 -32.650311 32.515845 -24.323463 10.408910 -16.471636 40.433145 -4.206434 -10.707363 15.314956 -32.205800 -18.730818 63.368722 -15.421357 -24.846141 20.885207 -12.207759 
-48.151363 97.597755 -13.775129 -39.426632 -49.120229 -84.986210 30.304159 17.361221 -60.533115 -10.038034 -0.254868 44.727298 -4.830962 7.448363 12.592842 1.328087 -0.157417 -0.215808 -18.782109 -7.807058 -43.614341 16.162812 -9.284649 109.113900 -4.242103 0.423544 -4.704336 1.978256 0.680352 -1.588557 -5.414998 6.949072 38.125626 -1.564399 -0.662102 7.233417 -0.709118 4.419407 -8.629048 -9.153999 -0.396058 30.772899 17.586596 -8.461839 -10.032962 5.374159 -23.996045 -8.375903 14.197561 -8.488289 -18.045787 29.738395 -43.413114 -37.231729 42.170812 -20.777319 2.850079 -15.101558 37.653824 -4.913590 -9.279314 19.811829 -32.980204 -21.868431 59.913960 -23.060377 -31.693733 20.950089 -13.085059 
-46.469078 97.563461 -13.134838 -56.867492 -49.661855 -72.807414 29.630159 17.941148 -63.830818 -9.601979 0.280170 44.635942 -5.704214 5.882489 9.181561 0.815388 0.009242 -0.668533 -17.231774 -9.197404 -51.567797 13.307996 -7.866970 101.265753 -3.945894 0.487416 -7.748549 2.140934 -0.020390 -1.289864 -4.838328 6.452515 39.490857 -1.171745 -0.540374 4.368628 0.572121 3.913404 -8.723219 -9.388531 -2.720550 25.730477 18.279228 -11.162719 -11.466505 4.410793 -24.308346 -7.814409 11.367042 -14.051843 -19.304498 34.025857 -47.368475 -39.287632 44.248732 -20.238843 1.339179 -14.164046 34.905734 -5.217995 -3.856220 21.813536 -30.249138 -31.518340 66.124887 -31.593257 -36.852323 19.760482 -13.715564 
-44.687809 97.156075 -12.883657 -80.720375 -51.085166 -51.499200 32.112898 23.875083 -67.111171 -8.257546 2.238361 45.683509 -6.435368 2.606296 5.735995 0.391637 0.156020 -0.124644 -19.616264 -10.827948 -46.319633 11.771905 -0.826419 80.325394 -4.353298 -0.141796 -10.538599 1.203825 -0.739600 -0.760722 -4.614187 6.968442 39.513112 0.714158 -2.415332 0.299096 1.486100 2.704634 -7.426418 -9.083621 -5.998658 21.376094 20.612268 -13.141337 -14.319920 5.093186 -22.897753 -7.957719 12.376095 -17.724564 -18.948815 30.055916 -55.431872 -34.861591 46.499915 -17.658168 -3.033933 -10.469100 30.937935 -4.635684 1.854268 26.915988 -28.440528 -43.961835 69.379924 -44.842270 -37.880923 15.831991 -19.975823 
-42.357227 96.061058 -13.828215 -96.329413 -41.706094 -36.810994 34.785212 27.490480 -67.185942 -7.308693 4.587318 49.607636 -5.907355 2.318709 2.746916 -0.310846 0.307101 0.854712 -21.617965 -10.628933 -36.155190 7.368422 3.879725 62.544019 -2.112083 -3.941298 -10.852545 -0.263386 -0.971751 -0.500681 -5.408992 8.351933 38.005217 1.346849 -4.383978 -3.255785 2.152752 1.872168 -4.450250 -8.392377 -6.379554 16.405887 20.792861 -12.862264 -17.605078 7.215856 -22.040171 -8.237633 14.459108 -17.077093 -19.809115 25.319958 -58.315724 -33.382657 48.854372 -16.556023 -6.898204 -9.264813 28.426565 -5.097259 7.775354 30.009665 -24.354385 -69.283022 74.564678 -68.510923 -36.950314 13.715712 -22.450394 
-39.746532 94.331230 -15.659269 -108.126918 -28.834662 -23.903086 36.799483 27.202063 -67.306520 -3.858923 3.572456 48.719111 -4.797219 4.146424 6.370062 -0.179519 0.555540 -0.135570 -23.028749 -8.675291 -22.404213 5.920246 8.824387 55.601145 0.805752 -4.393179 -2.636849 0.955442 -0.709159 0.109637 -7.650956 9.359350 33.248185 1.464703 -5.691652 -1.927533 2.913430 1.134016 -3.822322 -9.970251 -5.543519 15.597217 19.723596 -13.327310 -17.440554 9.001514 -19.879734 -8.731903 13.736708 -18.534621 -19.538959 19.420613 -59.756546 -23.482117 51.670562 -16.828016 -5.580369 -6.554813 25.471187 -4.155541 24.212840 30.733337 -17.053833 -98.182076 70.496656 -96.893068 -41.837561 9.458705 -29.346307 
-36.773438 92.638008 -17.272432 -117.118208 -10.434055 -17.312306 35.870690 25.515566 -64.133158 -4.179073 4.192726 52.577268 -5.342826 3.068337 3.690963 -0.965396 0.968927 0.395420 -24.204175 -9.986835 -17.013901 5.253833 9.028686 47.937908 3.373851 -6.777583 -9.275587 -0.358394 -0.947644 0.157691 -6.503339 9.401094 30.775284 1.401335 -5.512146 -3.806528 2.681214 1.427875 -1.243654 -9.259184 -6.393513 7.981288 18.215472 -11.592084 -20.537757 8.376111 -20.535726 -12.573170 10.148604 -20.100494 -17.977863 23.748765 -65.629266 -25.591069 55.709964 -16.968233 -2.857044 -4.825423 23.472091 -6.607085 26.859021 28.378882 -12.516452 -118.236251 68.799347 -114.725141 -41.961618 8.418373 -24.211109 
-34.278004 90.813248 -19.009258 -121.531778 12.657988 -17.940228 36.370269 25.163277 -64.884583 -5.461016 4.898524 57.590460 -5.428590 1.478863 2.336701 -1.178358 0.915371 0.551816 -23.919177 -9.323907 -10.408726 5.213538 10.040754 45.359743 5.379215 -7.462490 -5.387081 -0.849041 -0.712992 -0.256002 -7.975640 10.461538 28.541109 1.274415 -6.256643 -5.212543 1.779328 1.514741 -0.061990 -9.311253 -5.648378 6.182249 17.436797 -11.187005 -21.651665 9.593137 -21.246031 -13.707415 12.273212 -20.757701 -18.459243 33.590085 -67.490192 -34.054250 57.729725 -19.079729 1.034315 -3.617954 21.876739 -6.053479 27.151978 24.936141 -11.841528 -124.198154 64.681631 -119.658094 -45.220873 7.411007 -23.577018 
-32.089062 91.846718 -20.601831 -124.593786 32.082227 -20.940736 35.217816 25.331234 -66.873559 -5.505228 8.602290 68.955941 -5.204449 -0.059645 1.531532 -1.160944 0.810043 0.405880 -22.958750 -9.230360 -8.825045 5.806777 8.878132 45.932761 6.115073 -7.881857 -2.571563 -0.933393 -0.261100 -0.976086 -9.222598 10.403731 28.084665 2.060564 -7.216861 -6.648376 1.814865 1.319855 0.929552 -9.780095 -5.300345 5.916644 15.229831 -9.022594 -19.476997 11.535054 -22.112130 -13.904914 11.786334 -21.161147 -18.107226 40.153815 -69.909237 -38.804317 56.597801 -19.184285 4.188123 -4.407811 20.884964 -6.871901 26.674058 26.310058 -12.859175 -126.001568 61.677772 -121.797829 -48.256034 5.245543 -21.989465 
-30.313162 93.771141 -21.640127 -126.769939 49.069930 -21.268942 33.543749 26.078120 -67.967578 -4.958725 13.629966 82.320035 -4.493211 -1.301600 -0.362992 -1.282388 0.807184 0.684528 -21.479403 -8.943726 -7.655134 5.700283 7.918366 48.840865 5.194005 -8.671437 -0.757347 -1.122389 -0.239976 -1.579833 -10.650709 10.255683 28.610409 3.641128 -8.371618 -7.885820 1.809322 0.822036 0.311326 -9.706163 -4.631162 5.903303 13.635309 -7.347498 -19.836734 14.495640 -22.411816 -14.535904 12.610440 -22.947558 -19.155755 33.980103 -68.943367 -31.198233 56.351220 -16.742010 5.896410 -6.416587 19.558972 -8.310751 24.732154 27.882983 -14.586768 -122.033386 63.648424 -116.776491 -51.594088 1.379189 -18.863433 
-28.934658 95.749969 -21.567226 -130.600320 65.468495 -21.274125 30.332786 24.865236 -67.196960 -3.926869 15.211287 95.282835 -5.368483 -2.700306 -1.857845 -1.257905 0.621001 1.036257 -18.372109 -7.673571 -12.159430 6.303010 7.232156 53.479142 5.466812 -6.389073 -0.502877 -1.259339 -0.239009 -2.070527 -10.305551 9.233291 29.398423 5.376933 -8.923036 -8.900784 1.608978 0.402869 -0.188789 -10.199094 -4.835197 8.643962 12.546993 -6.914471 -17.831135 16.804674 -23.910201 -14.923373 12.572801 -22.217850 -20.096035 38.303989 -68.691417 -33.998730 55.037032 -18.974066 8.785190 -8.414868 19.428377 -9.891136 22.917582 29.169619 -17.426578 -117.732186 62.126151 -110.116327 -54.548084 2.702924 -16.040774 
-28.024868 97.235458 -20.330694 -130.537448 82.674877 -18.013308 26.972908 22.421936 -62.083458 -4.116018 14.363389 104.492373 -6.482781 -1.013584 -1.237313 -1.212633 0.129664 1.486449 -16.330202 -5.805833 -22.362596 6.230668 5.531608 63.145521 4.876349 -4.938456 -0.477229 -1.382389 0.249508 -2.391032 -8.031534 6.392827 30.723707 6.385261 -8.157253 -9.384289 1.119656 0.345317 -0.769052 -11.146538 -5.328422 11.490448 10.922999 -7.210063 -18.393941 18.913660 -24.090301 -16.779572 12.215717 -21.305946 -20.606967 40.700832 -67.225892 -35.406707 54.045884 -18.813103 11.568129 -11.779742 21.499289 -11.663923 18.446206 30.125350 -20.319581 -112.189417 60.356170 -103.739080 -58.847243 2.213074 -12.428258 
-27.729551 98.549644 -18.385872 61.382530 84.841408 175.231128 21.892755 18.788222 -51.032158 -8.841102 11.221111 101.732325 -5.477284 1.629030 -3.498938 -0.924041 -0.068635 0.667100 -17.926741 -4.824254 -35.376731 5.160530 3.362362 71.580137 6.213067 -1.939356 1.637299 -1.050814 0.404271 -2.151779 -2.862000 0.852291 33.664863 6.815657 -6.429414 -9.201384 1.142414 0.128506 -1.848117 -12.914337 -5.236865 12.071322 8.002197 -6.858160 -19.061096 19.547585 -25.844004 -19.395538 12.271403 -21.031373 -22.743066 36.181442 -64.256718 -29.256557 53.609994 -20.532528 10.555811 -16.045110 24.832858 -13.994978 14.374304 28.865272 -21.690299 -102.622697 62.913719 -94.682911 -63.279791 5.629414 -9.197947 
-27.841301 99.559120 -16.461006 51.761973 72.806327 164.228524 19.426782 15.523918 -38.807697 -13.893805 5.947801 98.913420 -4.355218 4.578753 -3.574432 -0.772301 0.010087 0.639149 -19.731741 -5.550448 -45.831668 2.669858 1.894738 74.083273 6.322092 -2.127587 2.779253 -0.801268 0.665975 -1.966919 0.694390 -3.136845 35.110612 8.142508 -4.336734 -9.426165 1.568409 -0.033618 -3.026795 -11.826890 -6.539934 14.856003 6.831463 -8.766589 -18.015978 20.464639 -27.808951 -19.777632 12.333486 -23.337088 -23.036580 24.339934 -60.999048 -16.756258 46.635350 -16.316422 7.433706 -17.133143 26.805441 -13.091122 11.129978 27.566706 -22.813680 -88.202310 64.912299 -81.938196 -66.839704 4.764710 -8.580484 
-27.999798 100.526054 -13.807880 57.057322 64.256038 165.721650 17.399526 14.447049 -24.775319 -15.635931 -1.090837 92.251640 -3.201113 7.720286 -3.356660 -1.053542 0.321276 0.384476 -22.783863 -9.542965 -57.976401 0.172434 -1.465563 71.228157 5.672780 -2.628412 2.037340 -0.126236 0.840137 -2.201195 4.812988 -7.733685 37.666184 8.015335 -1.742387 -10.525442 2.274591 0.069731 -2.387690 -12.241301 -8.539227 15.462426 6.560194 -9.172138 -17.193368 22.257827 -28.971030 -21.554104 13.637565 -27.094857 -24.807235 14.970007 -57.757203 -7.061821 40.775116 -12.273020 6.625572 -17.356196 28.918976 -11.429771 8.195634 25.824291 -23.825232 -71.333957 65.233107 -68.307373 -66.344610 2.680864 -8.739731 
-28.511003 101.218025 -11.078637 58.591457 59.345184 162.521428 17.691840 14.298732 -11.649411 -13.731501 -6.984632 80.759014 -4.290775 9.941484 -2.430114 -0.978386 0.410947 0.031776 -25.838644 -13.436205 -65.574708 -1.343526 -3.987348 60.366919 5.966367 -3.524908 0.891385 0.152219 0.879070 -2.409910 8.187139 -11.120624 39.497513 7.723151 0.372077 -11.609857 3.250859 0.190115 -1.690213 -12.029491 -9.166019 14.266734 6.569903 -7.974131 -17.465896 24.264737 -31.254151 -23.049761 13.997395 -28.620494 -25.874537 6.779166 -53.813805 0.863017 37.194178 -10.347088 3.649853 -17.981677 31.687445 -9.991763 2.947169 25.037626 -26.524863 -51.618514 61.338405 -51.478876 -65.739921 0.011984 -8.593655 
-29.598959 102.079277 -8.431176 60.519936 56.125995 158.379833 19.302497 14.988581 -2.015078 -11.834628 -10.028938 66.988200 -6.357607 10.155176 -2.329186 -0.748629 0.432087 -0.219632 -27.207126 -17.093408 -70.478785 -1.590068 -6.327905 48.263985 5.709163 -4.797450 -0.677305 0.449107 0.858104 -2.666332 10.436476 -13.670085 41.486400 7.189230 2.074547 -12.216072 4.520221 0.114783 -0.578301 -12.277666 -9.172938 11.592366 5.949368 -7.415823 -17.676970 26.056108 -34.238150 -25.185667 14.505548 -30.174078 -26.766013 1.284079 -49.742401 6.192256 34.652825 -10.756564 0.512655 -17.823319 34.078249 -9.081710 -1.801163 23.534736 -28.426889 -39.459414 54.609084 -42.875437 -61.449854 -3.242833 -12.313940 
-31.398113 102.873474 -7.966632 63.251278 54.035023 155.138430 20.729414 15.944313 4.423480 -10.546963 -11.135426 52.867910 -9.262128 8.504674 -2.229872 -0.316990 0.563204 -0.305804 -27.830530 -20.035253 -74.028210 -0.995302 -8.819318 36.630481 4.816332 -6.949159 -3.902157 0.697643 0.722620 -2.892005 12.324466 -15.879728 43.756409 6.595259 3.266507 -12.241295 6.004636 0.064237 -0.144418 -12.236817 -8.737129 8.141347 5.952401 -5.735274 -18.929099 26.868124 -37.164636 -26.973785 15.263190 -30.516224 -27.363990 -0.497947 -46.390676 7.115482 33.060528 -12.793309 -3.632827 -17.835552 36.871427 -8.021664 -7.239791 21.389590 -31.539164 -30.262419 45.375709 -39.204297 -59.042526 -4.982706 -16.873238 
-33.731857 103.339867 -7.895938 64.667108 53.019474 150.119671 20.319797 16.999277 7.309275 -10.357958 -11.230657 39.427233 -11.357555 7.153051 -2.259567 -0.199214 0.689273 -0.494229 -28.056814 -22.386719 -76.003787 0.126890 -11.141018 30.286779 3.827460 -9.365201 -8.341435 0.967682 0.367063 -3.086829 13.493759 -18.041441 47.134077 5.143139 4.454128 -13.227952 6.608932 0.640547 0.094409 -12.659332 -8.690219 4.693830 6.256282 -4.192851 -19.549930 25.885445 -38.711603 -27.785411 16.174159 -31.944456 -27.584899 1.630810 -46.449659 4.732344 31.358454 -15.672313 -6.442702 -17.217090 39.680681 -6.670491 -12.557275 17.956845 -33.910655 -23.899227 37.113885 -39.174915 -54.805137 -4.350200 -22.251945 
-36.416935 103.876938 -8.367593 65.309051 51.968093 144.083420 18.080918 17.898446 5.548150 -10.394678 -10.605921 28.511380 -11.404392 5.072389 -3.994981 -0.159836 0.717113 -0.720487 -27.494284 -23.245115 -76.132579 0.762083 -12.967360 26.528342 3.049510 -10.875155 -11.956259 0.975410 0.395606 -3.192058 14.383212 -18.874635 48.989286 3.791629 4.451772 -12.416265 6.144224 1.498149 -0.516074 -13.465278 -8.846721 4.253446 6.690874 -4.044646 -19.699889 23.218356 -39.535095 -27.305812 16.070698 -35.405719 -27.682285 5.598901 -46.898513 0.777782 27.616201 -18.088204 -6.654602 -15.832651 40.865485 -4.670693 -16.009748 15.690626 -35.513868 -19.540661 30.198668 -38.425276 -48.386934 -0.859642 -25.271350 
-39.256401 105.085831 -9.177177 64.797954 53.488519 137.738688 13.933054 17.940320 -1.595410 -10.014558 -7.840678 22.639682 -9.935781 3.965795 -5.798433 -0.201536 0.501050 -0.980267 -25.950254 -22.878879 -75.446441 1.238925 -13.914994 24.280345 2.123840 -12.001685 -15.252349 1.003718 0.369618 -3.559096 14.270155 -19.135326 51.742643 2.235774 4.428615 -12.032944 4.715683 2.685147 -1.383314 -15.284577 -8.622894 4.463076 6.240008 -1.978733 -19.627040 19.735652 -40.003871 -26.429163 12.277930 -39.632570 -23.810531 9.981823 -49.612371 -3.610818 24.935136 -18.238426 -5.308742 -14.625132 42.028297 -3.151806 -18.459516 13.481817 -35.221333 -14.874528 25.443390 -35.304471 -38.229233 5.238716 -22.031427 
-42.280674 107.569214 -10.577198 59.437929 56.074024 128.486966 9.585416 15.545335 -11.427323 -8.701607 -3.099239 18.594348 -7.181386 4.225004 -7.674636 -0.385689 0.170042 -1.624079 -23.280642 -20.906760 -73.686109 1.977132 -16.226510 22.582093 1.331819 -12.931567 -16.179764 0.684315 0.362406 -3.595212 12.677743 -17.874280 54.236940 0.540288 4.132250 -9.791661 2.701168 3.790002 -2.633883 -17.803012 -7.974123 6.290670 5.237019 -2.314547 -18.242728 16.718551 -38.759593 -24.923863 4.421665 -43.673920 -17.427944 17.933896 -54.829931 -9.444035 21.247980 -16.663775 -4.152170 -14.729517 42.415163 -2.888299 -18.911585 13.313166 -34.255100 -10.968927 22.502208 -31.148202 -27.990075 9.152387 -16.680369 
-45.354500 111.336731 -10.541590 52.354678 59.049542 113.928759 7.129359 12.032729 -24.735009 -9.592571 -0.369102 21.082879 -4.760123 4.131763 -11.186051 -0.712218 -0.676358 -2.261187 -18.040665 -17.986656 -70.499937 3.518413 -17.588124 22.731858 0.132994 -13.423958 -16.683171 0.214399 -0.255531 -3.047111 10.107360 -14.788788 58.520999 -0.549135 3.537215 -8.826222 1.441909 4.676014 -2.823582 -18.177612 -7.167139 7.106189 5.362402 -1.551495 -16.386326 13.470833 -39.487663 -23.780518 -4.620512 -46.433942 -10.378686 20.751661 -54.249834 -12.389400 19.122742 -14.037858 1.605568 -14.283098 43.561321 -3.752902 -17.849042 13.909041 -32.990163 -6.436379 19.316200 -24.508680 -13.158906 8.902085 -6.840476 
-47.716675 115.937897 -11.211288 36.360794 60.138041 92.582276 8.401396 8.200942 -38.713743 -7.765916 1.160059 26.177238 -4.749164 4.658271 -11.689799 -0.446197 -1.086213 -2.083081 -11.394588 -14.634416 -65.907540 4.610352 -17.263417 19.038289 1.288635 -11.073489 -10.476264 0.020413 -0.149615 -2.712293 6.369307 -8.991637 61.519453 -1.728439 2.318528 -6.248321 -0.149148 4.798323 -2.653353 -18.417815 -7.621261 7.223741 5.676215 -3.619680 -16.117554 11.607627 -40.420149 -21.600081 -12.433273 -44.057310 -5.532274 22.740584 -52.311426 -14.664686 15.889057 -11.603021 5.143111 -17.176853 44.671255 -6.848943 -14.939794 16.711811 -31.961831 -4.136947 18.930015 -14.854295 -6.987639 8.475496 1.476839 
-48.960770 120.734344 -12.428767 23.378627 58.931228 73.417628 10.084565 5.938786 -48.603867 -7.742483 2.346649 33.718471 -3.278893 3.849187 -11.432023 -0.376059 -1.218654 -1.476423 -4.909141 -11.107270 -58.649663 4.800697 -15.118451 13.437594 2.196058 -8.878135 -2.744429 0.157336 -0.031819 -2.214150 3.069734 -3.110843 60.963071 -2.314662 0.620390 -2.660748 -0.867016 3.938499 -3.167345 -17.523740 -7.000408 9.253495 6.191454 -4.437648 -15.386134 6.909183 -40.833491 -17.013067 -19.093623 -42.408208 -2.344718 19.625848 -43.671254 -14.150104 13.591865 -10.832217 5.965815 -16.528544 43.761646 -7.901392 -8.335444 22.697938 -28.670089 -3.212872 20.921979 -7.156488 0.328890 8.806914 3.098067 
-48.585922 125.690857 -13.607540 15.188637 56.580134 59.747704 9.293510 4.418645 -51.848463 -7.644073 5.057473 36.692638 -1.306028 2.438097 -10.364784 -0.372725 -1.109738 -0.491918 -1.244767 -9.645725 -51.061612 5.579094 -13.857515 10.763290 3.002636 -4.867586 3.474914 0.892916 0.343520 -2.267366 0.697524 0.821417 56.732731 -2.194694 -1.291375 0.243652 -1.604820 2.518658 -3.254440 -15.509550 -4.662553 12.798720 6.418108 -7.176218 -13.607306 -0.246279 -38.771112 -10.116117 -24.562892 -38.822742 -0.281015 13.370479 -35.535772 -9.562244 12.514817 -11.788700 7.280470 -9.615996 41.764542 -5.380738 6.475708 29.983325 -20.853538 -5.442533 25.305853 -5.409093 0.477367 11.205109 0.126757 
-47.096611 128.012253 -14.171164 5.474836 55.412834 45.911406 6.434274 2.953467 -52.175310 -7.905394 10.231056 34.019374 -0.411254 3.069984 -6.815095 -0.116338 -1.006843 0.017238 0.647464 -7.205196 -45.619029 5.806809 -13.059976 17.888762 2.462602 -2.738534 2.398943 0.977849 0.412163 -2.351762 -0.211445 2.802344 52.645801 -2.121494 -2.215059 0.586490 -1.735618 2.242833 -1.812579 -13.318794 -3.525066 15.760152 7.625329 -7.124188 -12.128652 -6.029378 -35.102154 -4.934485 -31.805228 -33.696868 4.015041 8.240255 -31.005311 -4.580575 9.017077 -11.032750 8.145759 -4.017556 37.835995 -2.138594 18.340800 28.501780 -12.428850 -3.296384 28.627710 2.522995 1.806251 11.341387 2.296899 
-44.903282 128.993011 -14.728590 -0.381566 54.629816 36.496237 4.203745 1.604322 -47.724838 -7.210601 13.175688 28.222683 0.346002 6.114566 -4.264042 0.205280 -1.104226 0.041265 0.731298 -4.561263 -41.177421 4.746239 -13.563700 33.310119 0.845127 -2.868621 -0.412077 1.324820 0.767415 -2.410398 0.039620 3.277528 49.915941 -1.532504 -2.016719 1.742360 -1.546106 2.285360 -1.851088 -10.909095 -4.304390 17.855727 10.197074 -5.276847 -11.007845 -12.081238 -30.983256 -0.649511 -36.391033 -26.628212 6.689316 5.576234 -29.800128 -4.038308 6.364036 -10.407580 9.077663 0.799438 33.666847 1.192008 23.607751 22.725604 -7.554335 0.224119 27.273197 7.497088 2.360881 10.527129 5.758020 
-42.331665 128.535706 -15.281401 -7.166961 53.691707 24.685087 2.383343 -0.015419 -42.705468 -6.457145 12.014917 26.899129 3.605747 10.290593 -2.226065 0.604291 -0.861128 0.073985 1.240944 -0.960535 -38.396442 3.259477 -10.679745 55.942024 0.468272 -2.313279 -1.212669 1.715962 0.881559 -2.806749 0.611016 2.085920 45.528593 -0.268677 -1.449863 0.487555 -1.208120 2.044350 0.229573 -9.796147 -4.669288 20.256596 10.827466 -3.680122 -8.625063 -15.074248 -25.031550 2.312136 -42.566902 -17.852110 8.823915 1.436720 -27.213228 0.240215 6.668285 -10.528745 8.509359 5.565515 28.139544 5.042092 30.085560 14.549392 -3.200875 3.073816 25.610618 10.653512 -1.736131 9.815577 7.962950 
-40.185135 126.652634 -16.633715 -9.658094 53.544964 17.060119 1.180041 -0.154182 -40.170757 -7.493022 11.991080 34.494780 6.121003 11.821408 -6.785955 0.973962 -1.238686 -0.035029 2.248002 1.458753 -36.171296 4.314740 -9.107559 76.189747 1.281461 -0.752615 1.673799 1.628304 1.481440 -3.130459 1.296240 1.052054 42.950215 1.420094 -1.704275 0.190681 -0.337875 1.323780 1.492318 -8.374631 -6.517920 22.069181 11.662590 -2.745365 -9.405463 -16.585513 -21.026434 3.977121 -45.263145 -12.275058 8.331323 -1.038170 -24.144291 2.132866 6.699811 -11.760154 6.436639 8.081858 22.500853 6.894269 32.532389 6.386583 -3.106270 3.064877 21.133467 9.603733 -2.262631 9.871972 6.699382 
-38.801060 123.790405 -17.539221 -10.200456 52.824717 11.011652 1.886910 0.092741 -39.200472 -10.385761 12.325472 45.716623 8.723628 13.077022 -13.349172 1.517147 -1.052547 -0.324146 0.611916 3.463298 -37.450606 5.792452 -8.769325 93.831073 0.221916 -0.624814 1.823983 2.227976 1.623604 -3.387092 0.759184 -0.328150 41.432596 3.374470 -2.557817 0.358022 0.097010 -0.265029 1.727830 -7.229128 -6.565736 21.694620 10.649040 -0.559798 -9.816831 -18.565653 -17.577983 5.868781 -45.684473 -8.886570 6.844453 -2.131832 -18.396645 2.357792 7.524780 -12.462901 7.047956 8.906105 17.532483 7.294177 32.108031 -0.410350 -3.809798 2.373294 16.651659 8.018824 -2.643568 10.556011 6.435533 
-37.850033 120.890579 -18.175873 -11.175087 52.622784 4.992871 2.142903 0.089423 -38.047506 -12.224378 13.961164 55.294055 10.834942 14.507156 -17.545333 1.208791 -0.875473 -0.338040 -1.327327 5.601976 -40.586941 5.924566 -9.032216 105.461066 -0.893204 -1.340499 4.294095 2.585860 1.803978 -3.920386 0.312158 -2.319629 39.412918 4.953260 -3.428496 1.208323 -0.156110 -1.511922 1.770907 -7.241176 -5.583204 22.255486 8.832359 1.956105 -8.911663 -19.283076 -15.536059 6.849294 -43.238940 -8.328841 4.043565 -1.590118 -14.510687 -2.282878 8.665211 -12.188288 6.318598 9.822963 12.909979 7.787122 28.925600 -4.885090 -6.177913 0.588447 13.096783 2.109075 -3.132763 10.501649 5.150956 
-37.005566 120.906113 -18.220655 -11.259688 53.369275 0.169024 1.307351 0.761230 -34.515993 -13.727813 14.830528 59.026644 11.624917 15.141310 -19.630424 0.955555 -0.563778 -0.399215 -2.975639 7.148782 -43.665975 6.498120 -9.414846 111.757096 -2.586500 -1.355085 6.088043 3.031263 1.764942 -4.235798 0.039228 -4.540118 37.116869 6.287475 -4.712464 2.440262 -0.522220 -2.355149 1.712964 -8.466967 -2.958397 22.819511 6.344483 5.706586 -7.370318 -19.605951 -13.785067 7.039224 -39.941217 -9.057043 0.965871 -0.965064 -11.396211 -7.915685 10.940628 -12.549709 5.058327 10.618774 9.136995 7.351775 24.698198 -5.825232 -8.655878 -1.069426 11.299468 -5.643653 -4.757269 11.260804 2.663740 
