HIERARCHY
ROOT Hips
{
	OFFSET -0.179506 -22.333345 2.821913
	CHANNELS 6 Xposition Yposition Zposition Zrotation Yrotation Xrotation 
	JOINT LeftUpLeg
	{
		OFFSET 6.951974 -9.140623 -0.681533
		CHANNELS 3 Zrotation Yrotation Xrotation
		JOINT LeftLeg
		{
			OFFSET 3.427654 -37.519855 -0.449580
			CHANNELS 3 Zrotation Yrotation Xrotation
			JOINT LeftFoot
			{
				OFFSET -1.359570 -39.796059 -4.369333
				CHANNELS 3 Zrotation Yrotation Xrotation
				JOINT LeftToe
				{
					OFFSET 2.635814 -5.579078 11.928840
					CHANNELS 3 Zrotation Yrotation Xrotation
					End Site
					{
						OFFSET 0.000000 0.000000 0.000000
					}
				}
			}
		}
	}
	JOINT RightUpLeg
	{
		OFFSET -6.767048 -9.052170 -0.431982
		CHANNELS 3 Zrotation Yrotation Xrotation
		JOINT RightLeg
		{
			OFFSET -3.829005 -38.256897 -0.885003
			CHANNELS 3 Zrotation Yrotation Xrotation
			JOINT RightFoot
			{
				OFFSET 1.577377 -39.841461 -4.231180
				CHANNELS 3 Zrotation Yrotation Xrotation
				JOINT RightToe
				{
					OFFSET -2.537174 -4.814398 12.334795
					CHANNELS 3 Zrotation Yrotation Xrotation
					End Site
					{
						OFFSET 0.000000 0.000000 0.000000
					}
				}
			}
		}
	}
	JOINT Spine
	{
		OFFSET -0.253288 10.896323 -2.669631
		CHANNELS 3 Zrotation Yrotation Xrotation
		JOINT Spine1
		{
			OFFSET 0.548704 13.518043 0.109247
			CHANNELS 3 Zrotation Yrotation Xrotation
			JOINT Spine2
			{
				OFFSET 0.145701 5.292222 2.542457
				CHANNELS 3 Zrotation Yrotation Xrotation
				JOINT Neck
				{
					OFFSET -0.277840 21.387037 -4.285703
					CHANNELS 3 Zrotation Yrotation Xrotation
					JOINT Head
					{
						OFFSET 0.515184 6.496960 5.134897
						CHANNELS 3 Zrotation Yrotation Xrotation
						End Site
						{
							OFFSET 0.000000 0.000000 0.000000
						}
					}
				}
				JOINT LeftShoulder
				{
					OFFSET 7.884473 12.174932 -3.408961
					CHANNELS 3 Zrotation Yrotation Xrotation
					JOINT LeftArm
					{
						OFFSET 9.097692 3.046888 -0.886815
						CHANNELS 3 Zrotation Yrotation Xrotation
						JOINT LeftForeArm
						{
							OFFSET 25.961220 -1.277207 -2.745643
							CHANNELS 3 Zrotation Yrotation Xrotation
							JOINT LeftHand
							{
								OFFSET 24.923361 0.898606 -0.117091
								CHANNELS 3 Zrotation Yrotation Xrotation
								End Site
								{
									OFFSET 0.000000 0.000000 0.000000
								}
							}
						}
					}
				}
				JOINT RightShoulder
				{
					OFFSET -8.175920 11.883285 -3.861528
					CHANNELS 3 Zrotation Yrotation Xrotation
					JOINT RightArm
					{
						OFFSET -9.601238 3.255117 -0.914307
						CHANNELS 3 Zrotation Yrotation Xrotation
						JOINT RightForeArm
						{
							OFFSET -25.374195 -1.332924 -2.140099
							CHANNELS 3 Zrotation Yrotation Xrotation
							JOINT RightHand
							{
								OFFSET -25.529810 0.777228 -0.555919
								CHANNELS 3 Zrotation Yrotation Xrotation
								End Site
								{
									OFFSET 0.000000 0.000000 0.000000
								}
							}
						}
					}
				}
			}
		}
	}
}
MOTION
Frames: 140
Frame Time: 0.033333
-0.179506 101.307610 2.821913 117.238968 -51.909053 160.545510 0.992220 -0.384923 0.801876 -0.206008 -4.165889 4.591164 -1.622959 8.418625 19.101914 -1.113822 -0.681371 -0.467531 -10.327597 -6.832882 -14.260821 -0.793676 -9.668419 27.702632 7.779610 -13.907842 26.291732 0.480388 1.118626 -1.232465 1.233451 -3.452176 17.017029 -0.675710 -0.069704 -14.341623 3.393035 -3.399539 12.220742 -2.047731 -5.510221 -7.042579 3.371447 4.799322 -0.468479 -7.828686 4.146288 7.108688 -28.047353 10.639242 23.211182 -113.736625 -66.225392 115.196946 5.121040 -15.236131 -34.347538 3.550478 -4.833680 -0.626741 35.920902 -11.870814 20.332080 149.749278 75.056870 153.558741 2.356655 7.015330 -22.812286 
-0.086531 101.341179 2.699374 117.282192 -52.043116 160.406885 1.062773 -0.327425 0.933109 -0.216587 -4.346098 4.520099 -1.864130 8.462455 19.430771 -1.178948 -0.682722 -0.508580 -10.323802 -6.931005 -14.287465 -0.839253 -9.642126 28.017906 7.984927 -13.890200 26.413913 0.466861 1.105485 -1.247143 1.250178 -3.460864 17.137772 -0.908789 -0.052829 -14.565917 3.479781 -3.417146 12.424697 -2.037751 -5.540221 -7.088030 3.609748 4.990910 -0.360274 -7.707231 3.970192 7.022581 -27.918021 10.695309 23.248794 -113.302372 -66.057383 114.769377 5.287606 -15.033174 -34.647145 3.151869 -4.671515 -0.629204 36.024065 -11.911454 20.529129 147.072609 74.895897 151.162430 2.509843 6.984314 -22.228758 
-0.056255 101.372803 2.629176 117.500975 -52.533523 160.233239 1.099448 -0.309227 1.060496 -0.182671 -4.724264 4.101472 -2.102742 8.499983 19.517236 -1.197284 -0.678088 -0.512746 -10.256186 -7.031127 -14.453138 -0.856456 -9.515759 28.245036 8.274320 -13.870766 26.523077 0.496594 1.127377 -1.195232 1.207416 -3.509195 17.307760 -1.126523 -0.045316 -14.820055 3.553869 -3.419451 12.610949 -2.192840 -5.546070 -7.251836 3.755768 5.041983 -0.398552 -7.497141 3.815879 6.900080 -27.992122 10.662114 23.151807 -113.177334 -65.903467 114.781893 5.271939 -15.096352 -34.715866 2.858362 -4.662917 -0.493066 36.029712 -12.148449 20.639788 145.120140 74.709862 149.584486 2.515106 7.085685 -21.635041 
0.014290 101.398483 2.581980 117.802777 -53.162014 159.977046 1.073968 -0.361447 1.031111 -0.100133 -4.989851 3.979998 -2.321530 8.439475 19.523439 -1.207722 -0.706164 -0.555983 -10.199017 -7.119125 -14.642385 -0.891508 -9.515593 28.327418 8.630730 -13.956355 26.685328 0.415631 1.165240 -1.186115 1.109656 -3.487067 17.502173 -1.221254 -0.060707 -14.897718 3.599094 -3.433831 12.677403 -2.225807 -5.503961 -7.449659 3.894496 5.199424 -0.388990 -7.500693 3.642417 6.732232 -27.874613 10.560071 23.067054 -113.203790 -65.702414 114.812689 4.926264 -15.145272 -34.666861 2.856240 -4.743289 -0.358079 35.902368 -12.411499 20.745417 143.892092 74.665595 148.406837 2.813809 7.061974 -21.270736 
0.126007 101.415672 2.672788 117.701079 -53.608788 160.173699 0.995240 -0.307669 1.005267 -0.192092 -5.193239 3.580496 -2.673132 8.384926 19.717540 -1.232053 -0.721039 -0.564544 -10.091763 -7.210502 -14.867998 -0.934627 -9.481756 27.953000 8.915902 -14.003426 26.897376 0.451306 1.185097 -1.126273 1.052519 -3.554946 17.792561 -1.429400 -0.030818 -14.982825 3.642609 -3.395250 12.668055 -2.442910 -5.409916 -7.472283 4.029669 5.492116 -0.468971 -7.471361 3.379831 6.756720 -28.152576 10.570595 22.850462 -112.356323 -65.757171 114.294913 3.921995 -15.254926 -33.782295 2.582366 -4.549380 -0.087236 36.071503 -12.684790 20.626912 142.559303 74.654281 147.297048 3.898831 6.950637 -20.966812 
0.214099 101.424232 3.122314 118.148894 -54.687445 159.837245 0.912436 -0.311323 0.625577 -0.301648 -5.274444 3.776437 -3.042580 8.229412 19.641000 -1.208319 -0.762988 -0.615525 -9.869024 -7.282881 -15.003675 -0.969725 -9.517218 27.540817 9.182778 -13.987900 27.168137 0.431279 1.220869 -1.125860 0.977369 -3.551993 18.185765 -1.595456 -0.115369 -14.891588 3.644666 -3.330603 12.647858 -2.724182 -5.125110 -7.444768 4.018234 5.772006 -0.595666 -7.470305 2.823488 6.610269 -28.611975 10.279574 22.545347 -111.969613 -65.809425 114.368888 3.480971 -15.313064 -32.604006 2.413152 -4.487919 0.180195 36.124066 -12.959462 20.343543 140.760098 75.222498 145.973266 4.250215 6.781019 -19.952808 
0.444150 101.416023 3.916070 118.429907 -56.094144 159.500317 0.747359 -0.371486 -0.000081 -0.582938 -5.329525 4.285503 -3.213458 8.118521 19.753175 -1.213511 -0.765605 -0.590080 -9.596451 -7.222864 -15.163091 -0.972523 -9.259634 26.684728 9.433770 -14.053210 27.471727 0.462481 1.271437 -1.173031 0.839798 -3.488321 18.834088 -1.668262 -0.219794 -14.752501 3.555906 -3.259148 12.583172 -3.205536 -4.864821 -7.617020 4.002048 6.201341 -0.902016 -7.791967 2.079396 6.381441 -28.887206 10.047846 22.191350 -110.330164 -66.013781 113.146197 3.285062 -15.220486 -31.494800 2.549672 -4.256957 0.423926 35.652300 -13.002632 20.105451 138.392698 75.998439 144.038696 4.220392 6.664248 -18.161731 
0.634301 101.404709 4.752472 118.739063 -57.680913 158.956353 0.607727 -0.564595 -0.474882 -0.804903 -5.533613 4.751983 -3.057412 8.033436 19.706306 -1.209217 -0.810876 -0.578163 -9.188829 -6.947713 -15.296308 -0.991072 -8.865196 26.008451 9.538117 -13.900464 28.018544 0.513672 1.281421 -1.213644 0.640937 -3.450463 19.546744 -1.677418 -0.234524 -14.364775 3.460852 -3.171103 12.325515 -3.755224 -4.741848 -7.452744 3.929509 6.456402 -1.367229 -8.289317 1.492419 6.426749 -28.864323 9.867048 21.782512 -108.524341 -66.640338 111.663011 2.558393 -15.552209 -29.796251 2.914855 -4.004173 0.904992 34.992201 -13.111093 19.643115 137.435664 76.649669 143.514248 4.873230 6.714061 -16.123297 
0.596858 101.382439 4.955682 118.676696 -58.801501 159.081113 0.608228 -0.528458 -0.964907 -0.843140 -5.455558 4.895797 -2.805947 7.928159 19.297733 -1.195796 -0.884153 -0.575877 -8.659003 -6.961676 -15.653397 -1.096451 -9.139794 25.266264 9.303470 -13.870184 28.293078 0.678456 1.233827 -1.304221 0.489274 -3.383626 20.270484 -1.667212 -0.273586 -13.838497 3.359138 -3.043705 11.956644 -4.437893 -4.346165 -6.897796 3.833455 6.954411 -1.631650 -8.589270 0.887677 6.692468 -28.782429 9.700689 21.473652 -104.984688 -67.539498 108.783717 1.529334 -15.368067 -27.488188 3.211676 -3.676315 1.519643 35.136983 -13.387494 19.165846 139.798272 77.209937 146.463862 6.021172 6.338030 -14.162745 
0.553312 101.341858 5.188467 118.811953 -60.035894 159.487755 0.541900 -0.515730 -1.927671 -0.740006 -5.255488 5.114334 -2.792820 7.635634 18.783278 -1.216072 -0.855613 -0.465883 -8.222174 -6.981514 -15.883131 -1.048420 -9.429379 23.704219 9.219955 -14.111899 28.399213 0.754037 1.189526 -1.309322 0.269501 -3.187570 21.191272 -1.666033 -0.478664 -13.502405 3.341140 -2.975128 11.804744 -5.231410 -4.216001 -6.887822 3.610083 7.139595 -2.192493 -8.729469 0.119719 6.498955 -29.198127 9.383064 20.816328 -99.388629 -68.264495 103.846765 0.223033 -15.572483 -25.159223 3.472122 -3.201128 1.833590 35.300117 -13.501977 18.586935 139.314498 78.415136 146.224700 7.364618 6.111427 -12.414667 
0.510623 101.267632 5.430130 119.129711 -61.988420 158.957582 0.365022 -0.642028 -2.816603 -0.898702 -5.023907 6.113656 -2.754342 7.250203 18.234284 -1.151549 -0.904815 -0.517341 -7.632893 -6.727746 -16.321092 -1.210115 -9.422276 22.533140 9.163002 -13.899387 28.586953 0.674653 1.185241 -1.350031 -0.033001 -3.068640 22.415853 -1.561542 -0.514617 -12.586414 3.177854 -2.828810 11.087960 -5.864302 -3.828560 -6.327153 3.303647 7.638590 -2.991066 -9.335488 -1.063901 6.392063 -29.695751 8.634968 19.991086 -92.031884 -69.347253 97.334666 -0.609034 -15.736924 -22.107705 4.023854 -2.424965 2.548906 35.578232 -13.242412 17.668450 135.505133 80.957033 142.359067 7.914501 5.837633 -10.501395 
0.461632 101.162521 5.674962 118.250311 -63.889606 159.757733 0.151779 -0.577225 -4.189557 -1.361957 -4.581223 7.152003 -2.604028 6.964359 17.587828 -1.123489 -0.979765 -0.525602 -6.893504 -6.435829 -16.995555 -1.350360 -9.659630 21.174347 8.672355 -13.654469 28.360647 0.651591 1.191773 -1.491834 -0.302650 -2.985201 24.106403 -1.268685 -0.637440 -11.291970 3.033538 -2.729235 9.990745 -6.884646 -3.535421 -5.426188 2.907240 8.384384 -3.841438 -10.297619 -2.646648 6.253450 -30.446972 7.674583 19.042368 -81.713139 -70.212065 88.132817 -1.425378 -15.366168 -17.912953 4.791712 -1.391995 3.122020 35.785140 -12.770910 16.542656 127.918215 84.569862 134.944707 8.745697 4.979485 -7.584710 
0.397936 101.018860 5.925909 117.839953 -65.956383 160.274280 -0.001114 -0.687013 -6.018940 -1.507478 -4.231282 8.622875 -2.252512 6.616380 16.648440 -1.114067 -1.041466 -0.533229 -6.034549 -5.923445 -17.778113 -1.559249 -9.442754 19.239117 8.620064 -13.314286 28.096824 0.479276 1.187136 -1.615377 -0.625392 -2.858796 25.931042 -0.825082 -0.844883 -10.027495 2.822256 -2.747096 8.957381 -7.759460 -3.152293 -5.011443 2.546895 8.782210 -4.881885 -11.284141 -4.355967 6.150932 -31.480849 6.432067 17.909988 -68.453339 -70.030150 75.487732 -2.127868 -15.011904 -14.278997 5.578568 0.110902 3.536243 36.018527 -11.793101 15.053795 53.168884 86.956775 59.843942 8.781945 4.750196 -5.270003 
0.314030 100.821358 6.154195 117.667463 -67.877745 160.536582 -0.126176 -0.749065 -7.694208 -1.523809 -3.847018 9.837553 -1.933991 6.009603 15.340341 -1.136988 -1.106151 -0.615705 -5.253423 -5.298318 -18.848156 -1.834670 -9.326560 17.069047 8.402202 -12.822018 27.316677 0.401348 1.043470 -1.726830 -1.122155 -2.729492 28.230659 -0.108160 -1.035325 -8.190425 2.620762 -2.815199 7.441886 -8.712460 -2.378329 -4.522629 2.123147 9.675559 -6.372961 -12.409610 -6.358565 5.935751 -32.306708 5.152902 16.438316 -54.330722 -69.068267 61.804914 -3.193489 -14.572404 -10.868625 6.473182 2.031518 3.820553 36.595270 -10.316005 13.167392 0.336607 81.621751 6.274368 9.201147 4.691742 -3.775449 
0.188522 100.599091 6.340728 115.912886 -68.670428 162.324480 -0.161833 -1.111920 -10.147198 -2.093772 -3.314763 12.661006 -1.265161 5.802166 14.107509 -1.218743 -1.158144 -0.488102 -4.620641 -4.628928 -19.585867 -1.944310 -9.255862 15.391133 8.384307 -11.907600 26.364318 0.610483 0.821694 -1.924439 -1.603906 -2.278864 30.627048 0.554810 -1.411880 -5.901873 2.287895 -2.590712 5.548289 -9.845366 -1.611673 -3.263215 1.669716 10.072151 -8.276074 -13.882632 -8.932880 5.859622 -32.704363 3.155796 14.928654 -39.064907 -66.915381 46.726233 -4.324803 -13.523539 -6.994869 7.920932 4.382874 4.247422 36.325489 -8.483054 11.070454 -9.112282 74.821259 -4.614978 9.753087 4.400370 -2.913390 
0.011608 100.380936 6.510566 115.482765 -70.209654 163.519289 -0.166826 -1.589075 -12.490647 -2.180173 -2.893855 14.187625 -0.908252 5.527158 12.334785 -1.255918 -1.211923 -0.518842 -4.170253 -3.975314 -20.987913 -1.927461 -9.229486 14.374432 8.725495 -10.836569 25.529345 0.451179 0.781194 -2.071347 -1.874667 -1.936706 33.191950 1.390115 -1.757154 -3.431034 2.055926 -2.443586 3.542563 -10.896134 -1.034572 -2.221412 1.189710 10.305871 -10.219101 -14.964491 -11.660539 5.731159 -33.270768 0.948751 13.187322 -27.975804 -63.229363 35.734682 -5.596112 -12.303403 -3.746636 9.095121 6.902932 4.828052 36.302922 -6.192201 9.043371 -11.607963 67.073939 -8.376963 9.583839 4.320022 -2.197079 
-0.248412 100.161583 6.644620 114.103933 -71.285368 165.462332 -0.354779 -2.019937 -14.619895 -2.089160 -2.281942 15.539304 -0.313069 5.583711 10.401407 -1.189349 -1.320182 -0.396036 -3.759712 -3.253880 -22.134115 -1.696907 -8.595044 13.085875 8.845449 -9.733949 25.160503 0.437273 0.779714 -2.053999 -2.133266 -1.439527 35.170042 2.124756 -2.080352 -0.388065 1.732959 -2.204556 1.310800 -12.236498 -0.962526 -0.564251 0.796062 10.026024 -12.151699 -16.207713 -14.686600 5.760831 -32.961065 -1.893665 11.508719 -19.586082 -58.436719 26.465714 -5.985370 -10.828974 -1.646925 10.370203 9.680835 5.548906 35.713051 -3.764852 7.324684 -12.597518 60.117646 -11.031785 8.680263 4.076293 -1.868085 
-0.609195 99.983063 6.701887 112.752292 -72.138766 167.787855 -0.299820 -2.651240 -17.391357 -2.131284 -1.747334 17.966033 0.328358 6.048545 8.261313 -1.284192 -1.341290 -0.208436 -3.533006 -2.380716 -23.799456 -1.661277 -8.183037 13.045668 8.741896 -8.670551 24.294686 0.585557 0.780298 -2.228871 -2.351336 -1.021397 37.339360 2.697122 -2.532676 1.684812 1.473724 -1.965250 -0.362930 -13.245136 0.103583 1.030863 0.312298 9.700776 -13.985888 -17.117332 -17.624351 5.813535 -32.300550 -4.777585 9.721844 -13.789353 -52.912324 19.958829 -6.126330 -9.587841 0.629730 11.659006 12.782203 5.980977 35.052451 -0.659934 5.739268 -12.742158 51.881069 -12.539482 7.654349 4.303852 -1.372529 
-1.046183 99.844055 6.708809 110.149266 -73.316352 171.591529 -0.146685 -3.101832 -19.594351 -2.454436 -1.839325 18.829717 0.766979 6.303955 6.403940 -1.191161 -1.350121 0.017701 -3.650267 -1.814427 -25.682484 -1.343758 -7.760638 13.877968 8.243907 -7.676479 23.303461 0.990297 0.785461 -2.285307 -2.405603 -0.795601 39.916806 3.221216 -2.943701 3.655970 1.215416 -1.752524 -1.835401 -14.330802 0.731443 2.221021 -0.079987 9.220848 -16.034819 -17.817467 -20.458144 5.773677 -30.863926 -7.061213 7.699191 -9.716967 -47.647435 15.026838 -7.042080 -7.833482 2.324898 12.585410 15.921246 6.264493 33.928289 2.417080 4.013781 -12.362101 44.843998 -13.607630 7.825056 4.096501 -0.789862 
-1.546976 99.767662 6.660235 108.363844 -73.745112 173.337061 0.322761 -3.239175 -21.220680 -2.452637 -1.591448 20.718646 0.672051 5.749633 4.536130 -1.002251 -1.477573 -0.160800 -3.972487 -1.213054 -27.050840 -1.073597 -7.200945 15.062885 7.729389 -6.517170 22.360652 1.053808 0.837949 -2.270129 -2.115766 -0.586430 42.517461 3.480193 -3.192457 6.079786 0.871319 -1.261241 -3.922218 -14.984960 1.062650 4.145829 -0.517177 8.127279 -17.930141 -18.785591 -23.121385 6.323902 -28.416090 -9.450477 5.575329 -7.618871 -43.448263 12.113220 -6.485148 -6.684382 4.948353 13.887907 19.105809 7.290354 32.430560 5.956647 1.305446 -11.369395 36.207360 -15.122813 5.919327 3.571612 -0.079935 
-2.099272 99.753006 6.595116 106.293560 -75.013522 176.712491 0.974986 -3.943013 -23.741926 -2.537722 -1.807172 23.199357 0.261321 5.079188 3.080936 -0.919468 -1.641167 -0.302909 -4.237573 -0.262147 -29.703388 -0.940548 -6.363586 17.044273 7.291823 -5.182564 21.075714 1.197921 0.835747 -2.349782 -2.059078 -0.795157 45.107538 4.064185 -3.155473 7.725352 0.457873 -1.052922 -5.612697 -15.845692 1.286391 5.239848 -0.715979 6.699604 -19.916315 -18.462789 -25.668901 6.075782 -26.134452 -12.036467 2.947439 -5.147412 -38.167901 8.049601 -5.356563 -5.540814 5.783652 14.136623 22.748326 7.597017 30.075627 10.020566 -1.003335 -9.685892 28.061757 -16.326163 4.314732 3.237788 0.373613 
-2.697567 99.816086 6.487588 103.897028 -75.927525 -179.348700 1.311023 -4.297290 -25.779780 -2.371282 -1.354535 25.471887 0.343658 4.531728 1.526856 -0.671118 -1.707073 -0.387843 -4.342058 0.099247 -32.038656 -0.774911 -6.577181 19.044329 6.693753 -4.511616 20.033208 1.382685 0.850032 -2.425983 -1.856897 -0.864160 47.594422 4.571255 -3.152322 8.626203 0.297818 -0.921602 -6.424804 -16.418478 1.586906 5.680264 -0.952028 5.745130 -21.504222 -17.757208 -28.030589 5.727312 -24.205908 -13.403375 0.741879 -4.637531 -33.639949 6.483923 -5.103071 -4.443956 5.513606 14.254759 25.698215 7.984234 27.218572 13.341770 -3.410375 -7.781174 21.597738 -16.847488 3.774941 3.304101 0.842660 
-3.352587 99.907417 6.366361 102.199895 -77.281380 -176.104003 1.873139 -5.056327 -27.855290 -2.513384 -1.607532 29.211150 1.124655 5.213266 -0.721933 -0.549796 -1.704431 -0.348057 -4.489863 0.935553 -34.975981 -0.420399 -6.349515 21.555528 5.907015 -4.055682 18.741972 1.691073 0.858361 -2.570487 -1.695269 -1.063162 49.494652 4.912787 -3.014012 8.960352 0.376867 -0.694679 -6.841155 -17.123703 1.939459 5.942435 -0.705848 4.862525 -22.358957 -16.732003 -30.179795 5.229889 -21.919913 -14.420766 -0.740302 -4.477154 -30.161863 4.714945 -5.159975 -3.509753 5.463327 13.768253 28.395666 8.203626 24.518081 15.835645 -5.374425 -6.013815 17.201944 -16.978723 3.792755 3.189421 1.708177 
-4.084645 100.030426 6.242858 98.365994 -78.199311 -170.622702 2.508373 -5.677624 -30.127664 -3.361534 -1.703763 34.724834 1.707568 5.358978 -2.721428 -0.499377 -1.731498 -0.426300 -4.945664 1.698418 -37.996579 -0.107034 -6.370734 25.012703 5.081103 -3.662368 17.674623 1.909381 0.708465 -2.665934 -1.660068 -1.320203 51.285501 5.254503 -3.009849 8.988673 0.302210 -0.569796 -6.952898 -17.362586 2.048058 5.668980 -0.285313 4.252094 -23.247015 -15.626300 -32.015758 4.785934 -20.069673 -14.927301 -1.942458 -4.498850 -27.852423 3.193782 -4.656282 -2.437660 5.846685 12.834085 30.662558 8.107350 22.049295 17.550343 -7.309740 -5.158576 14.365207 -17.947983 3.421739 3.154060 1.950461 
-4.872060 100.144470 6.152405 94.039801 -79.671879 -164.520402 3.406241 -6.270474 -32.606908 -4.113750 -1.704765 40.480938 2.609018 6.115013 -5.104615 -0.435281 -1.748901 -0.558441 -5.474713 2.341504 -41.692346 0.193876 -6.496480 29.032720 4.179203 -3.581879 16.962431 2.101719 0.640133 -2.698972 -1.412067 -1.776411 53.129054 5.506656 -2.823046 8.670567 0.455211 -0.472536 -7.025116 -17.664039 2.327878 5.641939 -0.140296 3.702698 -23.644137 -14.171981 -33.406087 3.920108 -18.255224 -15.466129 -3.292594 -4.003731 -25.322334 1.359519 -5.499233 -1.556232 5.736137 11.563638 32.864149 7.724143 19.476378 19.513276 -9.094500 -4.546722 12.297732 -18.075236 3.885320 2.838233 2.522068 
-5.718544 100.262840 6.095162 89.110247 -81.715555 -157.178878 4.414019 -7.000122 -35.978166 -5.086438 -0.668473 49.307212 3.294281 7.118299 -7.907767 -0.389360 -1.787131 -0.586538 -5.810804 2.742005 -46.293659 0.527969 -7.692793 33.756672 3.595792 -3.343202 16.403939 2.014027 0.635420 -2.598553 -1.364631 -1.978240 54.480753 5.865160 -2.714489 8.075040 0.458460 -0.389907 -6.609649 -17.360607 2.714414 5.782834 0.305165 3.061424 -24.215561 -12.376608 -34.384214 2.728817 -16.712208 -16.314053 -4.524334 -3.411761 -23.129453 -0.053597 -2.925992 -1.958796 5.319785 10.068103 34.200250 6.871589 16.982472 21.333267 -10.902017 -4.225423 11.249722 -17.820264 1.087163 3.624764 2.380011 
-6.634908 100.336296 6.067590 82.111454 -82.932384 -147.697347 5.636937 -8.283127 -39.460800 -5.783586 -0.444133 57.722928 3.934536 7.924563 -9.170978 -0.586543 -1.757661 -0.504605 -6.466689 3.456809 -50.680999 0.760066 -9.199756 37.182923 3.099621 -3.175965 15.622022 2.310836 0.516891 -2.636300 -1.546109 -2.400689 56.120696 6.019683 -2.207899 6.312695 0.672569 -0.279058 -6.288321 -17.906131 3.116236 5.303156 0.462359 3.117583 -24.650710 -9.680340 -35.322963 1.293846 -15.252912 -16.669606 -5.235003 -3.479389 -21.688119 -1.113376 -2.715954 -2.021711 4.458267 7.724150 35.554247 5.705942 15.434084 23.129413 -11.685176 -4.330432 11.470661 -17.888021 0.609701 3.472165 1.214954 
-7.618207 100.354584 6.091769 72.281391 -84.430010 -135.733272 6.248440 -8.760606 -41.570605 -6.482148 -0.180592 65.128848 4.223211 8.329377 -11.934277 -0.721919 -1.626962 -0.280168 -7.130059 3.846864 -54.480570 1.155598 -9.456581 38.979327 2.818400 -3.150129 13.994391 2.587690 0.318401 -2.644801 -1.682604 -2.821710 57.032323 6.194764 -1.689559 5.274768 1.038567 -0.342721 -5.854842 -18.244092 2.874264 4.603649 0.789616 3.503198 -26.014452 -7.371504 -35.690906 -0.320879 -14.248728 -16.903831 -5.977815 -3.090550 -21.857934 -3.556476 -2.826905 -1.516859 2.752593 5.481818 36.460714 4.516542 14.224492 24.731169 -12.194799 -4.288638 12.616149 -17.151501 0.427604 2.736064 1.249541 
-8.709211 100.320526 6.113637 57.860177 -85.879910 -117.560384 7.421988 -9.516346 -44.980335 -8.032352 1.093502 80.718313 4.413765 8.186289 -14.195954 -0.823603 -1.682513 -0.436740 -7.964581 3.868999 -60.471699 1.599036 -10.551663 42.738720 2.249615 -3.378221 11.740205 2.575219 0.269604 -2.308221 -1.827460 -3.326176 57.125354 6.378997 -0.864227 3.286065 1.191881 -0.352374 -4.699914 -17.990699 2.605781 2.997579 1.275874 2.664881 -26.253653 -2.881349 -35.581408 -3.133748 -14.246900 -17.650481 -7.620377 -2.173327 -21.681162 -6.160891 -1.178406 -0.644728 1.199712 1.402431 37.180629 1.789728 14.156143 26.717885 -13.193979 -4.563691 12.780852 -18.420937 -0.321182 1.489120 -0.108185 
-10.207304 100.295349 6.207151 22.475068 -86.708039 -78.219764 9.137677 -9.258734 -48.925397 -8.509694 4.089087 95.484768 4.322184 7.732236 -15.576346 -1.003420 -1.422699 -0.228890 -9.113193 3.198751 -67.437173 1.767416 -12.630693 49.056329 1.686539 -3.463360 9.568996 2.461391 -0.004080 -1.986395 -1.783928 -3.926491 57.428927 6.631502 -0.174625 1.885863 1.476193 -0.376173 -3.923374 -17.124283 2.527899 1.718910 1.426461 2.269331 -26.723488 0.967412 -34.440207 -5.876374 -13.371146 -19.016070 -8.830390 -1.108925 -21.537846 -7.837212 0.727923 -0.348302 -0.810301 -1.827280 36.572278 -0.417581 12.209359 29.026037 -14.243835 -4.380362 13.901239 -17.357546 -1.494203 0.584995 -1.644281 
-12.076674 100.274223 6.355766 -3.970650 -85.934473 -47.664046 9.341731 -8.881178 -49.307327 -10.129407 5.684187 106.051346 4.387797 7.429292 -18.338292 -0.709738 -1.266373 -0.271669 -9.590233 2.451759 -72.382998 2.278393 -13.785758 53.221111 0.781677 -3.582263 5.387335 2.327940 -0.065804 -1.735955 -1.574424 -4.706880 58.182268 6.586863 0.612503 0.540236 1.833327 -0.285235 -3.293068 -16.744913 2.596287 0.262330 1.459343 2.575524 -26.772771 4.845013 -33.822524 -8.563661 -12.315678 -20.187668 -10.477023 0.116033 -21.060765 -9.371968 2.107668 0.382085 -3.097021 -4.403698 36.683471 -2.113698 9.430539 30.214888 -16.262827 -3.506793 14.976773 -15.035809 -2.379019 -0.043381 -2.308046 
-12.234531 100.075241 6.523107 -18.213024 -84.376823 -30.112726 10.193550 -9.017305 -51.852060 -10.025602 6.544415 114.135362 4.233809 6.506322 -20.054452 -0.685439 -1.098702 -0.130273 -10.875381 1.274328 -78.026410 0.831790 -16.573085 59.727534 0.357569 -3.837343 4.843283 2.277480 -0.061465 -1.526277 -1.655188 -5.134790 59.042812 6.905070 1.229084 -1.246156 1.911678 -0.408646 -2.908302 -15.755846 2.397162 -0.826800 1.553229 1.194318 -26.519879 8.738937 -32.999146 -11.286381 -11.148372 -21.936635 -12.625694 1.145588 -19.790191 -11.178554 3.047132 1.500799 -5.135535 -7.137750 36.344527 -4.300413 7.106274 31.545155 -18.359564 -3.179780 13.809289 -15.368058 -4.000304 -0.590657 -3.754288 
-12.424280 99.721375 6.646124 -38.904077 -83.673609 -7.050284 9.899146 -9.253623 -49.591446 -10.854151 6.498647 117.778395 5.604872 8.982213 -23.045465 -0.710139 -1.066457 -0.077239 -11.453074 1.472236 -80.839356 0.704661 -17.392024 61.981424 0.251275 -4.206040 3.654778 2.036592 0.129210 -1.618289 -1.671980 -5.542330 59.758503 6.870364 2.116081 -1.708299 2.246786 -0.032884 -3.055348 -15.256014 1.582554 -1.324969 2.531096 1.104364 -27.726623 12.042897 -32.354405 -13.387224 -9.072991 -22.547243 -14.361208 1.560649 -19.970033 -13.607805 2.092161 2.287711 -6.695753 -9.820917 36.963757 -5.576878 3.586007 32.146579 -20.922948 -2.591297 13.853393 -14.556949 -2.984923 -1.358960 -2.817653 
-12.656085 99.237946 6.727652 -42.395072 -81.944862 -0.508307 10.670355 -8.728951 -50.955109 -11.278401 7.507125 121.780000 6.023355 8.101671 -25.433472 -0.695145 -0.894833 -0.065674 -11.968256 0.244020 -83.957220 0.546721 -18.387156 64.316879 0.142695 -3.550016 2.130623 2.100926 -0.101234 -1.371586 -1.709598 -5.997819 59.809736 7.124985 2.559696 -2.596022 2.439855 -0.076723 -3.443541 -14.508843 0.789400 -2.104849 3.520566 1.030086 -27.116038 13.857153 -31.814626 -14.637582 -6.832365 -22.975809 -15.601046 1.962935 -20.235247 -14.872029 2.639414 2.134631 -7.257428 -11.467817 36.936421 -6.344776 -0.441939 31.831714 -23.126653 -1.337817 13.752075 -13.674641 -2.417586 -1.196204 -2.655393 
-12.759100 98.585037 6.769631 -45.043749 -80.923376 3.523074 11.288113 -8.769974 -53.314166 -11.488554 8.857036 126.938879 5.124848 7.700871 -24.716676 -0.362255 -0.940961 -0.148067 -12.572768 -0.538787 -86.829651 -0.253089 -19.927402 68.591346 -0.158045 -3.549794 0.905019 2.258857 -0.147395 -1.421419 -1.734854 -6.153855 60.393941 7.254138 2.970005 -4.367755 2.326275 -0.117829 -2.694983 -13.474599 0.912866 -2.669320 3.501631 0.232145 -25.810166 16.408092 -31.320229 -16.249090 -4.709328 -23.442738 -17.709925 2.301025 -18.853074 -17.207087 3.196515 1.828191 -8.944386 -13.218184 36.825540 -8.127396 -2.009366 33.151706 -24.578207 -1.248091 12.234852 -14.657758 -3.751223 -1.531509 -4.093965 
-12.742965 97.900383 6.771343 -41.100662 -81.086452 1.023019 12.192684 -9.021925 -55.787263 -11.093859 9.543470 128.595293 5.101982 6.582278 -24.016107 -0.425403 -1.098772 -0.372283 -12.662048 -0.811177 -88.538797 -0.814435 -20.919803 70.066198 -0.638668 -3.821185 0.337390 2.174277 -0.200048 -1.458914 -1.833879 -5.730030 61.250028 7.494558 3.002263 -4.948996 2.252955 -0.175580 -3.366117 -13.225724 0.730587 -3.372226 3.685898 -0.362024 -26.089335 18.036366 -32.153190 -16.997142 -1.465570 -22.259369 -19.439379 2.330727 -19.153028 -17.961906 4.495647 2.642797 -11.048219 -14.050580 37.277806 -8.062099 -5.324356 32.149044 -26.736054 -0.852070 11.813668 -14.859943 -4.052700 -2.977937 -5.712180 
-12.485931 97.231796 6.783844 -43.446977 -80.620867 4.616000 13.263413 -8.973839 -58.560716 -11.404829 10.504094 131.637181 5.078297 6.985285 -24.533051 -0.337467 -1.073580 -0.407313 -12.855207 -1.304738 -90.126815 -1.014890 -21.782786 71.459525 -0.869595 -4.370192 0.163946 2.203090 -0.260208 -1.589911 -1.960652 -5.472057 62.107863 7.664012 2.955684 -5.200090 2.232498 -0.170995 -3.736552 -12.884312 0.616336 -3.749964 4.199544 -0.246601 -25.729266 19.798370 -32.502617 -18.108943 1.083413 -21.421110 -20.738060 2.068228 -18.419649 -19.340690 3.708534 2.605978 -12.290079 -15.135888 37.931941 -8.519051 -8.042099 31.058461 -28.190335 -0.599213 11.620209 -15.674959 -3.623040 -2.632821 -6.747079 
-12.080071 96.684471 6.780700 -48.504334 -80.349841 10.896195 13.552520 -8.914616 -58.762553 -11.689653 10.489818 133.008214 6.192053 9.004235 -28.163447 -0.241806 -1.052374 -0.292207 -12.741105 -1.316297 -92.226687 -2.263240 -22.398697 74.030889 -1.319775 -4.880234 0.356516 2.282916 0.086817 -1.835989 -1.759421 -5.465758 62.537226 7.331959 3.387357 -5.228562 2.417291 0.197438 -3.631174 -12.778550 0.278502 -3.910039 4.824519 -0.845986 -26.122549 21.294444 -32.025021 -19.195256 2.832374 -21.544350 -22.057862 3.088923 -18.194373 -21.223400 3.522176 2.007404 -13.180132 -16.572449 38.656099 -9.284350 -9.985518 30.007871 -29.619631 -0.817069 10.873747 -16.745561 -3.987660 -2.164288 -6.786599 
-11.543460 96.271233 6.834515 -49.640337 -79.731851 12.806768 14.259470 -8.631053 -60.483761 -12.036523 11.039048 133.741915 6.177859 9.266453 -28.750214 -0.402677 -0.843185 -0.208439 -12.835037 -1.560828 -92.999638 -1.788851 -22.246419 74.272651 -1.085272 -5.543119 -0.500369 2.067833 -0.045494 -1.934325 -1.848612 -5.411653 63.094403 7.331406 3.143524 -5.875767 2.579074 0.116153 -3.639149 -12.723859 -0.150408 -4.177380 5.374860 -0.919696 -26.084558 22.128567 -32.232616 -19.889133 5.081669 -20.629175 -22.968282 3.550943 -18.018141 -23.138926 4.349531 2.380330 -13.171455 -17.724655 39.027160 -9.986870 -12.088339 29.273052 -30.739124 -0.576728 11.132432 -17.037093 -3.739592 -2.393084 -7.096232 
-11.416059 95.960953 6.298419 -46.606530 -79.412670 10.620425 14.629072 -8.529030 -62.527315 -12.238554 11.335422 134.691964 5.438063 9.227846 -28.554759 -0.149619 -0.896214 -0.182173 -12.932621 -2.231237 -94.475762 -2.307588 -22.760612 76.503980 -1.149930 -5.465037 -1.638145 2.308905 0.026531 -2.155758 -1.879006 -5.656634 63.463448 7.265570 3.534463 -7.088888 2.243676 0.057231 -3.091572 -12.276152 -0.249294 -4.905687 5.437100 -1.380126 -25.145575 23.824024 -31.955178 -21.194699 6.018422 -20.617874 -24.205870 4.310688 -17.259179 -25.301660 4.518396 3.061457 -13.928166 -19.386691 38.861314 -11.552025 -13.251373 29.180669 -31.578573 -0.510656 10.281964 -18.121598 -3.720546 -3.227441 -7.483627 
-11.757463 95.790138 6.308746 -46.361480 -78.883815 11.766689 14.843014 -8.416873 -63.203928 -12.155702 11.140817 135.014415 5.812814 9.972468 -30.934140 -0.246341 -0.785806 -0.112202 -12.956493 -2.464109 -95.493509 -2.666554 -22.836380 77.547148 -1.464182 -5.816567 -3.783479 2.377018 0.016423 -2.270013 -1.862867 -5.668957 63.843686 7.229104 3.628374 -7.455642 2.319787 0.092725 -2.988612 -11.930684 -0.415104 -4.896964 5.888896 -1.416059 -24.583457 24.903042 -31.833907 -22.116658 6.706664 -20.629770 -25.011995 5.361309 -17.034775 -26.742467 5.096400 3.245971 -14.089198 -20.324085 38.980618 -12.155569 -14.463832 28.511530 -32.393988 -0.450665 9.742177 -18.900658 -4.050012 -3.129793 -7.460137 
-12.879261 95.740105 5.913155 -45.628309 -78.645260 11.390595 14.791014 -8.143161 -61.976878 -12.804411 10.822136 135.564588 6.203914 10.639514 -32.417319 -0.195460 -0.787469 -0.029426 -13.123458 -2.230329 -95.791601 -2.606644 -22.738801 79.336665 -2.209411 -5.986752 -6.066394 2.476172 0.000453 -2.301250 -2.105143 -5.810843 64.510776 7.135891 3.794305 -7.515728 2.428119 0.101226 -2.984263 -11.552366 -0.406548 -4.683926 6.504626 -2.124164 -23.542976 25.219692 -31.263097 -22.294104 7.525443 -20.857030 -25.835754 5.549690 -16.540359 -28.100987 7.160296 3.035340 -13.325425 -21.370752 38.836628 -13.021063 -14.595623 28.687342 -32.571012 -0.296833 9.732798 -18.525484 -6.341749 -2.312946 -6.929946 
-13.683285 95.869484 6.288001 -43.816000 -78.236573 9.972143 14.112777 -8.147339 -61.622105 -12.490267 10.872426 136.291142 5.511510 11.000921 -33.029232 0.089982 -0.836415 -0.035527 -13.281971 -1.961744 -95.630623 -3.570579 -22.273687 81.213703 -2.503483 -6.274953 -8.375124 2.563593 0.064676 -2.285203 -1.991337 -5.899614 64.812372 7.028062 3.906201 -7.576082 2.466313 0.228724 -2.559981 -11.421793 0.061079 -3.825892 6.263823 -1.791204 -23.262236 26.231626 -31.103425 -23.391944 7.158782 -21.775920 -26.094991 6.167451 -16.080241 -28.033481 6.846881 2.949879 -14.182284 -21.497713 39.039452 -13.477854 -15.032044 28.654784 -33.205952 -0.756180 8.500249 -20.005244 -6.615314 -1.714273 -7.751307 
-14.239006 96.184700 5.895856 -40.485212 -78.628721 7.264453 13.686558 -7.666945 -60.036016 -12.810086 10.682303 135.297669 6.010993 11.918395 -34.781855 0.035959 -0.780058 0.006925 -13.113986 -1.923940 -95.388911 -3.053300 -22.183344 81.827926 -2.839598 -6.376058 -9.425704 2.490920 0.223427 -2.473521 -1.750475 -5.891779 64.876454 6.897747 3.822097 -7.374791 2.607497 0.330835 -2.374029 -11.141584 -0.290403 -3.514690 6.670483 -2.381326 -22.919945 26.211529 -30.953953 -23.446414 7.064688 -21.810836 -26.464624 6.314292 -15.793262 -28.879447 9.583297 2.937581 -14.548019 -22.375264 39.250819 -13.912780 -14.911456 28.839540 -33.547048 -0.913048 8.611193 -20.468521 -9.579029 -1.666636 -7.387847 
-15.065101 96.727661 5.964179 -37.782887 -78.116501 5.553770 13.608984 -7.514998 -59.509045 -11.928064 10.417367 134.882842 5.843626 12.250081 -35.576629 -0.022737 -0.563517 0.157170 -13.129403 -2.147168 -94.937610 -2.948438 -22.212474 82.203088 -3.295844 -6.945078 -10.113249 2.359368 0.302450 -2.598866 -1.306146 -5.746043 64.762585 6.970913 3.586335 -6.950908 2.572782 0.386003 -2.704265 -11.000496 -0.596495 -2.677951 6.763288 -2.579279 -23.033742 26.122174 -31.533926 -23.621364 7.164904 -21.546676 -26.472154 8.070503 -16.845327 -28.923410 10.642928 2.728187 -14.391517 -22.048968 39.604124 -13.595265 -15.501006 27.938210 -34.094388 -1.223729 8.139991 -21.027976 -10.297081 -1.634073 -8.250470 
-16.368567 97.468765 5.739270 -35.665126 -77.987859 4.467177 13.325912 -7.726021 -58.162674 -11.868212 10.069667 134.436348 5.797972 13.057251 -35.645546 -0.355537 -0.305610 0.376097 -13.073688 -2.207239 -94.169894 -1.165415 -22.262832 80.886627 -2.674977 -7.016831 -9.176183 2.206286 0.195911 -2.749721 -1.163314 -5.553349 65.300856 6.696961 3.564077 -7.240943 2.572206 0.556578 -2.269051 -11.068309 -0.289026 -2.284113 6.561277 -2.096847 -22.280137 26.698186 -30.681704 -23.904954 6.574698 -21.410931 -26.650714 10.002453 -18.109971 -29.804190 12.827739 2.670792 -14.140662 -22.732446 39.091188 -13.926401 -15.146187 27.535110 -34.000024 -1.981091 8.523857 -20.498370 -12.311691 -1.123342 -7.344222 
-16.232079 98.388008 5.685875 -28.962789 -77.960248 -0.401685 12.583746 -7.126814 -57.266596 -11.579218 9.697249 131.856412 6.633740 12.808696 -38.585798 -0.066296 -0.506994 0.232089 -12.858788 -2.061089 -92.894089 -1.621531 -21.454382 80.665258 -2.280693 -6.115762 -8.737857 2.471291 0.367765 -2.730215 -1.058978 -5.721164 64.907032 6.671051 3.639197 -6.546966 2.677601 0.683642 -2.724130 -11.266314 -0.411092 -1.335018 6.614118 -2.032770 -22.029111 25.885859 -30.200219 -23.606557 6.537273 -21.949495 -26.934806 10.701615 -18.111735 -30.056644 13.593335 2.116095 -14.071953 -22.903960 38.994451 -13.989447 -15.722924 27.307492 -34.422059 -2.337976 8.870977 -21.029208 -13.128117 -0.379300 -7.638659 
-15.788638 99.598701 6.088059 -27.278926 -78.494003 -1.232434 11.804866 -7.046047 -56.255936 -11.661004 9.507097 130.094223 6.272088 12.475517 -38.504000 0.034159 -0.570241 0.411132 -13.349650 -1.394467 -91.713733 -0.452842 -20.056260 80.288224 -1.543569 -5.885763 -9.161964 2.404030 0.329092 -2.711330 -0.956752 -5.682927 65.454571 6.344741 3.925929 -6.569991 2.881078 1.000252 -2.260033 -11.388207 -0.167695 -0.910733 6.289396 -2.056879 -21.751683 26.504855 -29.082759 -24.211613 5.703740 -23.422943 -27.292080 10.963253 -17.249045 -30.258995 16.170800 1.896547 -13.660110 -23.477729 38.654921 -14.542911 -15.451320 27.527321 -34.409385 -3.088688 8.164914 -20.514724 -15.711158 0.713296 -6.923671 
-15.381357 101.111740 5.961098 -23.697094 -78.290518 -3.838528 11.419034 -7.475792 -55.603371 -11.725132 9.037505 127.601536 6.101707 11.789092 -37.875545 0.072577 -0.609729 0.312171 -13.509103 -1.164639 -90.413755 -0.111882 -19.195867 80.026398 -1.162551 -5.587495 -8.513174 2.472354 0.408678 -2.818009 -0.914762 -5.592450 65.370003 6.203176 3.942004 -6.601746 2.784966 1.056211 -2.032475 -11.633962 -0.655051 -0.324968 6.108403 -2.079780 -21.842937 26.415673 -29.148907 -24.311396 4.860867 -24.107575 -27.236169 11.651606 -17.925756 -30.842670 17.337039 2.410558 -13.266724 -23.289513 38.642362 -14.440600 -14.905889 27.500386 -34.206067 -3.147618 7.787910 -20.576759 -16.520533 0.459968 -6.014803 
-14.578186 102.834251 6.110775 -18.509055 -78.462261 -7.562037 10.868590 -7.818848 -55.891130 -11.394160 9.050272 124.852545 5.837957 10.920174 -36.309354 -0.093448 -0.522230 0.437859 -13.796719 -0.838479 -89.335154 0.091040 -18.057599 80.577025 -0.689644 -5.880432 -7.867311 2.403409 0.337201 -2.870942 -0.811365 -5.319212 65.128083 5.995897 3.898829 -7.010924 2.805023 1.079178 -1.393268 -11.697426 0.000730 0.226648 5.300821 -1.401054 -21.466809 26.737987 -28.756366 -24.664633 3.376177 -25.372248 -26.953295 12.239834 -17.692373 -30.394202 19.332079 2.742380 -13.625240 -23.456432 38.140980 -14.785040 -13.848553 28.459257 -33.823174 -4.437538 6.997604 -21.740722 -18.450247 0.747500 -6.349782 
-13.796437 104.801636 5.611276 -19.388841 -77.895719 -4.730414 10.582230 -8.039459 -54.255642 -11.855903 7.772189 120.409616 6.483455 12.762762 -38.814659 -0.091870 -0.584838 0.447825 -13.697137 -0.867642 -88.032874 0.508950 -17.639836 80.234592 -0.613911 -5.794405 -7.409724 2.444120 0.446675 -2.906824 -0.438894 -5.457497 64.131604 5.928722 4.004792 -6.823648 2.714107 1.179389 -1.237686 -12.139390 0.109781 0.747409 4.652061 -1.922820 -21.236575 26.948800 -28.574918 -24.827502 2.630911 -26.195433 -26.493093 11.825516 -18.286062 -29.459329 20.272580 2.913716 -13.733976 -22.666229 38.337454 -14.144662 -13.699808 28.107354 -33.640433 -3.881272 6.815554 -21.740399 -19.524740 0.987648 -6.709161 
-12.101281 106.973862 5.770853 -14.795986 -77.899119 -5.630243 9.514870 -7.940938 -53.378193 -11.784409 6.668963 114.374046 7.997837 12.687893 -42.366996 0.058344 -0.734150 0.280051 -13.253475 -0.121418 -85.267737 0.521485 -16.698892 80.446922 -0.313574 -5.555219 -8.770536 2.509261 0.502308 -2.918652 -0.268965 -5.297308 62.561117 5.914678 3.925928 -7.203427 2.684753 1.368881 -0.488419 -12.442706 0.531631 0.246923 3.736988 -1.923404 -20.591834 26.962703 -28.430923 -25.127339 2.181257 -27.251988 -26.398309 12.013038 -18.480265 -29.652754 20.584881 3.115248 -14.304224 -21.743812 38.214976 -14.024578 -14.464723 28.150357 -33.751450 -3.850191 6.206181 -23.678259 -18.996989 1.882492 -7.913253 
-12.287959 109.394333 5.742700 -6.088700 -78.550650 -12.222274 8.212155 -7.691123 -50.007379 -12.154732 5.955119 108.440929 8.823366 12.399298 -43.263007 0.266873 -0.934658 0.009064 -12.666426 0.174939 -82.988157 0.810672 -16.401938 81.293827 -0.805571 -5.459324 -9.142205 2.786183 0.749882 -2.975115 0.006642 -4.971880 60.942242 5.764290 4.148249 -6.709704 2.476993 1.788258 -0.424291 -12.822707 1.827219 0.656156 2.707289 -2.461258 -20.120553 25.962067 -28.507111 -24.428799 0.495832 -28.775828 -25.532959 11.165586 -18.585357 -28.493222 22.811665 2.937540 -13.332842 -20.170686 37.988744 -13.045236 -13.919193 28.198266 -33.257570 -3.782596 6.452604 -23.908347 -19.861935 1.726860 -8.637802 
-12.375322 111.870529 5.087120 6.060619 -77.880059 -21.754727 7.329047 -7.613529 -49.660568 -12.165015 5.791302 103.514187 8.584462 9.981148 -39.623569 0.360818 -0.966378 -0.257354 -12.049428 0.217898 -81.471467 -0.857676 -16.121564 85.295601 -1.434471 -7.114304 -9.384697 2.760829 1.003557 -3.088413 0.379599 -4.834220 59.037998 5.408684 4.261302 -7.434207 2.365751 1.658391 0.280691 -12.999347 2.826416 -0.296986 1.256366 -2.406802 -19.425788 24.738528 -29.120621 -23.725318 -1.659805 -29.594075 -24.467988 10.954244 -19.347843 -28.323910 23.033065 3.373669 -13.832772 -19.433539 37.553117 -13.106298 -12.226535 28.817772 -32.345631 -4.307044 6.167059 -27.242586 -18.662527 0.757189 -10.333356 
-11.832191 114.365005 4.570604 12.709168 -77.211424 -25.979819 6.460219 -7.139321 -47.419652 -12.847645 3.923704 95.684413 8.706512 9.073137 -39.671313 0.573351 -1.020596 -0.456416 -11.328255 0.387547 -78.735621 -0.957156 -15.513240 87.326365 -1.850106 -7.091637 -12.083875 2.974679 0.974363 -2.810211 0.739172 -5.055205 57.279626 4.931044 4.200764 -7.597122 2.178825 1.638759 0.433898 -13.302731 3.172067 -1.011803 0.448714 -3.286014 -18.767791 24.021488 -29.539352 -23.530031 -2.890162 -30.777465 -23.640171 10.499526 -19.452583 -27.813071 23.799483 3.451643 -14.193265 -18.371914 37.520113 -12.468948 -11.653161 28.614874 -32.048209 -3.772962 5.807260 -28.652351 -19.863653 1.057787 -11.668329 
-11.428629 116.938660 3.913611 17.708740 -76.676211 -29.246247 5.735057 -7.058275 -44.574594 -13.327352 1.543542 86.654268 8.331217 9.191668 -37.869221 0.571082 -0.970819 -0.701285 -10.431499 0.771428 -75.054405 -0.638201 -14.828747 86.931375 -1.573410 -6.795871 -11.639611 2.873347 1.004705 -2.683613 0.904898 -4.692338 55.120271 4.544748 3.870884 -7.234091 1.954949 1.703158 0.405266 -13.220347 3.455445 -0.380481 0.088510 -3.893900 -18.255046 23.511640 -30.148145 -23.514012 -3.662712 -32.365582 -22.783484 9.214412 -18.906447 -26.433711 24.680475 3.649333 -13.165171 -16.880088 37.278383 -11.276460 -11.153924 28.289425 -31.500396 -3.013232 5.176389 -29.287063 -21.607955 0.788991 -12.284613 
-11.181439 119.410431 3.216351 20.828761 -75.949996 -30.359345 4.976797 -6.698030 -41.563181 -13.603800 -1.488349 76.882550 8.076830 9.933695 -35.762633 0.578424 -0.913251 -0.873621 -9.738198 1.002869 -71.604244 0.547218 -13.948035 87.967924 -1.619867 -6.943469 -12.234884 2.845639 1.076747 -2.710152 1.150606 -4.504097 53.023147 4.211206 3.791880 -6.911869 1.985486 1.867065 0.790335 -13.136964 4.280251 -0.752941 -0.523845 -3.709234 -17.413560 23.221309 -29.992560 -23.816819 -4.754567 -34.042559 -21.700766 8.766290 -18.639507 -24.577010 26.908004 3.461049 -12.714155 -15.780640 36.526395 -11.029293 -10.465359 28.276905 -30.549683 -3.324416 4.809691 -29.429055 -23.618298 1.411873 -13.089250 
-11.049671 121.710358 2.506151 22.946729 -75.113827 -30.827992 4.345569 -6.321390 -38.565456 -13.001533 -4.270624 66.826307 7.033227 10.083441 -32.209480 0.723964 -0.846880 -1.035663 -8.933279 1.108715 -67.344703 0.998674 -13.048114 86.193207 -1.607716 -7.204392 -11.839982 2.864246 1.131490 -2.811825 1.367388 -4.289514 50.565137 3.944988 3.435527 -6.668689 1.910034 1.787900 0.831711 -13.005377 4.647015 -0.645722 -1.131645 -3.675944 -16.638867 22.460048 -30.150954 -23.577661 -5.753097 -35.202388 -20.643940 8.441656 -18.406833 -23.767189 27.919411 2.242232 -11.203652 -14.798839 35.994377 -10.776625 -9.596640 28.394633 -29.488607 -2.814125 4.426007 -29.829913 -24.066203 2.111512 -13.465648 
-10.957416 123.851181 1.779083 24.941764 -75.144040 -31.551192 3.609789 -6.109006 -35.099511 -11.933963 -7.023862 56.551499 5.448288 11.256394 -26.107396 0.831169 -0.796523 -1.220808 -7.900947 1.081746 -62.458405 1.834613 -12.190136 81.337673 -1.385199 -7.241470 -10.404140 2.842674 1.121598 -2.687891 1.576169 -4.112238 47.553772 3.651286 3.038636 -6.126643 1.888232 1.680680 1.069290 -12.839046 5.024959 -0.960830 -1.312526 -3.438755 -15.729690 21.642442 -30.035294 -23.336521 -6.881886 -35.691530 -19.459797 7.455434 -17.371697 -22.294281 28.387425 1.525836 -10.000311 -14.834135 35.421882 -11.074944 -8.223511 29.222979 -28.428305 -2.254539 4.056451 -29.677619 -24.087902 1.936896 -12.937225 
-10.868319 125.791061 1.046298 24.098288 -76.201558 -29.538743 2.887917 -6.165560 -31.020640 -9.621767 -9.668544 45.426918 4.158687 12.370140 -19.578321 0.693132 -0.718119 -1.226069 -6.553815 2.231069 -57.437664 1.858535 -10.703352 73.270667 -0.600223 -7.905924 -8.154665 2.719147 0.885096 -2.278611 1.486413 -4.045857 44.474535 2.977514 2.615160 -5.764581 2.043832 1.551576 1.345886 -12.875015 4.360581 -0.842377 -1.010394 -3.168766 -15.356835 20.056417 -29.971480 -22.745557 -7.697634 -35.733726 -18.264197 6.922845 -16.546888 -21.598032 27.242518 0.867361 -9.038527 -14.148197 35.233341 -10.606257 -6.956602 30.816282 -27.907176 -1.764496 3.413392 -29.963700 -24.190729 1.533267 -11.685119 
-11.780538 127.400894 0.763465 26.105500 -76.323188 -30.559055 1.783482 -5.656765 -27.185285 -7.813009 -11.066382 36.050713 1.810449 10.031405 -13.869106 0.751418 -0.734191 -1.279878 -4.896948 2.679972 -51.577546 2.125759 -8.988052 62.829656 0.046256 -8.120927 -6.505387 2.720859 0.829346 -2.207447 1.437072 -3.444372 41.591620 2.581442 2.076761 -5.343123 2.308666 1.580549 1.534876 -12.699287 3.742606 -0.620150 -0.694275 -2.883626 -14.609070 18.588527 -30.135740 -21.646806 -8.914205 -36.074853 -17.122391 6.464004 -16.539865 -20.624676 26.118382 0.209640 -8.452772 -12.844534 34.969130 -9.707670 -5.769587 31.171897 -26.929513 -1.382775 3.529801 -29.851919 -23.922463 1.795294 -11.098559 
-12.446840 126.618896 0.909705 25.706943 -77.292554 -28.788655 1.038222 -4.787053 -23.962001 -5.663457 -11.428276 27.608540 0.759916 9.112389 -11.954553 0.763985 -0.636021 -1.228399 -3.145127 2.853102 -45.601584 2.611067 -6.973997 51.399220 0.992836 -8.177146 -5.478955 2.550190 0.732149 -2.109379 1.305099 -2.726696 38.599737 2.073876 1.389612 -5.123386 2.673135 1.494458 2.021908 -12.148325 3.719376 -0.838820 -0.359600 -1.822329 -13.834634 17.982020 -29.494370 -21.479817 -9.178830 -36.115217 -16.766598 7.556368 -16.908319 -20.342072 26.355502 -0.506245 -7.643060 -12.445380 34.500356 -9.644160 -5.033260 31.837667 -26.167855 -1.564157 4.226620 -28.807624 -23.684336 2.310100 -9.952718 
-12.836090 125.421997 0.945011 24.541411 -78.499115 -26.284213 0.251310 -3.857187 -20.512930 -3.137013 -11.430998 19.129576 -0.346116 8.513644 -9.233374 0.525771 -0.418015 -1.066225 -1.688507 3.059179 -39.774153 3.035721 -4.555728 39.763103 1.864742 -7.876092 -4.042857 2.504357 0.471198 -1.976650 1.288461 -2.409082 35.991797 1.608085 0.992899 -4.990139 2.919736 1.424048 2.742860 -11.617895 2.979271 -1.237051 -0.447249 -1.452983 -12.395455 17.336526 -28.437741 -21.353967 -8.462562 -36.292977 -17.434396 8.260683 -16.905396 -21.083196 24.734638 -1.327172 -7.747643 -11.915438 34.057880 -9.413388 -5.822460 32.833771 -26.258449 -1.224022 4.879968 -27.781367 -23.213101 4.137091 -8.341833 
-13.260362 125.873795 0.960844 25.616021 -79.010191 -26.597647 -0.565974 -3.607802 -17.905591 -0.900530 -11.391653 12.542454 -1.600229 8.904909 -6.002344 0.482722 -0.326044 -1.048849 -0.329160 3.313826 -35.237278 2.451451 -2.676531 30.780709 2.124963 -8.121457 -2.759209 2.569100 0.337554 -1.831580 1.145479 -1.819667 33.659039 1.125025 0.699300 -4.463407 3.008510 1.504270 2.462918 -11.593005 1.939292 -0.715809 0.237999 -1.235891 -12.146717 16.200350 -28.939914 -20.888154 -8.933995 -37.210592 -17.216862 7.848878 -15.482991 -21.911856 24.328939 -1.226018 -7.952026 -10.185312 34.237012 -8.021946 -6.021234 32.824850 -26.148380 -0.021248 4.430101 -28.034510 -24.149089 4.335285 -8.108480 
-14.097039 124.052277 1.035537 25.123259 -79.221783 -26.330072 -1.096242 -3.304259 -15.796232 0.931521 -10.777062 8.044760 -0.953410 9.087596 -8.199259 0.492176 -0.257698 -1.069493 1.074804 3.448975 -31.102406 1.319180 -1.885337 23.981800 1.720039 -8.511754 -2.901260 2.598099 0.272650 -1.738206 0.938749 -1.361686 31.687794 0.808262 0.449348 -4.118648 3.054182 1.410699 2.164668 -11.285436 0.897654 -0.032361 1.089802 -1.323006 -11.532894 15.523220 -29.294123 -20.602961 -9.092211 -37.224880 -17.184385 8.571778 -15.579642 -22.066460 24.132320 0.251275 -8.387771 -9.128095 34.464843 -6.864517 -6.584751 32.577972 -26.516731 0.438470 3.863145 -28.955922 -24.623347 3.583958 -7.716676 
-14.583157 124.020584 1.267152 26.481551 -79.681547 -27.642997 -1.465042 -3.101398 -14.345921 2.108671 -10.184739 4.359184 -1.743022 8.907375 -6.130391 0.366605 -0.208310 -1.036246 1.915823 3.359316 -28.162369 0.710279 -1.184213 18.829421 1.420934 -8.676770 -2.316170 2.652386 0.212758 -1.741407 0.663681 -0.979647 30.149207 0.680777 0.307747 -3.637023 2.994603 1.419442 1.706277 -10.812198 0.160896 0.285668 1.695231 -1.555304 -10.959140 14.398581 -29.693932 -19.879399 -9.454783 -37.449424 -16.770250 8.329612 -15.231195 -22.336766 23.368005 0.398054 -8.081661 -7.865282 34.737813 -5.653985 -6.788997 32.660783 -26.488513 1.309152 3.217202 -28.773953 -24.429543 3.727616 -6.753632 
-14.751763 121.887253 1.663517 28.802138 -80.463936 -29.429072 -1.556913 -2.995600 -13.935138 2.783487 -9.482860 1.978876 -0.487163 9.020455 -8.920999 0.245303 -0.146162 -0.985050 2.480038 3.287603 -26.139849 0.398814 -0.279233 14.755512 0.358822 -8.158414 -5.532974 2.628080 0.180440 -1.734375 0.607231 -0.680809 28.848481 0.420665 0.296255 -3.414505 2.968323 1.544858 1.552301 -10.257275 -0.330087 -0.090482 2.302092 -1.489481 -10.117247 14.096308 -29.244320 -20.196419 -8.977191 -37.545263 -16.937585 9.784888 -15.725948 -23.221884 23.238897 0.579101 -8.799759 -8.033583 34.728931 -5.888069 -8.050447 32.756773 -27.134263 1.168421 2.836245 -29.375136 -24.351921 3.860103 -6.408092 
-14.931588 121.689026 1.601652 28.433291 -80.802299 -29.004808 -1.495851 -2.947157 -13.433957 3.421564 -9.038214 0.660451 -1.063496 9.165102 -7.414652 0.170423 -0.120905 -0.964915 3.002074 3.246189 -24.596018 0.155344 0.051561 12.343302 0.321154 -7.938283 -4.915900 2.629464 0.156587 -1.796826 0.514361 -0.431565 28.153266 0.408052 0.218118 -3.146534 2.891320 1.568955 1.248469 -9.858127 -0.463942 -0.151381 2.671532 -1.225918 -9.831545 13.275891 -29.495028 -19.694084 -8.654566 -37.594184 -16.899470 9.918559 -15.880426 -24.320493 22.522746 0.975398 -9.900747 -7.174845 35.031433 -5.132045 -8.751340 32.637772 -27.449930 1.716801 2.306028 -30.206090 -24.412804 3.814951 -6.476560 
-15.298249 121.490463 1.524026 28.786493 -81.096084 -29.339491 -1.452380 -3.050228 -13.196553 3.762839 -8.731675 0.237013 -1.150812 9.416637 -6.916909 0.131237 -0.121461 -0.953547 3.384434 3.254000 -23.302866 -0.078307 0.257372 10.551997 0.029983 -7.733587 -5.046671 2.660941 0.131481 -1.837754 0.396965 -0.131031 27.496544 0.325230 0.069197 -2.987428 2.813907 1.616851 1.048251 -9.586595 -0.673664 -0.289826 3.092015 -0.966573 -9.547706 12.404021 -29.622520 -19.205462 -8.699839 -37.454768 -16.555472 10.334444 -16.540189 -24.873215 22.258020 1.309049 -10.291115 -6.511529 35.149957 -4.515785 -8.826685 32.588901 -27.393810 1.984756 2.271049 -30.691045 -24.785714 3.689218 -6.328556 
-15.461071 121.344437 1.524766 29.651356 -81.270985 -30.152683 -1.414341 -3.222730 -13.225465 3.849070 -8.321182 0.093778 -1.196174 9.417672 -6.386368 0.084283 -0.107470 -0.953885 3.498019 3.267985 -22.596421 -0.262068 0.377216 9.429599 -0.287033 -7.568319 -5.033109 2.647776 0.110190 -1.924771 0.200233 0.162928 27.203048 0.324306 0.028018 -2.889422 2.722943 1.668382 0.695842 -9.385192 -0.809906 -0.529235 3.541241 -0.688671 -9.076815 11.627747 -29.942227 -18.694305 -8.395725 -37.193109 -16.384939 10.607969 -17.370708 -25.323381 21.866120 1.354943 -10.060116 -5.783219 35.370060 -3.782624 -9.162800 32.146085 -27.385571 2.097468 2.410698 -30.676387 -24.957699 3.751401 -5.722611 
-15.678024 121.280823 1.688120 30.624271 -81.496962 -30.805870 -1.312444 -3.277210 -13.524527 3.713863 -8.146998 0.262346 -1.190608 9.291575 -6.080532 0.029599 -0.100040 -0.949537 3.527406 3.208799 -22.209575 -0.401957 0.705971 8.569295 -0.456747 -7.253657 -5.194087 2.618999 0.108109 -2.042782 0.047719 0.321458 26.930015 0.266015 -0.070862 -2.978049 2.596331 1.662567 0.549767 -9.136391 -0.865508 -0.933046 3.842219 -0.286039 -8.574425 11.148911 -30.002628 -18.376068 -8.155974 -36.884183 -16.162106 11.002146 -18.189293 -25.508445 21.618286 1.384011 -9.623176 -5.190188 35.457013 -3.263307 -9.437835 31.909811 -27.353169 2.136835 2.698401 -30.364606 -25.043816 3.769659 -5.102362 
-15.908405 121.311890 1.928721 34.019343 -81.977455 -34.060455 -1.300830 -3.313166 -13.556000 3.657961 -7.693411 0.411485 -1.479166 9.247520 -5.720682 -0.000753 -0.113630 -0.900030 3.594415 3.139507 -21.371934 -0.701575 0.976251 7.215429 -0.384300 -6.930392 -5.094245 2.636605 0.101617 -2.032259 -0.100607 0.583553 26.515445 0.142265 -0.137058 -2.778355 2.574754 1.705012 0.357724 -9.044142 -1.005909 -1.099727 4.122477 -0.210221 -8.714305 10.327073 -30.040647 -17.796360 -7.943448 -36.315951 -15.852870 11.265897 -19.240051 -25.493348 21.514827 1.341332 -9.370512 -4.831132 35.525028 -2.984781 -9.349672 31.941900 -27.240729 2.132957 3.130289 -30.466371 -25.222701 3.518687 -4.884985 
-16.322216 121.413818 2.132753 38.148240 -82.413402 -37.789805 -1.278383 -3.412053 -13.869295 3.639874 -7.250144 0.911054 -1.756172 9.153598 -5.507977 0.044340 -0.145028 -0.881100 3.660556 3.018298 -20.795529 -0.974969 1.288570 6.083533 -0.249076 -6.609875 -5.065210 2.611841 0.054490 -1.988873 -0.190604 0.903705 26.124962 0.005065 -0.178408 -2.633476 2.519052 1.769507 0.200266 -8.997490 -0.919037 -1.455989 4.123498 0.115647 -8.713332 9.608992 -29.905045 -17.351157 -8.060641 -35.757969 -15.413922 12.044378 -20.591161 -25.957006 20.844275 1.400986 -9.911477 -4.348722 35.502886 -2.684206 -9.264601 31.805498 -27.047316 1.803213 3.938976 -31.181325 -24.591241 3.309590 -5.724897 
-16.800266 121.578812 2.383961 43.243044 -82.955785 -42.672676 -1.101236 -3.380624 -13.875284 3.566524 -6.831465 1.284976 -1.999161 9.026472 -5.133417 0.066138 -0.132836 -0.821205 3.829670 2.899112 -19.913675 -1.282922 1.546924 4.821684 -0.178876 -6.254205 -4.803558 2.613864 0.045868 -1.980189 -0.319919 1.158837 25.643361 -0.109905 -0.225676 -2.560144 2.557356 1.799375 0.147665 -8.858147 -0.806705 -1.543299 4.220508 0.563616 -8.732203 8.634361 -29.542264 -16.614810 -8.208324 -35.230955 -14.904604 12.567666 -21.896956 -25.935553 20.921453 1.415669 -9.854005 -3.877682 35.384993 -2.352733 -9.012754 32.076922 -26.765014 1.736017 4.823113 -31.098706 -24.579552 3.041446 -6.005016 
-17.496151 121.807968 2.325243 50.461978 -83.363370 -49.073074 -0.896057 -3.153829 -13.805794 3.595127 -6.604336 0.988982 -2.325493 8.723251 -4.562890 0.041026 -0.101229 -0.750650 3.865464 2.891049 -19.400998 -1.394010 2.188098 3.352927 0.018081 -5.957366 -4.432042 2.631706 -0.043075 -1.923080 -0.499128 1.379289 25.098209 -0.248409 -0.326817 -2.595504 2.521691 1.914679 0.211599 -8.617808 -0.330917 -1.896358 4.019991 0.752069 -8.948550 7.991967 -28.926104 -16.038492 -7.978165 -34.367108 -14.779403 12.962855 -22.890791 -25.731241 20.425380 0.038120 -9.219114 -3.852640 35.121118 -2.458606 -8.404692 32.658607 -26.564840 1.214007 6.095448 -30.825453 -24.559497 3.847672 -7.027907 
-18.129139 122.093552 2.540418 55.797138 -83.581971 -53.938684 -0.766212 -3.201576 -13.769390 3.453850 -6.177849 1.219364 -2.436270 8.258364 -3.903454 -0.033730 -0.042177 -0.759750 3.848912 2.727271 -18.757682 -1.614461 2.688163 2.227029 0.259718 -5.848787 -3.780568 2.607265 -0.055806 -2.051069 -0.485661 1.509230 24.579418 -0.460171 -0.293380 -3.274823 2.458542 1.881152 0.767460 -8.413777 -0.728545 -2.830337 4.181963 1.035965 -8.672562 7.247245 -28.540177 -15.481979 -8.564588 -33.447659 -13.847206 13.590570 -24.978566 -25.467757 19.364694 -0.484603 -9.728649 -3.461702 34.982020 -2.157087 -7.771708 32.556314 -25.799442 1.081296 7.450680 -30.338195 -22.331208 3.944641 -7.308753 
-18.727432 122.458755 2.721091 59.254880 -84.001263 -57.042628 -0.409368 -3.204315 -13.948048 3.426517 -6.023094 1.783632 -2.615059 8.449168 -3.111614 -0.017247 -0.058219 -0.743545 4.041177 2.621588 -18.265698 -1.577954 2.876635 1.634936 0.607850 -5.632870 -2.948787 2.509159 -0.045512 -2.070182 -0.687003 1.762372 24.089975 -0.479471 -0.394524 -3.537189 2.437628 1.849681 0.927682 -8.381740 -0.610467 -3.001529 4.134984 1.202424 -8.904369 6.586120 -28.233611 -14.840405 -8.413397 -32.609966 -13.212158 13.658849 -26.917403 -24.501995 19.066554 -1.156902 -9.375083 -2.815792 34.633363 -1.770473 -6.858993 32.509120 -24.988110 0.621778 9.103044 -29.997148 -21.415947 4.018798 -8.275564 
-19.258297 122.873444 2.927010 64.760138 -83.887093 -62.373014 -0.380408 -3.255498 -14.197475 3.158677 -5.799644 2.584708 -2.894431 8.157164 -1.910224 -0.009120 -0.070421 -0.749092 3.848757 2.588568 -17.859042 -1.871010 3.339291 1.463689 0.563637 -5.964753 -1.990596 2.388912 -0.010776 -2.074389 -0.805914 1.903245 23.610741 -0.560431 -0.478771 -3.723044 2.398461 1.856527 1.001896 -8.316007 -0.820446 -3.213204 4.141892 1.279043 -9.148077 5.922997 -27.872669 -14.204319 -8.894512 -31.629191 -12.369262 13.542737 -28.678000 -23.397504 18.936454 -1.666811 -8.595640 -2.414692 34.383280 -1.534412 -6.012888 32.486352 -24.209785 0.382918 10.576323 -29.293024 -20.831774 4.090307 -8.636728 
-19.604240 123.322433 2.858722 59.498916 -83.667705 -57.726398 -0.194180 -3.418290 -14.644815 3.136108 -5.967166 3.798625 -3.171130 8.666173 -0.255018 0.012105 -0.076502 -0.860288 3.970602 2.274596 -17.467116 -1.733877 2.773032 2.355535 0.682826 -6.458418 -0.852932 2.373424 0.074231 -2.135759 -0.994514 2.080298 23.308429 -0.444809 -0.465793 -3.596003 2.358492 1.701522 0.934858 -8.297906 -1.391173 -3.048695 4.239747 0.920953 -9.716082 5.894486 -27.987595 -13.904730 -9.250895 -31.131810 -11.105583 12.331000 -30.509918 -21.663699 18.802776 -1.388243 -9.117150 -1.753691 33.914726 -1.113356 -4.963156 31.795189 -23.141070 0.484686 11.623988 -28.973345 -20.104167 3.276992 -9.313183 
-20.020130 123.793213 2.769588 61.879789 -83.549256 -59.987342 -0.062835 -3.598515 -15.119851 3.201799 -5.872416 4.030106 -3.194670 8.981611 1.078813 -0.035544 -0.098157 -0.888703 4.012934 2.223006 -17.351604 -1.866243 2.892460 2.359969 0.755732 -7.018919 0.879340 2.233309 0.137388 -2.200303 -1.198634 2.228508 23.013564 -0.397408 -0.523144 -3.784020 2.306098 1.681148 0.930527 -8.177561 -1.449230 -3.146032 4.337884 0.981539 -9.872226 5.506235 -27.624002 -13.364361 -9.335547 -30.314047 -10.420116 11.899248 -31.927398 -20.595040 18.489632 -2.053516 -8.635484 -1.390546 33.605569 -0.809009 -4.235066 31.657260 -22.292343 0.235780 13.145888 -28.189685 -19.103119 3.554561 -9.784505 
-20.608780 124.241684 2.705592 61.933335 -83.360709 -59.696862 0.099550 -3.574117 -15.439988 3.241140 -5.709456 3.972159 -3.320372 8.745335 2.559686 -0.158633 -0.089215 -0.952619 3.971696 2.002046 -17.182128 -1.879364 2.950689 2.070418 1.037921 -7.214813 2.682985 2.105327 0.183961 -2.294886 -1.317612 2.370564 22.813135 -0.471597 -0.474137 -4.106775 2.323471 1.657810 1.171556 -8.023034 -1.861394 -3.637651 4.637192 0.827864 -10.108057 5.406350 -27.136892 -13.049870 -9.494971 -29.421207 -9.747918 12.128444 -34.443564 -19.891629 17.519459 -2.979644 -8.671072 -1.503415 33.012105 -0.965829 -3.176403 31.065933 -21.315665 -0.391400 15.019041 -27.394625 -17.528584 4.009817 -10.117834 
-21.365065 124.662857 2.440804 56.330511 -83.103983 -53.818171 0.286088 -3.534299 -15.667977 3.317418 -5.499308 4.238283 -3.325357 8.750148 3.282399 -0.163274 -0.104118 -0.984817 4.016710 1.974686 -17.122981 -1.670836 2.936732 2.384082 1.497579 -7.479837 4.419289 1.969777 0.256477 -2.310326 -1.481797 2.336400 22.515361 -0.378819 -0.467686 -4.460957 2.359981 1.499245 1.313231 -7.885665 -2.260411 -4.013149 4.867264 0.919253 -10.373545 5.569321 -26.543422 -12.808716 -9.647939 -28.478997 -8.964188 12.007750 -37.123539 -18.566039 16.880221 -3.873173 -8.665480 -1.535979 32.054531 -0.973813 -1.878952 30.269424 -20.058607 -1.145260 17.652183 -26.418031 -16.619474 4.451413 -10.745749 
-22.086937 125.029144 2.669321 55.596951 -82.990507 -52.558125 0.456265 -3.594513 -16.024957 3.126842 -5.160310 4.943525 -3.415994 8.613778 3.887007 -0.149357 -0.197811 -1.042752 3.843379 2.039586 -17.217757 -1.643469 3.184698 2.611579 2.015536 -7.820195 6.221519 1.583237 0.421176 -2.397532 -1.554242 2.356105 22.010513 -0.301775 -0.514313 -4.959041 2.325469 1.407834 1.460657 -7.720677 -2.670331 -4.210513 5.258951 1.079299 -10.284743 5.358128 -25.822272 -12.408017 -9.661851 -27.360753 -7.940292 12.271629 -40.066257 -17.341052 16.767705 -4.630049 -7.887916 -1.476036 31.129405 -0.937133 -0.864831 29.513968 -18.944081 -2.428990 20.312209 -25.832797 -15.994973 4.546399 -11.280185 
-22.796175 125.317749 2.567248 51.648585 -82.528981 -48.001431 0.567225 -3.589900 -15.866231 3.061365 -5.018111 5.510831 -3.408705 8.268750 4.695014 -0.126799 -0.210581 -1.115774 3.706497 2.071406 -17.059132 -1.676537 3.456334 2.581990 2.632738 -7.759327 7.910507 1.333110 0.507237 -2.494335 -1.631881 2.226345 21.501888 -0.288936 -0.524818 -5.286648 2.307175 1.226423 1.616550 -7.577666 -2.873846 -4.718967 5.364900 1.472042 -10.171500 5.233834 -25.158800 -11.840183 -9.100815 -26.057107 -7.255645 12.610234 -43.246661 -16.589215 16.122093 -5.578582 -6.931851 -1.654294 30.006159 -1.029557 -0.249101 28.450626 -17.827796 -3.424891 23.570409 -24.307847 -14.828196 4.884607 -10.993997 
-23.855099 125.548050 2.593731 47.747712 -82.061229 -43.338178 0.509731 -3.626273 -15.401748 3.112186 -4.861317 5.767446 -3.353592 8.392777 5.191484 -0.043744 -0.197593 -1.151841 3.494149 2.137165 -16.808895 -1.620605 3.892514 2.679842 3.252673 -7.705165 9.061009 1.169249 0.591023 -2.481355 -1.592008 2.096002 20.667010 -0.256005 -0.518662 -5.776883 2.308612 1.103269 1.938750 -7.455836 -3.256769 -5.257438 5.510255 1.678939 -10.295527 4.904587 -24.187465 -11.213831 -8.723419 -24.665121 -6.252802 13.424149 -47.206396 -16.074570 15.590755 -6.603332 -6.707224 -1.700004 28.539121 -1.159468 0.663311 26.916359 -16.670889 -5.863937 27.840075 -23.991201 -13.947261 5.300179 -11.570754 
-24.729994 125.707672 3.198697 44.518168 -81.161581 -39.205821 0.378000 -3.542142 -14.980636 2.831866 -4.616388 6.326965 -3.592429 7.705391 5.685410 -0.053093 -0.237486 -1.234089 3.063668 2.057878 -16.320401 -1.988702 4.332823 2.463652 3.428112 -7.913836 9.969807 0.933843 0.717317 -2.561899 -1.591232 1.867954 19.838081 -0.374934 -0.552696 -6.343604 2.323226 0.886697 2.414863 -7.457592 -3.533804 -5.895996 5.549324 2.182742 -10.474863 4.906374 -23.144746 -10.825280 -8.478122 -23.198350 -5.323304 15.097705 -51.905345 -16.566337 15.448320 -8.208593 -6.608795 -2.432102 26.523581 -1.936322 1.543224 24.741132 -15.340500 -8.789965 32.636559 -23.741571 -13.458853 6.176874 -11.736274 
-25.160423 125.801788 3.224831 40.484294 -80.835349 -33.453902 0.669517 -3.221668 -14.332267 2.518910 -4.225046 6.243454 -3.523195 7.460035 6.720088 -0.144350 -0.377449 -1.375253 2.630258 2.194180 -16.262031 -1.781115 5.459460 1.915698 5.331233 -6.540838 11.199202 0.108795 1.066358 -2.714548 -1.434197 1.465162 18.956763 -0.347342 -0.689481 -7.532457 2.447189 0.667431 3.124200 -7.181935 -3.351532 -7.056305 5.722677 3.376688 -9.634920 4.654274 -21.406073 -10.540685 -7.603810 -21.477236 -4.882688 16.662636 -55.993810 -18.262588 14.405817 -9.956175 -6.859462 -3.508178 24.329742 -3.165498 2.109599 23.468636 -14.287921 -12.309884 37.448370 -24.758349 -12.745603 7.769423 -11.167183 
-25.583685 125.842499 5.270982 35.836276 -79.359154 -28.513286 0.332478 -3.354319 -13.650060 1.983358 -4.605341 6.522811 -4.110709 6.450026 5.878012 -0.087621 -0.268782 -1.400900 2.088053 2.067469 -15.370377 -2.222927 5.555180 2.548444 4.210784 -8.335417 11.474228 0.522644 0.864746 -2.631515 -1.207578 1.166281 18.004521 -0.319875 -0.592849 -7.870427 2.359515 0.457554 3.343727 -7.402042 -3.887261 -7.514752 5.702481 3.641346 -9.790955 4.701861 -20.909529 -10.121555 -8.047587 -20.555893 -3.723398 20.380357 -60.733147 -19.992904 14.342620 -10.465712 -7.952039 -4.057517 22.078881 -3.718701 2.588830 19.824926 -13.400874 -17.120102 40.560539 -27.214314 -11.417361 7.589819 -13.057522 
-25.926836 125.834518 5.317834 32.734602 -78.174050 -24.509666 0.392499 -3.108968 -12.701967 1.913038 -4.849280 5.513266 -3.628203 6.959911 6.637947 -0.014061 -0.371792 -1.643651 1.846091 2.040455 -14.802978 -1.961742 6.215361 2.492390 4.547437 -8.650701 11.182507 0.143401 1.054855 -2.621628 -0.933645 0.727707 16.823386 -0.234546 -0.670448 -8.209271 2.272600 0.296662 3.608066 -7.543277 -3.841244 -7.742295 5.802539 4.857824 -9.571307 4.158275 -19.617395 -9.665345 -7.911180 -18.662041 -3.046817 23.318783 -63.968838 -21.703597 13.743953 -11.971964 -8.356806 -4.714133 20.173386 -4.311387 2.410176 17.454209 -13.084806 -22.257443 45.025547 -29.723952 -9.971484 8.745040 -13.240458 
-26.227600 125.782715 5.356784 29.641844 -76.978058 -20.493362 0.397816 -2.916168 -11.744914 1.696162 -4.855005 4.971864 -3.420728 6.978635 6.492493 0.079209 -0.398551 -1.758162 1.619603 1.749733 -13.891645 -1.892616 6.629049 2.412311 5.089260 -8.152579 11.007237 0.119740 1.070334 -2.536236 -0.668526 0.605106 15.582043 -0.251708 -0.802039 -8.245390 2.300733 0.105563 3.926151 -7.818165 -4.170032 -8.024110 5.617770 5.374647 -9.983831 3.916345 -18.293598 -9.156508 -8.157199 -17.210404 -2.702954 27.706452 -67.052800 -25.165568 14.196829 -12.997435 -8.901072 -5.508296 18.025492 -4.912103 2.875638 14.939328 -12.541675 -27.804632 49.013034 -33.372573 -9.946923 9.697584 -13.691606 
-26.498205 125.695084 5.393147 27.848161 -75.804203 -17.574109 0.442376 -2.620264 -10.898901 1.497009 -4.696526 4.229280 -3.483240 6.646507 6.358657 0.195698 -0.531473 -1.856441 1.211493 1.445436 -12.964278 -1.885666 7.112136 1.961683 5.510212 -8.151418 10.416314 -0.182110 1.161201 -2.380967 -0.251922 0.342782 14.432273 -0.240492 -0.871373 -8.578443 2.327067 -0.098319 4.155209 -8.058102 -5.053076 -8.582095 5.852845 5.655332 -9.727281 3.293090 -16.734065 -8.496520 -8.684491 -14.875925 -1.932623 36.186867 -70.630999 -33.005598 14.473031 -13.869999 -10.444765 -6.231620 15.919789 -5.412702 3.726914 12.096206 -11.636965 -35.343093 53.471700 -39.389119 -9.215115 10.316458 -14.383658 
-26.733269 125.569672 5.421550 27.507764 -74.862910 -16.118072 0.390328 -2.525202 -10.085534 1.353324 -4.650053 3.793338 -3.797360 6.429033 6.579613 0.164720 -0.571029 -1.958152 0.979969 1.405158 -12.179601 -2.194650 7.515648 1.549542 5.559239 -8.586491 10.116904 -0.561383 1.223662 -2.326699 0.202490 -0.070163 13.357591 -0.424938 -0.837244 -9.022307 2.313526 -0.353206 4.337060 -8.414185 -6.146220 -9.021094 5.635255 6.074299 -9.872724 2.527035 -14.665563 -7.483832 -9.194790 -12.305479 -1.249989 49.429194 -73.816055 -46.109707 14.619672 -14.352208 -11.246114 -6.886906 13.571496 -5.368433 3.935920 9.218636 -10.807302 -43.677190 57.962689 -46.701652 -8.547130 11.373200 -14.551184 
-26.960333 125.385239 5.439476 26.340822 -74.023172 -13.537678 0.436036 -2.522627 -9.512204 1.466836 -4.673396 2.769885 -3.532208 6.389635 6.050137 0.218967 -0.629264 -1.854105 0.794241 1.416722 -11.770621 -2.453823 7.571922 1.182004 5.634285 -8.464929 8.824705 -0.403364 1.108754 -2.200940 0.317497 -0.334822 12.247549 -0.543137 -0.852458 -9.623341 2.292512 -0.553289 4.445142 -8.729554 -6.139269 -8.819725 5.580926 6.844595 -10.067298 2.090825 -12.424148 -6.778659 -9.413631 -9.723432 -0.485307 70.164102 -76.000664 -65.516122 14.174902 -15.494532 -12.178876 -7.218522 11.165452 -5.313974 5.184242 5.984916 -9.994485 -55.491870 61.194593 -57.144264 -7.402623 12.367426 -16.029453 
-27.162302 125.162430 5.449403 25.417792 -73.175125 -11.003662 0.576983 -2.295783 -8.997422 1.303876 -4.817943 1.851283 -3.228167 6.068295 5.105976 0.196323 -0.623408 -1.798928 0.502142 1.534287 -11.173531 -2.761383 8.725985 0.421356 5.561991 -8.419730 7.186908 -0.512906 0.972476 -2.093009 0.736882 -0.844305 11.107435 -0.766860 -0.945324 -10.244823 2.114785 -0.756830 4.669757 -9.337450 -6.338729 -8.757609 5.375499 7.867028 -10.176369 1.274842 -10.001997 -6.067657 -8.782256 -6.668737 0.296332 94.325182 -76.231093 -89.273825 13.785779 -16.160096 -12.694424 -7.148201 8.709516 -5.205410 5.133823 3.151953 -9.593658 -68.403633 63.933372 -69.272938 -5.762658 13.130112 -16.313101 
-27.349527 124.892685 5.451419 24.965158 -72.256676 -9.545162 0.570065 -2.047392 -8.169754 1.215815 -4.902597 1.206465 -3.003853 5.798977 4.435599 0.274234 -0.681460 -1.893643 0.300641 1.250576 -10.167844 -3.013375 8.914674 -0.280290 5.373693 -8.704080 5.627241 -0.575368 0.852339 -1.962822 0.958192 -1.013998 10.076027 -0.906065 -1.107822 -10.527743 2.067709 -0.966841 4.955217 -9.774257 -6.336862 -8.636554 4.954742 8.655362 -10.902231 0.665524 -7.871797 -5.411027 -8.996979 -4.112920 1.001636 112.407173 -74.632116 -106.724194 14.151074 -16.850298 -13.290555 -6.963561 6.444693 -5.150024 5.799538 0.357353 -9.123124 -82.470010 64.402990 -81.999470 -5.217496 13.887410 -16.257034 
-27.508808 124.607056 5.449603 25.389632 -71.257061 -8.941780 0.558859 -2.018004 -7.713298 1.126853 -4.984023 0.912526 -2.903921 5.134687 3.662159 0.351773 -0.752991 -1.987499 -0.102813 1.212794 -9.586677 -3.182132 9.255879 -0.714832 4.676274 -9.305336 4.267167 -0.430028 0.778908 -1.902300 1.033629 -1.319816 9.490158 -1.018184 -1.164198 -10.712659 1.875762 -1.075536 5.058891 -10.491925 -5.879100 -8.499128 4.391178 9.963263 -12.238758 0.440057 -6.215161 -5.007634 -9.253539 -1.542667 1.475090 123.386572 -72.130755 -116.685642 13.970715 -17.793184 -12.541849 -7.133071 4.262134 -5.176227 6.922644 -2.378218 -8.743121 -94.931747 63.188780 -92.701758 -4.151567 14.143179 -15.574718 
-27.646984 124.330536 5.448833 25.679337 -70.895425 -8.651476 0.577776 -1.855307 -6.888745 1.078232 -4.645628 0.750659 -2.643198 5.119259 3.087574 0.421938 -0.943390 -2.083457 -0.411103 1.214963 -8.685426 -3.266801 9.559772 -1.237994 4.621354 -9.291604 3.024273 -0.879927 0.977798 -1.828579 1.098457 -1.339534 8.834296 -1.229620 -1.270966 -10.833319 1.902355 -1.156996 5.407401 -10.776923 -5.709145 -9.072005 4.340063 10.927877 -13.646739 0.057473 -4.783082 -4.609596 -9.930839 0.481841 1.608096 129.753120 -69.761802 -121.879173 14.203332 -18.520159 -12.036596 -7.418115 2.711084 -5.007162 8.748444 -4.523851 -8.801240 -103.604749 61.261445 -100.356046 -4.259368 14.352131 -15.841944 
-27.800537 124.080093 5.459400 24.299402 -70.197685 -6.419841 0.765463 -1.747803 -6.404157 1.219315 -4.607217 -0.075781 -2.282325 5.592898 2.561068 0.422528 -0.856999 -1.986566 -0.571208 1.139548 -8.313595 -3.233538 9.740849 -1.535562 5.033929 -8.394124 1.804141 -0.575809 0.783505 -1.757280 1.293981 -1.449010 8.053182 -1.414472 -1.258884 -11.105211 1.822492 -1.260390 5.531212 -10.944742 -5.536007 -8.985110 4.047335 11.499755 -14.066653 -0.310822 -3.275701 -4.226948 -9.633345 2.181216 2.237224 135.184787 -67.153330 -126.946590 13.490929 -19.080673 -11.593839 -7.099514 0.877677 -4.796391 9.624509 -6.803253 -8.251746 -111.218507 59.231481 -107.177849 -2.653850 14.549766 -15.392583 
-29.272408 123.830170 6.315475 24.023388 -69.651951 -5.482484 0.715666 -1.632171 -5.914453 0.905669 -4.169692 0.353225 -2.297534 5.454610 2.392460 0.477018 -0.799054 -2.001517 -0.860192 0.960486 -7.440574 -3.291498 9.654319 -1.675603 5.016224 -8.643142 1.343754 -0.459849 0.720128 -1.749387 1.487882 -1.448567 7.451742 -1.666657 -1.350552 -11.298649 1.836448 -1.413321 5.786456 -11.038325 -5.449950 -9.273601 3.805886 12.107669 -15.117569 -0.956366 -0.903030 -3.921795 -10.235048 4.593684 2.697322 140.881938 -63.786722 -131.586576 13.799362 -19.612947 -11.203639 -7.291791 -1.018994 -4.661906 10.782759 -8.943167 -7.942397 -117.593017 57.591989 -112.913427 -1.910156 14.908396 -15.530873 
-30.443342 123.595016 7.191438 22.573036 -68.850645 -3.765009 0.833849 -1.668307 -5.456575 1.012966 -4.463844 0.607395 -1.910135 5.513115 2.669296 0.517372 -0.805030 -2.012003 -0.834565 0.676868 -6.714703 -3.157039 9.474408 -1.601257 4.870439 -8.918004 1.343741 -0.597189 0.799590 -1.767760 1.519796 -1.409639 7.152260 -1.855477 -1.440396 -11.633108 1.747681 -1.543000 6.170731 -11.179846 -5.567383 -9.391450 3.515240 12.006633 -15.726660 -1.165813 0.720025 -3.635787 -10.777542 6.005349 2.908532 143.724026 -61.166839 -133.503632 13.570333 -20.446396 -10.349388 -7.267838 -2.603291 -4.471972 11.929991 -10.833452 -7.411125 -121.540250 56.308525 -116.084193 -1.083534 15.045604 -15.997268 
-31.466164 123.381454 7.716064 21.951411 -68.245358 -2.694725 0.943211 -1.609122 -5.048503 1.034271 -4.381262 0.254837 -2.024790 5.656964 3.073135 0.499873 -0.844763 -2.069224 -0.897595 0.599288 -6.157554 -3.058652 9.418908 -1.806435 4.845296 -9.228842 1.117057 -0.620005 0.688313 -1.650581 1.454578 -1.425447 6.649668 -1.944356 -1.454086 -12.035862 1.757978 -1.631181 6.470114 -11.018819 -5.440429 -9.441135 3.501755 12.619909 -16.234332 -1.439744 2.190369 -3.255098 -11.226445 7.504487 3.122713 145.400623 -59.355108 -134.208069 14.536453 -21.458307 -9.249171 -7.398178 -4.219833 -4.167203 13.334975 -12.392110 -7.194927 -125.618050 54.898189 -118.993624 -1.892747 15.466255 -15.731138 
-31.915991 123.192139 8.172463 21.295433 -67.618328 -2.090698 1.050060 -1.522226 -4.937878 0.842222 -4.111762 0.770346 -1.970339 5.620089 2.743396 0.527387 -0.883231 -2.069121 -1.020204 0.492521 -5.643510 -2.895058 9.349023 -1.654305 4.879377 -9.441594 0.638033 -0.811138 0.742921 -1.703352 1.391574 -1.407475 6.412233 -2.026355 -1.479499 -12.368043 1.728301 -1.704486 6.786501 -10.890468 -5.387943 -9.560833 3.524787 12.905975 -16.460365 -1.671194 3.023207 -3.148280 -11.636905 8.341468 3.374788 146.073645 -57.791145 -134.426215 14.586848 -22.195672 -9.030448 -7.352980 -5.493898 -4.090509 14.585679 -13.738740 -6.731909 -128.695818 53.314477 -121.838663 -1.676425 15.851738 -16.397388 
-32.986931 123.024948 8.732718 20.694607 -66.966911 -0.971563 1.198480 -1.446185 -4.678744 0.808889 -4.394298 0.469726 -2.142398 5.783137 3.001949 0.566065 -0.843239 -1.989571 -0.898131 0.407223 -5.191968 -3.000465 9.456464 -1.834323 4.714574 -9.830035 0.620681 -0.774151 0.713908 -1.682371 1.291704 -1.381900 6.020153 -2.130071 -1.544052 -12.636051 1.664853 -1.750021 7.190642 -10.719854 -4.860984 -9.635264 3.403260 13.772859 -16.816177 -1.831108 4.494587 -2.968394 -11.851946 9.813171 3.538658 147.291523 -55.975418 -134.827418 15.443572 -23.008191 -8.177809 -7.203115 -6.986635 -4.020805 16.027502 -15.263584 -6.399027 -130.986975 51.932840 -123.343923 -2.358098 16.030186 -16.391965 
-33.897114 122.883072 9.261532 20.248182 -66.605162 -0.192196 1.308543 -1.292227 -4.465565 0.722105 -4.414400 0.503314 -2.048973 5.722507 3.231803 0.513129 -0.749436 -1.858000 -0.905632 0.345886 -4.851792 -2.892565 9.477680 -1.746335 4.549027 -9.946474 0.650690 -0.537018 0.614806 -1.724119 1.269564 -1.437211 5.705128 -2.225851 -1.510084 -12.795938 1.559966 -1.770391 7.392748 -10.616225 -4.734440 -9.213316 3.262562 14.092872 -17.098422 -2.053468 5.905200 -2.758105 -12.038352 10.800007 3.458693 147.914078 -54.719723 -134.438020 15.732699 -23.523909 -6.675396 -7.066477 -8.267879 -3.815897 17.034559 -16.252229 -6.289791 -132.721401 51.135105 -124.116255 -2.590002 16.377617 -15.943681 
-34.319523 122.758667 9.908713 19.776991 -66.229530 0.471854 1.190960 -1.394628 -4.230259 0.760936 -4.293366 0.379607 -2.037331 5.888781 2.866812 0.578667 -0.690151 -1.806533 -0.990256 0.428783 -4.583300 -3.011008 9.625798 -1.723533 4.563455 -10.225175 0.519540 -0.374009 0.507074 -1.652457 1.262239 -1.416214 5.400752 -2.315934 -1.532487 -12.939552 1.494688 -1.784200 7.584676 -10.665153 -4.771063 -8.905494 3.211303 14.065702 -17.092034 -2.083524 6.866554 -2.585173 -12.182404 11.256327 3.528185 148.783565 -53.442532 -134.876892 15.628770 -23.983696 -6.329383 -6.902278 -9.413561 -3.743521 17.628257 -17.113365 -5.962006 -133.896961 50.637861 -125.524365 -2.073544 16.621117 -16.202121 
-34.769032 122.645554 10.301542 19.071469 -65.692487 1.298028 1.356687 -1.355915 -3.932939 0.852400 -4.728417 0.026845 -2.113142 5.928203 2.811385 0.527969 -0.606053 -1.723689 -0.831357 0.381282 -4.199973 -3.023223 9.531275 -1.859791 4.321307 -10.339157 0.539379 -0.219573 0.456974 -1.616516 1.250655 -1.487061 5.211331 -2.309245 -1.615162 -13.018845 1.444558 -1.867878 7.773561 -10.670691 -4.496467 -8.713169 3.079467 14.307546 -17.129257 -2.129746 7.597406 -2.426320 -12.083123 11.881518 3.554620 149.386486 -52.460658 -134.770795 15.973665 -24.204424 -5.189355 -6.607310 -10.356305 -3.704386 17.860814 -17.915789 -5.765810 -135.058263 50.413319 -126.104007 -2.357511 16.613469 -15.368124 
-35.136566 122.538147 10.703045 18.494784 -65.254779 1.866174 1.474302 -1.429614 -3.678701 0.838830 -4.843984 -0.007998 -2.005867 5.984241 2.623182 0.524662 -0.604444 -1.688962 -0.787751 0.436536 -3.854843 -2.941205 9.586916 -1.768638 4.199174 -10.577969 0.407147 -0.162403 0.372760 -1.589766 1.267214 -1.542992 5.008280 -2.342275 -1.613193 -13.213460 1.423247 -1.959992 7.998076 -10.662372 -4.200470 -8.648534 2.979249 14.595243 -17.179741 -2.156459 8.105835 -2.295315 -12.020929 12.224086 3.679875 150.009495 -51.644460 -135.160236 16.035542 -24.648263 -4.974288 -6.501522 -11.092072 -3.702572 18.211178 -18.595346 -5.549093 -135.729843 50.312682 -126.752226 -2.285402 16.782669 -15.245607 
-35.603226 122.436920 10.999709 18.381201 -64.722431 2.161427 1.516731 -1.393662 -3.579119 0.768531 -4.973973 -0.039182 -2.204387 5.913057 2.544812 0.536881 -0.576461 -1.624208 -0.802063 0.381398 -3.692947 -2.914708 9.636436 -1.595338 4.069786 -10.853242 0.266714 -0.076117 0.366046 -1.619031 1.317282 -1.573425 4.782655 -2.367717 -1.577067 -13.243664 1.381705 -1.999932 8.119175 -10.731239 -4.118045 -8.394354 2.915051 14.489898 -17.366897 -2.307196 8.660803 -2.252611 -11.786909 12.642244 3.963717 150.341395 -51.128792 -135.524841 15.926396 -24.843581 -4.564259 -6.436923 -11.966414 -3.636459 18.451485 -19.510339 -5.535483 -136.554488 49.939596 -127.338356 -1.855472 16.779347 -14.706332 
-35.885376 122.340012 11.144593 18.159294 -64.433053 2.292413 1.557114 -1.403162 -3.190962 0.869852 -5.076358 -0.291924 -2.235422 6.032357 2.440216 0.565573 -0.542268 -1.595008 -0.738567 0.382780 -3.270364 -2.919744 9.849628 -1.729910 4.046564 -11.165236 0.133329 -0.063793 0.331134 -1.555439 1.356578 -1.543818 4.615823 -2.454179 -1.559403 -13.236509 1.353215 -2.040478 8.279844 -10.718222 -4.070316 -8.213547 2.902043 14.440102 -17.264955 -2.176104 9.012224 -2.226731 -11.653186 12.712595 3.881389 150.853825 -51.036221 -135.914095 16.428108 -25.035011 -4.597199 -6.416341 -12.492455 -3.578261 18.516010 -20.025051 -5.438544 -137.315855 49.947637 -127.843938 -2.088338 16.879009 -14.677867 
-35.941097 122.251892 11.255965 17.705999 -64.185527 2.569606 1.642000 -1.478814 -2.908539 1.007525 -5.207462 -0.471346 -2.114197 6.254146 2.170460 0.561380 -0.519431 -1.550476 -0.666993 0.481193 -3.065297 -2.782687 9.928816 -1.606456 3.982516 -11.340729 -0.131822 0.038298 0.260491 -1.527827 1.368566 -1.601760 4.531626 -2.444796 -1.493224 -13.320054 1.318424 -2.074952 8.347453 -10.638796 -3.985316 -7.991105 2.925063 14.381710 -17.222834 -2.125760 9.063496 -2.232075 -11.410806 12.418726 3.880159 151.212184 -50.783655 -136.151369 15.744408 -25.240573 -4.359346 -6.284391 -12.734563 -3.497893 18.410850 -20.243521 -5.278395 -137.639604 50.070622 -128.198439 -1.648700 17.096265 -14.602436 
-36.067314 122.168594 11.296371 17.485254 -64.031924 2.763550 1.698886 -1.476350 -2.708603 1.126259 -5.196629 -0.691753 -2.135452 6.324467 2.013856 0.566137 -0.511751 -1.505191 -0.626033 0.513299 -2.914411 -2.684171 9.859328 -1.652482 3.947954 -11.355157 -0.284284 0.144218 0.214919 -1.485160 1.385521 -1.635977 4.451471 -2.471315 -1.480341 -13.342633 1.315121 -2.093506 8.382531 -10.698546 -3.955062 -7.892483 2.861038 14.362371 -17.380739 -2.168812 9.223912 -2.256234 -11.480365 12.385262 3.786030 151.144268 -50.578430 -135.985967 15.184417 -25.313261 -4.096493 -6.218119 -13.018468 -3.481102 18.484368 -20.451486 -5.204450 -138.077070 49.890524 -128.580134 -1.373178 17.215929 -14.374159 
-36.016315 122.094482 11.251122 17.375514 -63.899856 2.799799 1.766170 -1.425285 -2.624332 1.143646 -5.176153 -0.821063 -2.042290 6.237439 1.859362 0.513430 -0.481680 -1.479548 -0.587601 0.514650 -2.885581 -2.642868 9.800323 -1.612439 3.832469 -11.372013 -0.513591 0.160121 0.174609 -1.487233 1.439131 -1.671558 4.471637 -2.434350 -1.468545 -13.398891 1.311355 -2.111807 8.335604 -10.735996 -3.979902 -7.902573 2.865785 14.309303 -17.469994 -2.262948 9.089249 -2.251593 -11.486806 12.319451 3.769835 150.807057 -50.600662 -135.657216 13.960019 -25.196224 -3.731582 -6.138583 -12.966140 -3.422473 18.361585 -20.436555 -5.219677 -138.357547 49.505867 -128.679475 -0.271459 17.242060 -13.939629 
-35.889614 122.023285 11.214082 17.160047 -63.636586 2.879706 1.762494 -1.493453 -2.595113 1.329633 -5.361134 -0.846231 -1.860862 6.331371 1.576537 0.520005 -0.458377 -1.473902 -0.491739 0.570698 -2.820151 -2.649287 9.731205 -1.561263 3.648828 -11.491432 -0.778740 0.239707 0.126687 -1.488651 1.435907 -1.712607 4.607903 -2.385366 -1.472596 -13.456730 1.302263 -2.149069 8.266986 -10.642937 -3.997407 -8.085643 2.943441 14.287590 -17.643341 -2.255019 8.861528 -2.314519 -11.301327 12.072352 3.698792 150.771413 -50.587788 -135.724986 13.469845 -25.132119 -3.809778 -6.016061 -12.915075 -3.451182 18.222269 -20.507101 -5.279110 -138.559375 49.357224 -128.999854 0.071841 17.273321 -13.908992 
-35.715805 121.962601 11.098210 17.120355 -63.625695 2.682605 1.763727 -1.563560 -2.615193 1.353310 -5.318986 -0.546554 -1.676373 6.426415 1.200925 0.529092 -0.465538 -1.472335 -0.448152 0.622703 -2.779048 -2.644750 9.640283 -1.399366 3.503279 -11.447409 -1.093152 0.266736 0.115057 -1.495322 1.413925 -1.711642 4.734348 -2.399178 -1.484499 -13.448578 1.272928 -2.120145 8.229168 -10.591538 -4.015082 -8.192173 2.950718 14.207339 -17.690590 -2.204911 8.591609 -2.465556 -11.290947 11.851108 3.518615 150.562764 -50.803145 -135.473596 13.048242 -24.913970 -3.894139 -5.851768 -12.703431 -3.563487 18.195571 -20.181100 -5.314944 -138.835366 49.012865 -129.327604 0.233242 17.257509 -14.055534 
-35.409698 119.909576 11.038975 16.806840 -63.588923 2.708787 1.905178 -1.580867 -2.425414 1.380872 -5.305133 0.126272 1.538141 6.805928 -5.392828 0.517313 -0.470517 -1.449377 -0.331591 0.584449 -2.614009 -2.323556 9.425714 -0.788245 1.441982 -10.994254 -7.987415 0.271773 0.113359 -1.484800 1.394548 -1.664499 4.806129 -2.386991 -1.494093 -13.440181 1.275312 -2.084932 8.136634 -10.545635 -4.050128 -8.212642 2.897613 14.163182 -17.689366 -0.748979 8.638541 -2.897773 -9.927341 11.469809 2.130442 149.071107 -50.573898 -134.567847 12.468888 -24.497107 -3.973914 -6.783368 -12.688882 -3.760997 17.126671 -19.795934 -5.993840 -137.623797 48.591221 -128.368595 0.504976 16.956292 -13.754553 
-35.005520 119.863617 10.754795 16.860134 -63.804384 2.371697 1.876220 -1.623035 -2.596484 1.411474 -5.287122 0.517925 1.874491 7.057849 -5.756994 0.512721 -0.471055 -1.441700 -0.248947 0.709398 -2.793561 -2.401309 9.196440 -0.525196 1.361837 -10.866360 -8.382095 0.346391 0.097106 -1.488310 1.311140 -1.670281 4.903736 -2.365843 -1.472902 -13.315898 1.266528 -2.060214 8.042245 -10.529769 -4.162173 -8.410310 2.855050 13.927628 -17.941483 -0.862793 8.165385 -3.037126 -9.959452 11.248052 2.142557 148.523618 -51.038485 -134.222070 11.546030 -24.123092 -4.065897 -6.536021 -12.068634 -3.899565 17.250253 -19.139401 -5.825180 -138.348517 48.192676 -129.138429 1.004334 16.901299 -13.773207 
-34.071598 119.825470 10.571279 16.438230 -64.043042 2.116296 1.807691 -1.730422 -2.512947 1.537332 -5.205903 0.618800 2.407659 7.575083 -6.600155 0.599360 -0.445603 -1.492307 -0.187566 0.908679 -2.883120 -2.449689 9.108491 -0.253215 1.186127 -10.723167 -8.886210 0.433239 0.049317 -1.462879 1.254463 -1.622385 5.008470 -2.346703 -1.515722 -13.185907 1.243697 -1.999937 7.886803 -10.369262 -4.206711 -8.707223 3.107741 13.732962 -18.007691 -0.819133 7.019033 -3.193979 -10.279230 10.135437 1.973706 148.240191 -51.435356 -133.713653 11.203628 -24.149595 -4.638724 -6.138193 -10.988935 -3.930426 17.540673 -18.083354 -5.868782 -138.233185 48.216243 -129.158316 0.566079 17.164342 -14.231054 
-33.246929 119.792770 10.212615 16.386293 -64.651713 1.742116 1.722706 -1.747853 -2.645377 1.618669 -5.002188 0.801302 2.942006 8.040114 -7.103948 0.581035 -0.421362 -1.514432 -0.174334 1.030348 -3.171408 -2.496528 8.988210 -0.167934 1.136146 -10.362368 -9.257667 0.431776 -0.022627 -1.412611 1.122291 -1.517000 5.182130 -2.330292 -1.494644 -12.903274 1.249975 -1.835009 7.582548 -10.316799 -4.070000 -8.705079 3.239194 13.725268 -18.156959 -1.199182 6.464088 -3.560483 -10.585444 9.577268 2.068870 147.568542 -51.896029 -133.355260 10.228680 -23.377972 -5.518609 -5.763987 -10.327036 -4.120443 17.871832 -17.182591 -6.203585 -138.107275 47.659605 -129.407957 0.909014 17.119460 -14.923020 
-31.897635 119.761307 9.623795 16.420029 -65.028770 0.909773 1.559820 -1.849370 -2.831121 1.779155 -4.943330 1.099295 3.554706 8.599309 -7.919505 0.552053 -0.423563 -1.528656 -0.139313 1.146141 -3.412903 -2.612663 8.972090 -0.020589 0.869246 -10.285415 -9.917455 0.448433 -0.045413 -1.475561 1.075810 -1.430781 5.520651 -2.277552 -1.535034 -12.636938 1.243939 -1.658701 7.197463 -10.513308 -4.190633 -9.039451 3.500575 13.363195 -18.039787 -1.828553 5.291814 -3.931021 -10.688470 9.063059 2.676792 146.518921 -52.972827 -133.518953 8.271807 -22.671624 -6.880179 -5.468232 -9.025299 -4.363221 16.926592 -16.422154 -6.591142 -137.074725 47.909610 -129.458110 2.298517 16.755089 -15.308812 
-31.308243 117.734344 9.085034 16.523481 -65.193765 0.317867 1.673994 -1.902342 -2.554760 1.943844 -5.041756 1.443356 6.829393 9.876255 -14.523278 0.528681 -0.324444 -1.515007 0.085205 1.152691 -3.095073 -2.519921 8.838937 0.056374 -1.796302 -10.236164 -17.327236 0.645142 -0.084280 -1.438275 1.204662 -1.466912 5.728587 -2.250672 -1.581009 -12.310571 1.184953 -1.564606 6.842333 -10.462741 -4.279031 -9.184392 3.599231 12.723176 -17.621926 -2.141598 5.405836 -4.444136 -10.428598 9.577318 2.459020 146.260462 -53.830044 -133.590794 6.099467 -22.186219 -7.141894 -5.291187 -7.993124 -4.575693 15.418177 -15.583894 -7.180103 -135.051687 48.988699 -127.861727 3.926045 16.412740 -14.435894 
-30.220856 117.728302 8.308322 16.504589 -65.212221 -0.379448 1.670944 -2.097598 -2.751267 2.241301 -5.400010 1.543721 7.220316 10.545465 -14.505787 0.463262 -0.276178 -1.537376 0.302866 1.205682 -3.240580 -2.542810 8.744048 0.054812 -2.259372 -10.411531 -17.475478 0.736465 -0.092722 -1.395654 1.101071 -1.519651 5.869152 -2.077798 -1.566135 -11.998585 1.148970 -1.451092 6.401545 -10.442126 -4.494820 -9.211621 3.872180 11.958033 -17.021645 -2.937701 4.119915 -4.553336 -10.791595 8.572088 3.436895 146.325507 -55.423879 -134.479984 4.273821 -22.135852 -7.118130 -4.767375 -6.524458 -4.505602 13.906197 -14.519096 -7.371994 -132.835952 51.383016 -126.458684 5.207534 16.136527 -13.001187 
-28.661041 117.736389 8.032006 15.672121 -65.556241 -0.508073 1.723358 -2.151339 -2.941216 2.276053 -5.583224 1.821356 7.955203 11.298485 -15.153212 0.417958 -0.267480 -1.486780 0.447897 1.147795 -3.502426 -2.528553 8.360664 0.217717 -2.500494 -9.994107 -17.549171 0.765322 -0.094336 -1.430071 0.977855 -1.344806 6.153368 -1.904098 -1.623665 -11.507690 1.110749 -1.342179 5.880995 -10.484493 -4.386853 -8.986846 3.917572 11.328948 -16.901973 -2.968567 2.553954 -4.862320 -10.876258 6.448623 3.475035 145.110727 -57.509783 -133.659074 2.606955 -21.201190 -7.248901 -4.382513 -4.704039 -4.690031 13.268928 -12.621100 -8.028163 -128.167883 53.425179 -121.929454 5.820995 15.540545 -12.188171 
-27.163805 117.745270 7.705791 15.128138 -66.274557 -0.931703 1.664711 -2.417947 -2.913774 2.362058 -5.639135 1.931482 8.543023 12.431321 -15.547913 0.476272 -0.325509 -1.444375 0.514484 1.249867 -3.810229 -2.490206 8.241231 0.513812 -2.610471 -9.600338 -17.592388 0.845852 -0.120278 -1.406349 0.679527 -1.120226 6.310069 -1.665543 -1.610956 -10.991013 1.046133 -1.152864 5.279914 -10.320658 -4.387333 -8.794981 4.439768 10.305298 -16.205965 -2.753215 0.593980 -5.178176 -10.548428 4.059753 3.466043 143.019699 -60.447566 -132.465611 1.814530 -20.411541 -7.831182 -3.876421 -2.472660 -4.699023 12.541030 -10.576288 -8.699059 -123.395621 55.489591 -117.626155 5.438389 14.785254 -11.671096 
-25.966213 117.761002 7.229033 14.804219 -66.518092 -1.333938 1.601822 -2.622423 -3.104678 2.577782 -6.023399 2.082232 8.640646 13.358602 -15.570627 0.486645 -0.359869 -1.414624 0.629277 1.430655 -4.305820 -2.344244 8.130570 1.117589 -2.958150 -9.681699 -17.402121 1.029501 -0.136197 -1.444426 0.464373 -1.055694 6.697841 -1.467384 -1.575134 -10.595065 1.123736 -1.001193 4.931569 -10.056321 -4.395805 -8.790350 4.899073 10.044546 -15.866248 -2.491927 -1.123424 -5.487937 -11.135176 1.746661 3.093672 140.665377 -62.986772 -130.017592 2.271864 -19.263101 -7.974011 -3.778411 -0.786563 -4.667305 12.223072 -8.460062 -9.261576 -117.635556 57.713611 -112.288562 3.731269 14.424244 -11.480781 
-24.648722 115.787613 6.485847 14.697978 -66.888224 -2.081593 1.773028 -2.650040 -3.052379 2.720884 -6.353610 2.353916 11.504895 15.534644 -21.746889 0.510197 -0.380336 -1.423292 0.914278 1.304154 -4.471421 -2.151341 7.765518 1.451880 -5.645715 -10.023744 -24.378350 1.136434 -0.166182 -1.493519 0.280991 -0.914123 6.793403 -1.228447 -1.487678 -10.102889 1.146846 -0.811221 4.514037 -9.639074 -4.465914 -8.597480 5.127339 9.111521 -14.835889 -1.969679 -3.099870 -5.951404 -11.484897 -1.082802 2.621017 135.807813 -66.523383 -125.471921 3.079270 -18.576066 -7.314289 -3.533468 1.414978 -4.756364 11.352907 -5.906103 -9.556354 -107.855745 60.265239 -102.532826 1.753110 13.916342 -10.172110 
-22.308477 115.817276 5.595474 14.132130 -67.441284 -3.325031 1.863731 -2.675522 -2.979497 2.798759 -6.584232 2.620343 11.537232 16.394940 -21.890995 0.487628 -0.349671 -1.401410 1.255265 1.172116 -4.707757 -2.189222 7.273258 1.969711 -5.542970 -9.533300 -23.788390 1.247732 -0.296603 -1.573496 -0.139949 -0.563084 6.966421 -0.891532 -1.429932 -9.672514 1.019306 -0.667302 4.027854 -8.720396 -5.256380 -8.243453 5.425817 6.714363 -12.728030 -2.114613 -5.292457 -6.045612 -11.469156 -4.733664 2.543840 128.741913 -70.547560 -119.336605 4.391641 -17.799041 -7.388775 -2.518118 3.977894 -4.712490 10.309194 -2.668548 -9.301966 -94.441941 63.123594 -90.094081 -1.192799 13.698664 -10.031791 
-20.754423 115.844925 5.113556 13.671846 -67.839706 -3.726532 1.900892 -2.880292 -3.327948 2.822092 -6.566701 2.894745 11.096294 16.939922 -21.822637 0.563600 -0.401513 -1.392245 1.170832 1.281656 -5.114454 -1.735142 6.835272 2.088608 -5.213952 -9.165140 -22.546600 1.571785 -0.234547 -1.582041 -0.454132 -0.454998 7.410877 -0.702700 -1.378581 -8.820074 1.055086 -0.493847 3.430065 -8.132794 -4.809839 -8.148307 5.791980 6.265700 -12.934409 -1.605445 -7.547573 -6.918988 -12.633832 -7.634088 1.737948 113.577395 -73.989991 -103.727611 3.937934 -17.363369 -4.143271 -2.611835 6.064055 -4.795438 10.195938 0.142932 -9.952187 -79.008402 63.545601 -74.816416 -1.883284 13.331466 -8.505512 
-18.554113 115.874390 4.276481 13.236366 -68.005168 -4.837997 1.890615 -2.704053 -3.239883 3.109766 -6.839203 2.652083 10.539306 17.131497 -21.760018 0.633606 -0.336627 -1.375424 1.501345 1.046660 -5.273121 -1.954979 6.252184 2.229687 -4.675611 -8.613740 -21.157728 1.809277 -0.440127 -1.577562 -0.797590 -0.102241 7.708780 -0.765402 -1.353617 -8.363861 1.107859 -0.313896 3.019227 -7.195434 -5.677055 -7.884727 6.284734 4.527902 -11.447937 -1.489471 -9.569015 -7.361112 -13.771755 -11.058096 1.396075 92.833573 -75.564897 -83.415247 6.056829 -16.651291 -2.649764 -2.322400 8.274804 -4.848560 9.680551 2.685548 -9.667028 -64.699319 63.455757 -61.522344 -4.667593 13.450681 -8.302618 
-15.734397 115.903458 3.892256 11.800572 -69.034792 -5.303810 2.122476 -2.630960 -3.341719 2.863329 -7.491781 3.100324 10.957233 18.268953 -21.626950 0.570750 -0.317485 -1.364419 1.725020 0.959568 -5.899005 -1.628680 5.919620 3.189434 -4.167938 -8.045353 -19.049910 1.865057 -0.336831 -1.749945 -1.213916 0.290100 8.401811 -0.338338 -1.389270 -7.753832 1.031703 -0.190752 2.546718 -6.483469 -6.034124 -7.946631 6.362984 2.705246 -10.615299 -1.493383 -12.298117 -7.749231 -13.518094 -14.296376 0.918160 62.193685 -75.006133 -53.719057 6.361086 -15.352672 -0.009852 -1.492768 11.454046 -4.843498 9.043771 6.381450 -9.601011 -46.726452 59.940874 -44.339036 -6.564870 12.163935 -6.782549 
-12.630800 115.938782 3.378484 11.026944 -69.921695 -6.729910 2.052020 -2.402384 -3.730036 2.585809 -7.374364 4.385858 10.862264 18.528881 -21.118539 0.603466 -0.296318 -1.373559 1.951044 0.724772 -6.172610 -1.588838 5.559372 3.751607 -3.357491 -8.023229 -15.668931 1.877120 -0.143121 -2.016244 -1.549830 0.708286 9.098162 -0.044269 -1.526633 -7.090976 1.065635 0.017324 2.109937 -5.878464 -6.401645 -7.790956 6.690265 1.614587 -10.102879 -1.489924 -14.790477 -8.224509 -14.320971 -17.686882 0.507376 39.562799 -70.505052 -31.878643 7.477442 -13.576330 1.746988 -0.806399 14.491437 -4.860067 8.355117 10.058658 -9.819739 -33.612858 53.568925 -32.563342 -8.058151 10.960295 -5.179409 
-9.739457 113.973755 2.678607 10.423268 -70.968993 -8.156592 2.085349 -2.104828 -3.692599 2.709119 -7.425942 4.835628 12.190166 19.829981 -25.556950 0.700603 -0.240629 -1.328898 2.504125 0.443837 -6.198230 -1.482198 5.275989 3.864726 -4.777457 -8.607153 -17.829701 2.010497 -0.007788 -2.067326 -1.822073 1.050898 9.445100 0.166421 -1.585881 -6.219291 0.981153 0.195739 1.580145 -5.452126 -6.846891 -6.951729 6.554548 -0.126594 -9.649705 -1.081200 -17.126356 -8.569938 -14.669238 -21.059193 -0.084130 25.166861 -63.659110 -18.690454 7.997336 -11.765896 3.199787 -0.265136 17.497257 -4.604351 7.412051 13.838086 -10.577300 -23.926038 45.397759 -25.145236 -9.740895 9.604630 -4.606037 
-6.434955 114.003235 2.397789 9.744316 -72.372036 -9.465630 1.856549 -2.011862 -3.546419 2.686412 -7.348616 4.532272 11.116934 19.453045 -22.335927 0.696002 -0.252840 -1.291521 2.811313 0.205418 -6.219628 -1.481648 5.061928 3.693696 -3.241192 -8.457775 -11.956674 2.064484 0.123825 -2.047377 -2.161894 1.457753 9.824158 0.321210 -1.729011 -5.254085 0.978703 0.440972 1.191092 -4.964293 -6.989353 -6.599213 6.735929 -1.347553 -10.144916 -1.164519 -19.519895 -8.798166 -14.608835 -23.568214 -0.922001 17.284371 -55.959989 -11.807361 8.708730 -10.076463 5.871288 0.386332 20.393944 -4.363885 6.985771 17.359462 -11.380597 -17.549069 36.283278 -21.035845 -10.621389 7.922553 -2.984224 
-3.382432 114.021835 1.986198 9.824155 -73.368903 -11.306173 1.666519 -1.741056 -3.525833 2.490805 -7.558298 4.278584 9.650310 18.663940 -19.219838 0.796154 -0.298635 -1.256351 3.170131 -0.320519 -6.312786 -1.528308 4.657045 3.633503 -2.214488 -8.703523 -7.212539 2.135367 0.202165 -1.959620 -2.349371 1.872325 10.342724 0.309747 -1.731728 -4.224948 0.980954 0.776785 0.512442 -4.753341 -7.503671 -5.774068 6.991611 -2.666499 -10.279977 -0.444811 -22.125019 -9.447091 -15.159164 -26.515178 -2.143598 12.482179 -46.317083 -8.354355 8.429974 -8.109540 7.291205 0.099937 23.314302 -4.391119 6.539479 20.873018 -12.646653 -13.259253 26.105283 -19.928030 -10.578561 6.499086 -2.234867 
-1.326221 114.030945 2.358340 9.284920 -74.756903 -11.697565 1.369452 -1.744679 -3.493684 2.550750 -7.591696 3.989183 8.229048 18.179381 -16.634563 0.805121 -0.343360 -1.094294 3.544085 -0.622656 -6.323631 -1.600929 4.393985 3.185683 -1.196790 -8.744904 -3.634764 2.122058 0.315493 -1.850409 -2.474343 2.229437 10.578139 0.294591 -1.754127 -3.046173 0.965555 1.047275 -0.310538 -4.511671 -8.012208 -5.019555 7.287518 -4.276453 -10.335347 0.007685 -24.011121 -9.904728 -15.237053 -29.324741 -3.374171 10.654926 -37.981865 -7.997321 8.280609 -6.198533 7.575545 0.007615 25.646334 -4.251714 5.798507 23.793715 -13.990706 -10.450407 17.454348 -20.860949 -10.574620 5.285008 -2.169216 
0.616352 114.036240 2.049201 10.018763 -75.563702 -13.229647 1.064806 -1.806171 -3.713088 2.793567 -7.719683 3.757512 6.897840 17.350253 -13.595627 0.715609 -0.362308 -0.980378 3.952901 -0.831787 -6.694704 -1.823760 3.987223 3.130326 -0.619118 -8.934847 -0.743885 2.083672 0.341973 -1.817879 -2.541628 2.372465 10.913569 0.208478 -1.653959 -2.583758 1.031760 1.200605 -0.782227 -4.454851 -8.540999 -4.994135 7.451621 -5.241535 -10.362047 0.226713 -25.445687 -10.303485 -15.460551 -31.291906 -4.310836 9.574968 -31.279904 -8.629233 8.010957 -5.163438 7.623025 0.127214 27.352734 -3.882984 4.900013 25.603100 -14.940855 -8.544818 12.419620 -21.642000 -10.259406 4.850757 -1.553696 
1.831549 114.040421 1.965091 10.795674 -76.365795 -14.334591 0.856688 -1.893472 -4.141236 2.878322 -7.787280 3.992635 5.946372 16.611815 -11.382649 0.657436 -0.396270 -0.897201 4.305184 -0.831292 -6.977494 -1.901222 3.597910 3.070186 -0.350400 -9.059296 1.157410 2.014568 0.368411 -1.722148 -2.482368 2.520368 11.310155 0.124590 -1.569938 -2.310846 1.090400 1.378371 -1.206541 -4.508065 -8.991103 -4.886772 7.726444 -5.959350 -10.515475 0.615324 -26.412875 -10.607908 -15.648191 -32.547005 -5.062443 9.217662 -27.083505 -9.444978 7.404778 -3.997321 6.905285 -0.088055 28.606816 -3.661374 4.238005 26.680430 -16.000430 -7.351888 8.846201 -22.961988 -9.929106 4.343853 -1.948369 
3.179684 114.043411 2.078754 12.042950 -77.353287 -15.790437 0.508566 -2.070777 -4.760916 2.981339 -7.639465 4.368913 5.112667 15.931540 -9.494771 0.612745 -0.453667 -0.831615 4.535192 -0.698304 -7.461376 -1.989709 3.245108 3.072520 -0.063475 -9.132137 2.518053 1.908992 0.434738 -1.695481 -2.537986 2.713153 11.825232 0.213732 -1.385947 -1.941720 1.035200 1.557730 -1.734948 -4.423356 -9.482108 -5.173774 7.989330 -6.808667 -10.699801 0.608184 -27.392689 -10.682261 -15.434616 -33.311131 -5.760400 9.277048 -24.422892 -10.584829 6.805984 -2.918690 6.209457 0.296697 29.690236 -3.116572 3.072576 27.273937 -17.062186 -6.519736 6.501294 -24.219123 -9.007149 3.791833 -2.190420 
4.286431 114.046906 2.505683 11.621473 -77.896495 -15.324211 0.384028 -2.249177 -5.504332 2.935249 -7.697139 4.546256 4.475424 15.283821 -8.063611 0.500725 -0.445496 -0.818398 4.724345 -0.635235 -8.072125 -1.937065 2.945164 3.140059 0.218691 -9.214608 3.572452 1.837121 0.439546 -1.726954 -2.530520 2.824094 12.295491 0.222068 -1.377620 -2.116040 1.046165 1.642033 -1.816665 -4.423929 -9.882795 -5.305358 8.241000 -7.190257 -10.435683 0.851401 -28.201710 -10.800513 -14.962636 -33.828771 -6.070697 8.915875 -23.169417 -10.651879 6.079928 -2.511266 5.964521 0.357564 30.215296 -2.923851 2.404859 27.397598 -17.613224 -5.790006 5.220253 -24.666691 -8.473497 3.467895 -2.186725 
5.239339 114.044464 2.693238 11.818786 -78.156893 -15.423945 0.148809 -2.347882 -5.900890 3.157952 -7.879335 3.947124 3.517402 14.475724 -6.317635 0.436313 -0.452969 -0.803679 5.002165 -0.612693 -8.414506 -1.999426 2.514780 2.924376 0.286568 -9.482408 4.312438 1.808246 0.438596 -1.734201 -2.551519 2.923358 12.700391 0.122446 -1.334372 -2.171668 1.117849 1.738551 -1.860318 -4.579102 -10.299953 -5.113906 8.643787 -7.400382 -10.475533 1.217758 -28.930489 -10.968061 -14.752713 -34.184563 -6.433419 8.782042 -22.130188 -11.019982 5.792679 -2.167806 5.082248 0.097940 30.751588 -2.742902 1.943329 27.223518 -18.167532 -5.318914 4.348821 -25.361306 -8.118035 3.257287 -3.017585 
5.590054 114.029556 2.854642 13.829694 -78.734800 -17.439467 -0.034646 -2.446612 -6.107790 3.022131 -7.630686 4.133107 2.802076 13.536538 -5.134532 0.347838 -0.441565 -0.789046 5.012091 -0.532727 -8.839881 -1.871907 2.209712 3.356772 0.175849 -9.591571 4.876358 1.734033 0.461827 -1.746313 -2.622169 2.926653 13.034851 0.130848 -1.324697 -2.054018 1.139688 1.762269 -1.892631 -4.961894 -10.279133 -4.741662 8.493530 -7.094084 -10.459930 1.279490 -29.002689 -10.824634 -14.846510 -33.855177 -6.861371 9.563849 -21.822350 -12.086546 5.559432 -2.018995 3.951750 -0.200716 31.123793 -2.745744 1.998505 27.680413 -18.528036 -5.699060 4.234234 -25.847097 -7.797256 3.080006 -3.533168 
