HIERARCHY
ROOT Hips
{
	OFFSET -0.179506 -22.333345 2.821913
	CHANNELS 6 Xposition Yposition Zposition Zrotation Yrotation Xrotation 
	JOINT LeftUpLeg
	{
		OFFSET 6.951974 -9.140623 -0.681533
		CHANNELS 3 Zrotation Yrotation Xrotation
		JOINT LeftLeg
		{
			OFFSET 3.427654 -37.519855 -0.449580
			CHANNELS 3 Zrotation Yrotation Xrotation
			JOINT LeftFoot
			{
				OFFSET -1.359570 -39.796059 -4.369333
				CHANNELS 3 Zrotation Yrotation Xrotation
				JOINT LeftToe
				{
					OFFSET 2.635814 -5.579078 11.928840
					CHANNELS 3 Zrotation Yrotation Xrotation
					End Site
					{
						OFFSET 0.000000 0.000000 0.000000
					}
				}
			}
		}
	}
	JOINT RightUpLeg
	{
		OFFSET -6.767048 -9.052170 -0.431982
		CHANNELS 3 Zrotation Yrotation Xrotation
		JOINT RightLeg
		{
			OFFSET -3.829005 -38.256897 -0.885003
			CHANNELS 3 Zrotation Yrotation Xrotation
			JOINT RightFoot
			{
				OFFSET 1.577377 -39.841461 -4.231180
				CHANNELS 3 Zrotation Yrotation Xrotation
				JOINT RightToe
				{
					OFFSET -2.537174 -4.814398 12.334795
					CHANNELS 3 Zrotation Yrotation Xrotation
					End Site
					{
						OFFSET 0.000000 0.000000 0.000000
					}
				}
			}
		}
	}
	JOINT Spine
	{
		OFFSET -0.253288 10.896323 -2.669631
		CHANNELS 3 Zrotation Yrotation Xrotation
		JOINT Spine1
		{
			OFFSET 0.548704 13.518043 0.109247
			CHANNELS 3 Zrotation Yrotation Xrotation
			JOINT Spine2
			{
				OFFSET 0.145701 5.292222 2.542457
				CHANNELS 3 Zrotation Yrotation Xrotation
				JOINT Neck
				{
					OFFSET -0.277840 21.387037 -4.285703
					CHANNELS 3 Zrotation Yrotation Xrotation
					JOINT Head
					{
						OFFSET 0.515184 6.496960 5.134897
						CHANNELS 3 Zrotation Yrotation Xrotation
						End Site
						{
							OFFSET 0.000000 0.000000 0.000000
						}
					}
				}
				JOINT LeftShoulder
				{
					OFFSET 7.884473 12.174932 -3.408961
					CHANNELS 3 Zrotation Yrotation Xrotation
					JOINT LeftArm
					{
						OFFSET 9.097692 3.046888 -0.886815
						CHANNELS 3 Zrotation Yrotation Xrotation
						JOINT LeftForeArm
						{
							OFFSET 25.961220 -1.277207 -2.745643
							CHANNELS 3 Zrotation Yrotation Xrotation
							JOINT LeftHand
							{
								OFFSET 24.923361 0.898606 -0.117091
								CHANNELS 3 Zrotation Yrotation Xrotation
								End Site
								{
									OFFSET 0.000000 0.000000 0.000000
								}
							}
						}
					}
				}
				JOINT RightShoulder
				{
					OFFSET -8.175920 11.883285 -3.861528
					CHANNELS 3 Zrotation Yrotation Xrotation
					JOINT RightArm
					{
						OFFSET -9.601238 3.255117 -0.914307
						CHANNELS 3 Zrotation Yrotation Xrotation
						JOINT RightForeArm
						{
							OFFSET -25.374195 -1.332924 -2.140099
							CHANNELS 3 Zrotation Yrotation Xrotation
							JOINT RightHand
							{
								OFFSET -25.529810 0.777228 -0.555919
								CHANNELS 3 Zrotation Yrotation Xrotation
								End Site
								{
									OFFSET 0.000000 0.000000 0.000000
								}
							}
						}
					}
				}
			}
		}
	}
}
MOTION
Frames: 100
Frame Time: 0.033333
-0.179506 65.274918 2.821913 116.611273 -36.193545 155.386991 6.861576 0.519525 -3.758217 -1.686917 -6.361873 19.868461 -2.401094 13.580692 15.400481 -0.185533 -0.241070 -0.273480 -2.992776 -5.113789 -4.093896 -1.408549 -2.069202 28.542498 -2.479714 -13.426567 11.519021 2.368687 0.554656 -0.423639 -1.457499 -2.155439 14.632863 -1.708085 -1.718973 -9.393131 1.669884 -3.599121 5.981979 0.647264 -4.942891 1.292281 4.395269 2.320374 -5.157023 -16.596051 7.221970 5.969556 -34.938819 8.313422 8.271331 -9.989131 -28.180293 16.022691 -8.590238 -10.394957 0.630763 12.290114 -5.788062 -0.892061 47.732173 -12.212880 9.271377 -7.586828 25.163809 0.892677 4.795553 6.649224 -2.974604 
-0.081031 65.302147 1.816552 115.965214 -35.358546 156.354848 6.972326 0.499388 -3.654415 -1.675199 -6.279321 19.812750 -2.307029 13.846652 15.507748 -0.236872 -0.213355 -0.276949 -2.887091 -4.919935 -4.331149 -1.443190 -2.205238 28.677689 -2.711434 -13.139880 10.439078 2.359136 0.548205 -0.461213 -1.540525 -2.177449 14.470746 -1.652125 -1.730305 -9.261783 1.668637 -3.531408 5.814397 0.475507 -4.894219 1.376190 4.341160 2.308840 -5.197921 -16.662507 7.598826 6.260780 -34.258780 8.860834 8.552030 -10.493143 -27.750336 16.003190 -8.994985 -10.368890 0.802421 12.625661 -5.916610 -0.866211 47.397613 -12.590732 9.324032 -7.485362 25.699725 0.434562 4.974327 6.692157 -3.153996 
-0.195378 65.330894 1.642034 115.923004 -35.046059 156.627396 7.056953 0.509294 -3.874641 -1.693808 -6.208669 20.056960 -1.984917 13.856245 15.297814 -0.252500 -0.227141 -0.253236 -2.785769 -4.885652 -4.248902 -1.415576 -2.107856 28.298967 -2.880045 -13.079295 9.845004 2.362898 0.535322 -0.533345 -1.536162 -2.123799 14.366479 -1.492763 -1.733969 -9.151377 1.623291 -3.466287 5.653537 0.335185 -4.823018 1.544673 4.158340 2.116813 -5.188978 -16.766720 7.586058 6.136258 -33.488233 8.863682 8.410155 -10.799503 -28.232095 15.606518 -9.239176 -10.506335 0.964889 12.936014 -5.906859 -0.892977 46.821074 -12.617348 9.270892 -7.271852 25.711199 0.444908 5.072372 6.708256 -2.781508 
-0.364936 65.359276 1.729847 116.067901 -34.690100 156.583300 7.073937 0.383381 -3.750281 -1.588718 -6.434298 19.861293 -1.497631 14.266963 14.959566 -0.245844 -0.263418 -0.266088 -2.732809 -4.971386 -4.175552 -1.362898 -2.271273 28.047492 -2.979883 -12.985918 9.574223 2.353211 0.552924 -0.532644 -1.523585 -2.098868 14.259596 -1.453552 -1.788619 -9.107196 1.678703 -3.453450 5.646304 0.223822 -4.709945 1.461288 4.084176 2.236195 -5.064712 -16.294153 7.482046 6.035606 -32.758652 8.660731 8.227566 -11.085616 -28.907477 15.500477 -9.217261 -10.615736 0.839249 12.864215 -5.892259 -1.032095 46.530978 -12.482383 9.148012 -7.035892 25.946699 0.333097 4.977404 6.750557 -2.670340 
-0.551591 65.388466 1.637186 116.146982 -34.234790 156.779872 7.096269 0.288470 -3.780070 -1.374702 -6.493302 19.780876 -0.810837 14.431925 14.616229 -0.265385 -0.229671 -0.243720 -2.599666 -4.947214 -3.999659 -1.319172 -2.403543 27.410887 -3.241076 -12.955237 9.041431 2.348633 0.534977 -0.522380 -1.561239 -2.038936 14.050652 -1.336252 -1.806591 -8.990170 1.623413 -3.393099 5.626758 0.082668 -4.660930 1.496808 3.995790 2.313435 -5.224030 -15.778673 7.241872 5.891773 -31.520657 8.453765 8.052211 -11.075842 -29.419638 15.250460 -9.069672 -10.706414 0.826247 13.080121 -5.889252 -1.078426 46.010400 -12.304346 8.985046 -6.659093 26.008211 0.024285 4.734147 6.782072 -2.635292 
-0.737674 65.418770 0.918470 115.885583 -33.130248 157.563677 7.215420 0.254370 -3.928912 -1.178614 -6.541288 20.048447 -0.007974 14.860348 14.140584 -0.305026 -0.206129 -0.221101 -2.443141 -4.953431 -3.943148 -1.183502 -2.496810 26.794076 -3.555793 -12.639949 7.631016 2.313682 0.530179 -0.524970 -1.537459 -1.965893 13.860683 -1.204525 -1.877175 -8.817721 1.580625 -3.308940 5.492891 -0.127636 -4.598046 1.562491 3.766358 2.193133 -5.371542 -15.140116 7.003135 5.814473 -30.018702 8.323167 7.831125 -11.024135 -29.776255 14.689037 -9.195802 -10.824240 0.950332 13.364260 -5.902756 -1.116349 45.382958 -12.211291 8.801766 -6.234277 26.199579 -0.351455 4.501847 6.784058 -2.412245 
-0.917620 65.450790 0.662054 115.761607 -32.874409 157.868022 7.112863 0.129262 -4.136058 -1.092669 -6.527098 20.427938 0.412742 14.936614 13.744670 -0.326781 -0.202855 -0.219954 -2.378438 -4.875029 -4.023810 -1.358097 -2.577563 26.885068 -3.944936 -12.779921 7.283260 2.343460 0.533553 -0.574474 -1.526361 -1.887810 13.722604 -1.020390 -1.874124 -8.597203 1.527023 -3.204337 5.323967 -0.280032 -4.412515 1.673366 3.617917 2.140876 -5.480637 -14.530626 6.616023 5.745479 -28.310704 8.109559 7.657034 -11.016951 -30.576267 14.055691 -9.106663 -10.891691 0.775017 13.654266 -5.905520 -1.072183 44.627590 -12.298571 8.588763 -5.741892 26.256030 -0.874272 4.286618 6.687382 -2.413470 
-1.057128 65.486023 0.320205 115.520325 -32.438499 158.357739 7.026361 0.118648 -4.266220 -1.070176 -6.628668 20.564625 0.637268 15.265560 13.351373 -0.347650 -0.172438 -0.227179 -2.314252 -4.795483 -4.037406 -1.439155 -2.501760 26.652734 -4.244844 -13.095756 6.745391 2.279951 0.544827 -0.618520 -1.497264 -1.872021 13.601770 -0.922845 -1.907664 -8.449131 1.533881 -3.113817 5.188844 -0.508525 -4.261107 1.591008 3.511997 2.169931 -5.595492 -13.932354 6.399698 5.656075 -26.607886 8.017962 7.241667 -10.788283 -30.694899 13.115058 -9.243884 -10.875784 0.881679 13.908360 -5.978928 -1.098210 43.965034 -12.327988 8.337579 -5.385813 26.467326 -1.219445 4.158180 6.666048 -2.189784 
-1.254725 65.524895 -0.023226 115.283738 -31.865851 158.815110 6.969394 0.089449 -4.580070 -1.061539 -6.560993 21.177358 1.008632 15.414124 12.991765 -0.348637 -0.172047 -0.218366 -2.259479 -4.746872 -3.973412 -1.492643 -2.376220 26.317115 -4.652985 -13.245432 6.175896 2.231721 0.579977 -0.724290 -1.412646 -1.781377 13.546509 -0.774129 -1.922542 -8.360863 1.496729 -2.977741 5.126781 -0.834500 -4.143364 1.630000 3.392597 2.055482 -5.883527 -13.416057 6.113747 5.535331 -24.844238 7.927173 6.774110 -10.446933 -30.832782 12.032442 -9.212005 -10.824407 0.899792 14.265973 -5.955246 -1.096879 43.134839 -12.531633 7.946266 -5.066468 26.958804 -1.615914 3.967463 6.613335 -2.195226 
-1.508829 65.567078 -0.020704 115.303871 -31.628451 159.075601 6.900794 0.006816 -4.734941 -1.032963 -6.600237 21.125045 1.485095 15.653023 12.510066 -0.380507 -0.148085 -0.242381 -2.174567 -4.760693 -3.846288 -1.618276 -2.415055 25.716140 -4.872239 -13.537162 5.827216 2.219427 0.593517 -0.778210 -1.381636 -1.709450 13.423397 -0.613670 -1.913890 -8.307975 1.469085 -2.900676 5.010356 -0.954798 -3.737268 1.514209 3.227031 2.126117 -6.062984 -12.821605 6.007098 5.305096 -22.955369 7.679425 6.256233 -10.200192 -31.121976 10.948176 -9.173116 -10.885380 0.985948 14.661887 -6.145843 -1.242012 42.195966 -12.431105 7.560367 -4.724827 27.070676 -2.227970 3.722552 6.592563 -2.279728 
-1.697809 65.612137 -0.474464 115.028265 -31.214596 159.686180 6.796062 -0.050389 -5.098595 -1.067830 -6.618728 21.637091 1.811984 15.709408 12.244414 -0.428430 -0.134554 -0.250618 -2.128947 -4.795619 -3.797542 -1.754787 -2.383498 25.292918 -5.310830 -13.714613 5.210442 2.235815 0.594859 -0.845710 -1.351162 -1.583699 13.401997 -0.422904 -1.950328 -8.196512 1.436722 -2.782634 4.827644 -1.232697 -3.505512 1.534371 2.932106 2.051677 -6.294264 -12.200250 5.754915 5.089740 -21.249113 7.561636 5.789733 -9.876765 -30.963326 9.896823 -9.049581 -10.964274 0.857963 15.060188 -6.283874 -1.342618 41.226189 -12.585883 7.313187 -4.205164 27.131671 -2.635735 3.402961 6.631117 -2.398200 
-1.902648 65.660172 -0.758662 114.766782 -30.757612 160.191190 6.643096 -0.019368 -5.182753 -1.063736 -6.653480 21.601915 2.081763 15.986290 12.151973 -0.491600 -0.075488 -0.263804 -2.124706 -4.702457 -3.905132 -1.835628 -2.308346 25.148469 -5.615018 -14.003467 4.736114 2.236897 0.578041 -0.881558 -1.275972 -1.568813 13.325197 -0.330024 -1.952892 -8.073527 1.484537 -2.715744 4.751371 -1.454951 -3.351237 1.534518 2.784819 2.093624 -6.533226 -11.626072 5.602896 4.886701 -19.260066 7.423013 5.184072 -9.573207 -30.610901 8.585525 -9.043052 -10.936540 1.150232 15.343757 -6.370147 -1.483438 40.308643 -12.565818 6.910349 -3.813275 27.349975 -3.276676 3.109874 6.695456 -2.212369 
-2.166605 65.713463 -0.851750 114.672260 -30.396405 160.503684 6.436457 -0.169763 -5.564295 -1.004692 -6.702254 22.137153 2.377455 16.185675 12.111732 -0.499840 -0.047017 -0.269183 -2.087328 -4.685863 -3.684407 -1.866223 -2.143581 24.420917 -5.978753 -14.270906 4.230815 2.195954 0.597937 -0.963300 -1.201453 -1.414379 13.180799 -0.116161 -2.011925 -7.940321 1.431528 -2.582194 4.678809 -1.709449 -3.167994 1.748465 2.660192 1.991223 -6.754674 -10.987082 5.369378 4.614167 -17.207359 7.318656 4.859248 -9.642458 -30.661523 7.750434 -9.133056 -11.084330 1.079386 15.792887 -6.498821 -1.682237 39.061419 -12.679797 6.495690 -3.271580 27.868400 -4.053381 2.922101 6.719908 -2.419767 
-2.340688 65.765709 -0.891455 114.484666 -30.347000 160.957381 6.134619 -0.259069 -5.477410 -1.000908 -7.057934 21.365376 2.667249 16.487986 12.340629 -0.546892 -0.002775 -0.251148 -2.047415 -4.528963 -3.913062 -2.103140 -2.076676 24.265768 -6.396511 -14.736187 4.207235 2.301359 0.577584 -1.003509 -1.133405 -1.387327 13.087722 0.060371 -1.987187 -7.789806 1.410586 -2.481617 4.499117 -2.058813 -3.060818 1.606066 2.561397 2.163905 -6.868879 -10.595138 5.081491 4.364916 -15.248317 7.067491 4.232168 -8.983628 -29.841323 6.073370 -8.553099 -10.869447 1.274721 16.396445 -6.685507 -1.796465 37.732946 -12.812852 6.173433 -2.934813 28.321368 -4.940438 2.169624 6.706102 -2.543819 
-2.574221 65.825996 -0.658133 114.390750 -30.038289 161.160455 5.838556 -0.282162 -5.609847 -0.888024 -7.035869 21.197055 2.854617 16.794074 12.601591 -0.616347 0.008088 -0.245266 -2.086766 -4.594023 -3.919770 -2.246535 -2.064621 23.710571 -6.538763 -14.985457 4.093530 2.274965 0.536820 -1.025893 -1.081904 -1.272045 13.024479 0.202476 -1.938356 -7.658849 1.437434 -2.389491 4.400662 -2.202771 -2.982691 1.574078 2.502172 2.221794 -7.088492 -10.061361 5.000782 4.141505 -13.429084 6.981210 3.772437 -8.610576 -29.661559 4.421626 -8.479221 -10.855030 1.133895 16.694709 -6.740007 -1.949376 36.571580 -12.792434 5.841767 -2.656167 29.004691 -5.709916 2.030027 6.623099 -2.769964 
-2.892298 65.889214 -0.752513 114.352794 -29.426586 161.630810 5.640644 -0.336646 -5.660849 -0.641170 -6.966941 20.764589 3.326556 17.371641 12.570383 -0.685204 0.036621 -0.251691 -1.997010 -4.476125 -4.144361 -2.244263 -2.088449 23.347352 -6.803859 -14.992912 3.374845 2.289511 0.524686 -1.066613 -1.022328 -1.224794 12.833991 0.406144 -1.923322 -7.440950 1.457730 -2.303103 4.182508 -2.389341 -2.794803 1.772643 2.334024 2.214396 -7.253325 -9.477550 4.776176 3.963207 -11.523435 6.748158 3.262074 -8.399994 -29.284837 2.920160 -8.304590 -10.763833 1.531940 16.932413 -6.780031 -2.069947 35.353237 -12.585650 5.539898 -2.281294 29.234657 -6.524628 1.680354 6.553422 -2.788973 
-3.076993 65.961761 -0.542559 114.205923 -29.284683 161.779996 5.387565 -0.330419 -5.649063 -0.696737 -6.839276 20.373950 3.280340 17.466181 13.099165 -0.734569 0.061027 -0.229742 -2.049174 -4.508632 -4.131363 -2.476131 -1.996338 22.958611 -7.035029 -15.237558 3.533719 2.353595 0.516287 -1.107036 -0.984692 -1.167230 12.885087 0.507115 -1.906613 -7.442887 1.426796 -2.233827 4.079290 -2.592999 -2.570696 1.732066 2.205160 2.218789 -7.595662 -8.979573 4.649836 3.651696 -10.313859 6.594782 2.704349 -7.767352 -28.623812 1.591579 -7.869427 -10.964145 1.337295 17.067244 -6.857259 -2.319328 34.486088 -12.651937 5.189834 -2.291819 29.741439 -7.209263 1.184016 6.749639 -3.280913 
-3.393631 66.042915 -0.763348 113.993072 -28.321714 162.473560 5.239016 -0.201444 -5.843183 -0.662000 -6.655963 20.031566 3.768139 18.062500 13.456535 -0.817295 0.089702 -0.142668 -2.037164 -4.581428 -4.170950 -2.420516 -1.868220 21.965171 -7.182356 -15.166308 2.473198 2.367089 0.469599 -1.147570 -0.953805 -1.088819 12.773573 0.580308 -1.913117 -7.603774 1.449091 -2.210374 4.127034 -2.751541 -2.311094 1.708824 2.011867 2.316927 -7.954274 -8.433360 4.646521 3.356701 -9.028005 6.308627 2.095672 -7.193220 -28.006179 0.230457 -7.607047 -11.139163 1.651213 17.153977 -6.906998 -2.566333 33.461067 -12.425670 4.875688 -2.214788 30.221396 -8.021827 1.092690 6.871418 -3.973410 
-3.685014 66.133415 -0.772408 113.855854 -27.786493 162.855358 4.925563 -0.191051 -5.709837 -0.452235 -6.465764 19.124696 3.966922 18.549118 13.975341 -0.855983 0.073502 -0.153105 -2.010610 -4.556001 -4.382651 -2.582875 -1.852852 21.683328 -7.490972 -15.196142 2.146809 2.450004 0.498377 -1.215452 -0.940092 -1.070720 12.644309 0.672845 -1.869347 -7.487362 1.453252 -2.102894 4.012380 -2.915629 -2.142941 1.707835 2.049989 2.316957 -8.333918 -7.973383 4.519004 3.129772 -7.831343 6.032567 1.529257 -6.514061 -27.286181 -1.277837 -7.527628 -10.946279 2.049658 17.055102 -6.894846 -2.746968 32.690743 -12.209980 4.486193 -2.485036 30.225915 -9.020316 0.908228 6.830926 -4.110809 
-4.080402 66.232727 -0.508725 113.863938 -27.710280 162.723275 4.660223 -0.066778 -5.676203 -0.402348 -6.291690 18.892613 3.772075 18.680119 13.951829 -0.689297 0.021911 -0.254635 -2.191398 -4.522141 -4.637816 -2.651148 -1.957774 22.292530 -7.412894 -15.327695 1.717617 2.365701 0.619218 -1.325187 -0.927538 -0.959132 12.829765 0.802641 -1.914350 -7.523170 1.507310 -1.946592 3.957242 -3.070578 -1.992777 1.750320 2.074975 2.364048 -8.082052 -7.598186 4.239323 2.966630 -6.337369 5.970830 0.869518 -6.309751 -26.228945 -2.517440 -7.398071 -10.560693 2.432529 17.178266 -6.873945 -2.765614 31.525824 -12.369257 4.050463 -3.013583 30.978333 -9.200209 0.780491 6.727063 -3.791785 
-4.277055 66.324005 0.037274 113.887810 -28.107783 162.635281 4.304268 0.061539 -5.630831 -0.279494 -6.090601 18.204029 3.604086 18.608720 13.919372 -0.709621 0.006679 -0.279379 -2.323075 -4.567436 -4.688704 -2.909541 -1.971390 22.068323 -7.350389 -15.803067 2.193276 2.319877 0.607839 -1.320643 -0.898163 -0.857329 12.729020 0.829097 -1.845595 -7.410811 1.532759 -1.875412 3.971897 -3.194873 -1.983200 1.722210 2.005631 2.245121 -8.111456 -7.168491 4.144824 2.761384 -5.172322 5.718082 0.316520 -6.085805 -25.697189 -3.638964 -7.075592 -10.527331 2.428991 17.144368 -6.839603 -2.830536 30.673591 -12.127931 3.683933 -2.940765 30.471244 -9.756440 0.512830 6.668393 -3.710481 
-4.429368 66.410316 0.624050 113.877771 -28.509437 162.443291 4.014186 0.212949 -5.494686 -0.341698 -6.107860 17.479197 3.504245 18.575752 14.232653 -0.743130 0.115643 -0.243007 -2.449662 -4.531235 -4.818948 -3.172932 -1.769568 22.218835 -7.242700 -16.288639 2.802003 2.248029 0.552417 -1.293016 -0.762819 -0.815903 12.664504 0.850272 -1.842583 -7.303282 1.541489 -1.824042 3.870674 -3.409677 -1.803210 1.939675 1.806859 2.382179 -8.175201 -6.920460 3.841793 2.441810 -4.200846 5.463021 -0.358743 -5.761169 -24.278538 -4.670869 -7.001199 -10.511362 2.749153 17.234012 -6.719310 -2.998980 29.603642 -12.000895 3.256493 -2.945296 30.185838 -10.323602 0.232378 6.840882 -3.993438 
-4.780534 66.497314 0.846618 113.857448 -28.333788 162.481402 3.775986 0.275360 -5.411829 -0.265715 -6.031292 17.123998 3.950851 18.992974 13.612557 -0.725465 0.127054 -0.208085 -2.541550 -4.358746 -5.224007 -3.238718 -1.655351 22.765313 -7.301721 -16.373218 2.447800 2.300152 0.575888 -1.340535 -0.805436 -0.810641 12.750199 0.964493 -1.911467 -7.270136 1.539485 -1.763327 3.811640 -3.687723 -1.756926 1.796221 1.736655 2.145456 -8.439356 -6.534089 3.515726 2.154411 -3.119160 5.336031 -0.842209 -5.605582 -23.437679 -6.001904 -6.411804 -10.508693 3.127633 17.363415 -6.478176 -3.135502 28.471934 -11.953149 2.830946 -3.337787 30.419483 -11.207046 -0.359034 7.070335 -3.790896 
-5.109385 66.579445 0.973780 114.086115 -28.147918 162.577850 3.747396 0.362343 -5.322131 -0.014699 -5.858425 16.446551 4.671149 19.313497 13.123487 -0.774974 0.134080 -0.200985 -2.526208 -4.425648 -5.721104 -3.214030 -2.043595 23.214760 -7.323927 -16.051151 2.003845 2.401149 0.572424 -1.360022 -0.854658 -0.866852 12.760725 1.117277 -1.886291 -7.191668 1.571815 -1.758790 3.688998 -3.760250 -1.518194 2.019736 1.545039 2.113334 -8.660591 -6.121588 3.420816 2.061428 -2.098327 5.262041 -1.240113 -5.392391 -23.094302 -6.779006 -6.250526 -10.463984 3.564612 17.278328 -6.467882 -3.226179 27.609504 -11.750496 2.694453 -3.590157 30.518785 -11.721294 -0.546926 7.115434 -3.764873 
-5.396215 66.661636 1.009419 114.144017 -27.944221 162.601399 3.694002 0.430846 -5.281729 -0.007310 -5.801554 16.340072 5.188074 19.593035 12.566478 -0.758121 0.173790 -0.186009 -2.552957 -4.358606 -6.184196 -3.214739 -2.079911 24.011787 -7.221983 -16.034280 1.576610 2.344217 0.574268 -1.346706 -0.884735 -0.869606 12.804056 1.129951 -1.892167 -7.235719 1.579020 -1.719810 3.661091 -3.894606 -1.469781 2.055030 1.474648 1.992953 -8.773278 -5.843227 3.278999 1.871311 -1.369112 5.126604 -1.642213 -5.263723 -22.380039 -7.316649 -6.103122 -10.358414 3.750508 17.288278 -6.390082 -3.291258 26.779160 -11.533427 2.392118 -3.805440 30.232272 -12.136550 -0.814837 7.182369 -3.699800 
-5.721058 66.736122 1.283036 114.346991 -28.293901 162.416653 3.602251 0.488866 -5.133275 -0.048481 -5.916886 15.896844 5.560048 19.764399 11.732323 -0.729278 0.183918 -0.201700 -2.652688 -4.340548 -6.769254 -3.230466 -2.133039 25.221205 -7.097337 -16.204523 1.499513 2.312135 0.606950 -1.375435 -0.864953 -0.913262 12.981842 1.206166 -1.877494 -7.262406 1.602768 -1.737593 3.632619 -4.006493 -1.411102 1.992824 1.367696 1.817203 -8.655839 -5.635996 3.035785 1.730967 -0.533335 4.999464 -1.977839 -5.128948 -21.888574 -8.078732 -6.505488 -10.218396 3.574945 17.345080 -6.451893 -3.467729 25.750220 -11.656770 2.194957 -4.143600 30.541844 -12.584452 -0.817318 7.091857 -4.057153 
-6.075008 66.807426 1.278241 114.476306 -27.938775 162.440295 3.586536 0.554097 -5.164383 0.049437 -5.921763 15.999890 6.315482 20.148695 10.855655 -0.758555 0.210148 -0.207101 -2.713241 -4.323602 -7.468354 -3.167815 -2.490433 26.389544 -6.972262 -15.851225 0.971582 2.333024 0.615697 -1.381815 -0.881306 -0.974975 13.105355 1.268635 -1.870269 -7.223271 1.621016 -1.701016 3.596740 -4.194090 -1.381541 2.133361 1.195711 1.682666 -8.859053 -5.279106 3.006303 1.559611 0.148641 5.045226 -2.302148 -5.084994 -21.473925 -8.707360 -6.321636 -10.133462 3.861990 17.255014 -6.324978 -3.554641 25.023650 -11.493553 1.951224 -4.474250 30.608835 -13.260636 -1.174318 7.267438 -3.991665 
-6.358831 66.876579 1.270141 114.450050 -27.928801 162.464840 3.527456 0.679563 -5.212511 -0.154562 -6.006497 16.178345 6.709672 20.367476 10.013694 -0.762883 0.215334 -0.221725 -2.822695 -4.281628 -8.162838 -3.248979 -2.507791 27.754955 -6.885074 -15.850185 0.860637 2.370414 0.621014 -1.412833 -0.985468 -1.009992 13.278636 1.325676 -1.865062 -7.134665 1.621571 -1.654339 3.435971 -4.354606 -1.342091 2.186069 1.026548 1.577244 -9.005251 -5.068015 2.828306 1.413861 0.919647 4.857831 -2.657753 -5.032922 -20.753950 -9.512705 -6.335029 -9.998712 4.426294 17.284977 -6.343744 -3.728271 24.244656 -11.512139 1.723004 -4.697453 30.572184 -13.955682 -1.386868 7.334101 -4.031840 
-6.609335 66.945465 1.242368 114.397477 -27.930890 162.362849 3.499007 0.792871 -5.077486 -0.378504 -5.995279 16.321400 7.009433 20.460359 9.211724 -0.735036 0.197728 -0.261897 -3.036842 -4.299995 -9.033335 -3.307511 -2.705080 29.733885 -6.576537 -15.667985 1.034067 2.378123 0.671717 -1.497891 -1.000007 -1.182719 13.593456 1.374970 -1.803691 -7.210046 1.617966 -1.669331 3.421218 -4.380034 -1.202268 2.151143 0.802323 1.424621 -9.066613 -4.803982 2.819315 1.398928 1.296915 4.896447 -2.916829 -4.913563 -20.444755 -9.945069 -6.757320 -9.876883 4.533263 17.114062 -6.472066 -3.759954 23.639229 -11.493518 1.583715 -4.933595 31.121722 -14.091369 -1.116421 7.380334 -4.187066 
-6.905415 67.011971 1.369887 114.519715 -27.968253 162.331761 3.504931 0.987488 -4.966008 -0.468831 -6.107045 15.986372 7.392962 20.680391 8.257416 -0.681109 0.186691 -0.285225 -3.068032 -4.255501 -9.792133 -3.371884 -2.804503 31.063323 -6.354323 -15.653160 1.201466 2.419719 0.708440 -1.533201 -1.040070 -1.320094 13.910857 1.430845 -1.716515 -7.297043 1.659625 -1.633933 3.328212 -4.628245 -1.216399 2.206115 0.722181 1.280894 -9.255086 -4.567391 2.578824 1.213902 1.902181 4.802476 -3.394258 -4.734790 -19.786444 -10.795485 -6.980057 -9.556732 4.713807 16.952837 -6.355710 -3.829762 23.021154 -11.394862 1.375378 -4.972884 30.723170 -14.245276 -0.964953 7.204391 -4.125042 
-7.331796 67.074524 1.256680 114.694816 -27.941123 162.293382 3.564827 1.084845 -5.003622 -0.520496 -6.101802 16.258665 8.288834 20.830505 6.858477 -0.698738 0.229175 -0.298659 -3.267793 -4.388092 -10.868864 -3.306585 -3.370789 33.230648 -6.117454 -15.205585 1.157229 2.424043 0.698779 -1.520535 -1.135990 -1.412271 14.070583 1.520895 -1.697612 -7.156268 1.643253 -1.626405 3.193684 -4.729637 -1.164369 2.369244 0.549737 1.043885 -9.493727 -4.166069 2.502437 1.091750 2.388869 4.798952 -3.719852 -4.572766 -19.358765 -10.980421 -6.743362 -9.476296 5.019719 16.856800 -6.318201 -3.869214 22.460047 -11.344759 1.032367 -5.176543 30.442387 -14.716911 -1.313791 7.334292 -4.104721 
-7.694616 67.134750 1.250382 114.861064 -27.632295 162.293007 3.617926 1.225651 -4.761644 -0.417966 -6.079332 15.855178 9.175844 21.253044 5.731375 -0.691740 0.217561 -0.289381 -3.270444 -4.384396 -11.658393 -3.242946 -3.565407 34.594255 -5.820767 -15.000481 1.228347 2.452987 0.737508 -1.501784 -1.192555 -1.515412 14.246795 1.541358 -1.644999 -7.131933 1.665789 -1.584600 3.129594 -4.937013 -1.154459 2.478956 0.454844 0.978935 -9.497712 -3.870714 2.409457 0.961228 2.805534 4.856944 -4.072662 -4.347577 -18.967719 -11.418293 -6.915416 -9.263516 5.411785 16.688599 -6.130030 -3.892732 22.137254 -11.201315 0.816242 -5.500251 30.232812 -15.081413 -1.113925 7.262093 -4.078194 
-8.088624 67.192352 1.168079 114.907421 -27.587912 162.170750 3.604905 1.320398 -4.609085 -0.562554 -6.248247 16.042506 9.895038 21.546332 4.379529 -0.680438 0.251807 -0.310356 -3.463454 -4.397104 -12.634770 -3.191291 -3.760360 36.794661 -5.416237 -14.939856 1.702469 2.425718 0.756651 -1.492718 -1.240759 -1.706329 14.631254 1.565939 -1.613118 -7.214771 1.667732 -1.571243 3.139341 -5.093522 -1.171507 2.344712 0.369537 0.819089 -9.772446 -3.584737 2.325302 0.768574 3.164218 4.882156 -4.378526 -4.392401 -18.513240 -11.681073 -7.075211 -9.284356 5.669001 16.544773 -6.165633 -3.937236 21.529303 -11.175963 0.554890 -5.403705 30.550886 -15.131970 -1.325800 7.450206 -4.013032 
-8.344996 67.246635 0.906485 114.783884 -27.044036 162.345425 3.666012 1.527287 -4.652255 -0.712676 -6.208111 16.481191 10.423012 21.843275 3.477625 -0.649794 0.219793 -0.342446 -3.591791 -4.503504 -13.339753 -3.102541 -3.991498 38.080800 -5.038100 -14.781030 2.054573 2.389751 0.801632 -1.549281 -1.277240 -1.726408 14.906474 1.620892 -1.590113 -7.053050 1.671036 -1.533060 3.062501 -5.311045 -1.154940 2.253451 0.309342 0.647430 -9.931267 -3.434677 2.375292 0.658396 3.422507 5.198246 -4.650002 -4.375016 -17.771880 -12.157700 -7.015089 -9.108864 6.033987 16.462559 -5.975052 -3.980333 21.227693 -11.168500 0.373526 -5.864182 30.705789 -15.422231 -1.364836 7.419156 -3.732007 
-8.616094 67.299904 0.914384 114.888149 -27.197966 162.250479 3.700676 1.670509 -4.563231 -0.850812 -6.315262 16.474128 10.722766 21.876725 2.376131 -0.601054 0.213142 -0.400783 -3.722159 -4.604828 -14.248504 -3.155305 -4.419712 39.893423 -4.613770 -14.961775 3.383756 2.408975 0.839022 -1.579735 -1.347455 -1.864766 15.251516 1.676831 -1.494583 -7.108322 1.713518 -1.530552 3.014417 -5.450480 -1.200791 2.128173 0.391238 0.638802 -10.093518 -3.284883 2.097212 0.593557 3.856001 5.231122 -4.867740 -4.527509 -17.808952 -12.436488 -7.382836 -8.898748 6.114230 16.353247 -5.944610 -4.036314 20.797295 -11.274776 0.120314 -5.897712 30.551674 -15.626826 -1.074912 7.432025 -3.315851 
-9.023051 67.350922 1.025902 115.267428 -27.353304 162.036811 3.870412 1.784192 -4.249356 -0.823616 -6.323953 15.902693 11.500393 22.043377 0.859925 -0.573418 0.222432 -0.403606 -3.822405 -4.702478 -15.061821 -2.933753 -4.917909 41.485686 -4.168709 -15.189145 4.468788 2.373454 0.855271 -1.565470 -1.319481 -2.030070 15.545040 1.713041 -1.429321 -7.096529 1.752669 -1.552720 3.057761 -5.572220 -1.372858 1.999282 0.371603 0.509329 -10.214269 -3.003824 1.844351 0.603428 4.218378 5.291397 -5.155253 -4.380531 -17.731469 -12.533661 -7.894396 -8.694251 6.189974 16.254160 -5.815970 -4.065968 20.430058 -11.131758 -0.245414 -6.014331 30.024719 -15.767382 -0.630948 7.411392 -2.995634 
-9.356337 67.404915 0.806590 115.074102 -26.919894 162.105561 3.980466 1.972253 -3.761233 -1.216731 -6.377505 15.566039 12.134927 22.447325 -0.372097 -0.548080 0.240568 -0.443807 -4.162375 -4.903685 -16.124381 -2.923648 -5.401830 43.596037 -3.710434 -15.099800 5.597730 2.389322 0.882950 -1.626996 -1.341790 -2.209127 15.895895 1.758582 -1.365363 -7.153899 1.805898 -1.584917 2.987256 -5.629517 -1.249927 2.106897 0.272858 0.475012 -10.332698 -2.895404 2.028472 0.627374 4.430521 5.761222 -5.330061 -4.532703 -17.105400 -12.885162 -8.133940 -8.543633 6.234542 16.127243 -5.694552 -4.166149 19.874456 -11.060041 -0.462831 -6.219314 30.442806 -15.988413 -0.267098 7.440520 -3.010248 
-9.563593 67.463959 0.829974 114.917735 -26.683715 162.135039 3.957884 2.153847 -3.593980 -1.520143 -6.499741 15.512302 12.251700 22.696428 -1.202065 -0.520140 0.236993 -0.470073 -4.224608 -4.929345 -16.750883 -2.974698 -5.484026 44.609162 -3.427249 -15.627085 7.040092 2.399914 0.882526 -1.688260 -1.427644 -2.311629 16.255861 1.780764 -1.293269 -7.171452 1.836538 -1.580927 2.929463 -5.669218 -1.287762 2.208491 0.287350 0.416953 -10.404426 -2.788739 2.037411 0.648103 4.659644 5.915441 -5.527394 -4.606317 -16.766173 -13.403878 -8.434318 -8.377633 6.247813 15.969215 -5.528512 -4.218457 19.608514 -10.932228 -0.597046 -6.398829 30.439138 -16.140410 0.223418 7.391544 -2.873097 
-9.773118 67.519882 0.841739 114.922470 -26.747383 162.002599 4.003112 2.212156 -3.495346 -1.829284 -6.686085 15.689361 12.474099 22.782005 -1.971982 -0.545409 0.247183 -0.483368 -4.316372 -5.056867 -17.120287 -2.870370 -5.670353 45.371421 -3.249868 -16.163527 8.366546 2.354733 0.885689 -1.702481 -1.504754 -2.336001 16.499960 1.797503 -1.272779 -7.081610 1.859264 -1.554077 2.939020 -5.657123 -1.325127 2.237320 0.311055 0.338305 -10.616316 -2.521240 1.980505 0.558025 4.889587 5.846632 -5.805947 -4.739047 -16.771572 -13.705322 -8.429915 -8.327532 6.353676 15.905964 -5.536757 -4.318273 19.273911 -10.862954 -0.849794 -6.361260 30.199755 -16.466092 0.274279 7.425938 -2.702831 
-9.904883 67.574699 0.891186 115.002934 -26.925416 161.958262 4.018902 2.312953 -3.409012 -1.895887 -6.673453 15.494535 12.551441 22.699712 -2.552619 -0.544868 0.265491 -0.487664 -4.256142 -5.173785 -17.264402 -2.835886 -5.982016 45.288847 -3.318229 -16.806409 9.716869 2.407449 0.875043 -1.732755 -1.545590 -2.342584 16.659849 1.839461 -1.277107 -7.105115 1.866978 -1.572388 2.910738 -5.687297 -1.443699 2.226768 0.467096 0.394472 -10.770661 -2.313667 1.740237 0.606884 5.112903 5.822029 -5.964138 -4.823576 -16.464800 -13.760529 -8.707751 -8.334101 6.334380 15.689918 -5.536277 -4.321954 19.077464 -10.902317 -0.978696 -6.039969 29.943172 -16.080518 0.464961 7.421215 -2.431266 
-10.088678 67.625069 0.732978 114.817788 -27.115012 162.097009 3.923799 2.493486 -3.403669 -2.169484 -6.781058 15.585001 12.605426 22.668227 -3.358919 -0.560097 0.288926 -0.454334 -4.117386 -5.195572 -16.977134 -2.801568 -5.863088 44.320602 -3.649001 -17.744629 10.328939 2.352653 0.842604 -1.715498 -1.625870 -2.287946 16.870727 1.822059 -1.312833 -7.229168 1.937365 -1.600409 2.996817 -5.720104 -1.705967 2.038870 0.574873 0.297924 -10.939047 -2.151631 1.681260 0.548613 5.380983 5.850644 -6.114677 -5.143392 -16.071426 -13.935433 -8.600352 -8.290329 6.308345 15.476810 -5.609424 -4.413432 18.790333 -10.990068 -1.133798 -6.013939 29.516885 -16.162885 0.434345 7.383866 -2.228023 
-10.280000 67.671745 0.498486 114.828988 -27.656005 161.930127 3.888534 2.617422 -3.314391 -2.286480 -6.827136 15.908228 12.760531 22.415686 -4.205130 -0.608200 0.279749 -0.440324 -3.952047 -5.357730 -16.437040 -2.832573 -6.078552 42.895508 -3.902136 -18.504515 11.103121 2.362945 0.801780 -1.752197 -1.576437 -2.251521 17.002339 1.860605 -1.322873 -7.283498 1.966482 -1.642878 3.029191 -5.743958 -1.980458 1.981138 0.742726 0.274871 -11.185184 -2.030009 1.494693 0.610207 5.646304 5.782894 -6.238495 -5.311900 -16.096301 -14.025336 -8.660224 -8.348750 6.639596 15.213601 -5.897853 -4.428282 18.604293 -11.397721 -1.323403 -6.352887 29.364601 -16.272448 0.484986 7.395453 -1.714266 
-10.499075 67.716156 0.211401 114.557190 -27.930658 162.076319 3.795417 2.767798 -3.469629 -2.641229 -6.706319 16.528993 12.741070 22.131398 -5.195879 -0.614688 0.235940 -0.446599 -3.803497 -5.392844 -15.731151 -2.822232 -5.965464 40.404744 -4.081008 -18.991231 11.112361 2.355107 0.787025 -1.790461 -1.596961 -2.151179 17.246751 1.830896 -1.343681 -7.425337 2.013058 -1.631279 3.012276 -5.842574 -2.326191 1.801372 0.984307 0.168545 -11.545917 -1.911191 1.501235 0.557236 5.969595 5.774072 -6.501398 -5.485782 -15.580870 -14.246290 -8.800081 -8.425362 6.747745 14.876581 -6.138305 -4.440594 18.268915 -11.689522 -1.509120 -6.426429 29.039074 -16.246924 0.826570 7.336958 -1.536235 
-10.506382 67.757370 0.125536 114.408573 -28.496163 161.979717 3.726132 2.930146 -3.461275 -2.882001 -6.613437 16.821139 12.253811 21.493078 -5.458460 -0.667690 0.201197 -0.445021 -3.571592 -5.411601 -14.772685 -2.786611 -5.621361 37.062097 -3.747466 -19.177561 11.633207 2.337536 0.775422 -1.775191 -1.671424 -2.052578 17.373901 1.762546 -1.359896 -7.620008 2.070200 -1.657768 3.046487 -5.900278 -2.755598 1.542177 1.246184 -0.044121 -11.503147 -1.710817 1.304816 0.556765 6.299491 5.522999 -6.779211 -5.726742 -15.204007 -14.235701 -8.840776 -8.606610 6.852148 14.480395 -6.383677 -4.474312 18.116062 -12.018241 -1.562331 -6.295518 28.708336 -15.782021 0.781525 7.314119 -1.131478 
-10.500834 67.794601 -0.023711 114.024969 -29.157309 161.859954 3.557410 2.933435 -3.553928 -3.426581 -6.618598 17.676297 11.778343 20.807929 -5.414031 -0.756798 0.194364 -0.424448 -3.514521 -5.358567 -13.826479 -2.772893 -5.030974 33.706711 -3.031395 -18.919925 12.109021 2.248901 0.747743 -1.744892 -1.842354 -1.910444 17.715000 1.689267 -1.445208 -7.975837 2.092355 -1.672109 3.161609 -5.817619 -3.185359 1.209532 1.539817 -0.026142 -11.885076 -1.439460 1.222862 0.453710 6.491379 5.413612 -6.997203 -5.947673 -14.922008 -14.299566 -8.952202 -8.909498 6.730551 14.031385 -6.771136 -4.514852 17.887436 -12.326353 -1.676186 -6.194500 28.523805 -15.650859 0.788377 7.390194 -1.155400 
-10.445664 67.821457 -0.350345 113.665088 -29.763591 161.924354 3.545136 3.118157 -3.528234 -3.878196 -6.452185 18.101748 10.988066 19.903807 -5.588742 -0.809140 0.159408 -0.418625 -3.427367 -5.502776 -13.213085 -2.839693 -4.921585 30.534467 -2.283359 -18.518433 12.749587 2.242178 0.721091 -1.716210 -1.937925 -1.817218 17.894401 1.640686 -1.465813 -8.219621 2.133705 -1.709671 3.183956 -5.777389 -3.538157 0.994647 1.855640 -0.133825 -12.259243 -1.234036 1.248739 0.466589 6.780242 5.433810 -7.338218 -6.209433 -14.189430 -14.555437 -8.310766 -9.207702 6.723107 13.548429 -7.137981 -4.556628 17.538759 -12.618305 -1.879681 -6.055762 27.934878 -15.440532 0.070765 7.523418 -0.918893 
-10.375944 67.838013 -0.460377 113.269489 -31.239932 161.707863 3.332042 3.137349 -3.960413 -4.661325 -6.569626 19.548080 9.724990 18.644723 -5.431659 -0.801113 0.087316 -0.437702 -3.457832 -5.519970 -12.539998 -2.907198 -4.182523 27.857184 -1.632411 -18.582041 13.643851 2.128106 0.711816 -1.711309 -2.148187 -1.655119 18.229010 1.533500 -1.519792 -8.622549 2.261337 -1.781188 3.309219 -5.936248 -3.978351 0.792194 2.193568 -0.321240 -12.505640 -1.103238 0.889152 0.475789 7.439792 5.150347 -7.574913 -6.672765 -13.750532 -14.920014 -7.441594 -9.663679 6.949733 12.957516 -7.606653 -4.605971 17.232389 -13.385202 -1.956760 -6.264881 27.317128 -15.157014 -0.763462 7.611004 -0.557594 
-10.397780 67.840523 -0.846350 112.823519 -32.061531 161.875183 3.231982 3.081931 -4.271293 -5.316973 -6.679952 20.564694 8.964468 17.836193 -5.639946 -0.889839 0.134790 -0.413624 -3.437173 -5.551925 -11.931261 -2.898062 -3.628426 25.387271 -1.106751 -18.414372 14.010580 2.061487 0.669484 -1.688419 -2.320606 -1.513500 18.444853 1.417479 -1.573242 -9.056005 2.354591 -1.810617 3.505824 -5.952060 -4.150089 0.588351 2.368749 -0.481007 -12.657547 -0.823552 1.004992 0.375950 8.031894 5.333434 -7.757870 -6.901923 -12.980636 -15.137859 -7.113485 -9.996234 7.205603 12.492769 -8.035855 -4.660712 16.628052 -13.885202 -2.058061 -5.969022 26.833032 -14.545090 -1.172403 7.777649 -0.262661 
-10.297101 67.836357 -1.316345 112.093555 -32.402369 162.202227 3.072533 3.125644 -4.381281 -5.904620 -6.667853 21.364211 7.913177 17.078632 -5.433230 -0.862319 0.104142 -0.450085 -3.523342 -5.713270 -11.216838 -2.995196 -3.333861 22.953051 -0.713662 -18.464732 14.301626 1.995774 0.642212 -1.664579 -2.436795 -1.312500 18.633859 1.337068 -1.642176 -9.289589 2.411860 -1.775373 3.588318 -5.913862 -4.213396 0.350580 2.617238 -0.437702 -12.999001 -0.498429 1.164491 0.345340 8.320036 5.714691 -8.042412 -7.077969 -11.692534 -15.451661 -7.062933 -10.067480 7.287291 11.827405 -8.276608 -4.694107 16.491279 -14.129903 -2.463795 -6.472151 26.120340 -14.668938 -1.044971 7.663973 -0.266619 
-10.403001 67.820114 -1.856011 111.614140 -32.853043 162.472248 3.024588 3.244716 -4.748473 -6.345939 -6.474311 22.609859 7.331698 16.235310 -5.973385 -0.846975 0.112754 -0.464826 -3.564033 -6.033237 -10.581466 -3.079825 -3.091076 21.011022 -0.481434 -18.369798 14.462511 1.926669 0.602842 -1.680699 -2.594556 -1.140356 18.761756 1.263647 -1.690618 -9.496248 2.509385 -1.767726 3.745067 -6.028829 -4.536561 0.335437 2.820363 -0.624521 -13.463662 -0.009981 1.358935 0.355954 8.833964 6.177370 -8.252848 -7.188884 -10.996739 -15.647184 -7.011724 -9.951436 7.619500 11.042336 -8.516716 -4.559683 16.051476 -14.604998 -2.794219 -6.373809 25.707258 -14.534885 -0.831132 7.520099 -0.099904 
-10.514237 67.798523 -2.328128 111.221097 -33.160670 162.707923 3.092694 3.199271 -5.351626 -6.942499 -6.279592 24.228928 6.689294 15.588492 -6.308036 -0.953088 0.109482 -0.482575 -3.583378 -6.109725 -9.995431 -3.018482 -2.604057 19.463383 -0.255386 -18.239818 14.535362 1.896063 0.567855 -1.729613 -2.716422 -1.040482 18.912939 1.253632 -1.699309 -9.734667 2.544036 -1.764467 3.786646 -6.089107 -4.277148 0.263304 2.955048 -0.450220 -13.632593 0.315245 1.529911 0.298724 9.370323 6.583030 -8.381576 -7.063260 -10.397930 -16.377623 -6.700426 -10.206371 7.719404 10.547370 -8.775659 -4.569744 15.479800 -14.898995 -2.921933 -6.863236 25.569730 -14.812908 -1.156812 7.714724 -0.239138 
-10.543959 67.771629 -2.401234 110.960276 -33.543709 162.805065 2.978417 2.918098 -5.521455 -7.260358 -6.397753 24.628517 6.195663 15.261990 -6.288141 -0.954001 0.109897 -0.496454 -3.562451 -6.023037 -9.700886 -3.014503 -2.302618 18.383772 -0.003397 -18.168933 14.892760 1.831563 0.540776 -1.689339 -2.800856 -0.972622 19.035016 1.229860 -1.690265 -10.006198 2.601749 -1.748828 3.884367 -6.118740 -4.263760 0.106853 3.274667 -0.354000 -14.115302 0.688831 1.633606 0.146427 9.723682 6.822752 -8.599918 -6.768601 -10.281629 -16.681438 -6.444523 -10.309200 7.517040 9.952468 -8.733344 -4.556179 15.023930 -14.833216 -3.258041 -7.619829 24.876843 -15.223642 -1.646949 7.751414 -0.177202 
-10.589458 67.740334 -2.621740 110.540948 -34.279613 162.935039 2.846886 2.756275 -5.874287 -7.757394 -6.375685 25.605876 5.497700 14.374509 -6.248391 -0.965977 0.137558 -0.480164 -3.657024 -6.038310 -9.320672 -3.159656 -1.976828 17.574064 0.024464 -17.971905 15.000648 1.839972 0.490632 -1.700508 -2.961760 -0.811675 19.165193 1.241831 -1.725558 -10.013440 2.635270 -1.697350 3.789891 -6.291118 -4.305672 0.377298 3.381630 -0.371653 -14.361776 0.897898 1.556880 0.045161 10.319856 6.861356 -8.789049 -6.785555 -9.889061 -17.297691 -6.086495 -10.380050 7.412671 9.260384 -8.791297 -4.457870 14.248998 -15.030966 -3.349075 -8.156179 24.092870 -15.621499 -1.929612 7.779373 -0.296147 
-10.529686 67.708138 -3.053006 109.898111 -34.819550 163.254640 2.763036 2.742887 -6.285345 -8.334357 -6.218742 26.789837 4.442693 13.302139 -5.759382 -0.941607 0.111949 -0.530523 -3.844693 -6.112208 -8.969582 -3.299874 -1.685067 17.017760 0.062370 -17.695645 14.809536 1.800120 0.489230 -1.720824 -3.005193 -0.740036 19.391284 1.174143 -1.779018 -10.156059 2.629511 -1.707114 3.833061 -6.463281 -4.506652 0.306111 3.450580 -0.504987 -14.440138 1.112022 1.632355 -0.016603 10.478106 7.142034 -9.137250 -6.674125 -9.491795 -17.454785 -5.663153 -10.442592 7.399739 8.546694 -8.816606 -4.337570 13.701750 -15.330129 -3.607563 -8.806193 23.810296 -15.793547 -2.197752 8.014399 -0.259713 
-10.710606 67.675964 -3.691293 109.358355 -33.875039 163.840677 2.847962 2.656429 -7.089840 -8.697041 -5.809024 28.646095 4.393468 13.186459 -5.795520 -1.021340 0.096636 -0.511222 -3.731898 -6.181938 -8.629386 -3.136527 -1.305921 15.741585 0.158254 -17.386592 14.021383 1.733434 0.486386 -1.770474 -3.171352 -0.514325 19.248665 1.094039 -1.874051 -10.182740 2.665715 -1.623571 3.931049 -6.582906 -4.406220 0.200115 3.595357 -0.537128 -14.790282 1.373903 1.966611 -0.198606 11.056751 7.526186 -9.290961 -6.518280 -9.129361 -18.051046 -5.218842 -10.576729 7.587991 8.009440 -8.469320 -4.314932 12.963533 -14.977316 -3.643132 -9.317801 23.973917 -16.065659 -2.263637 7.999985 -0.200617 
-10.689601 67.639893 -3.613801 109.075677 -34.968321 163.687916 2.692440 2.393848 -7.330633 -9.026402 -5.654904 29.348870 3.398469 12.098232 -5.294825 -1.005044 0.122427 -0.574214 -3.909500 -6.057006 -8.568578 -3.439457 -1.089426 16.226028 -0.013216 -17.498972 14.320957 1.776077 0.437351 -1.802705 -3.095861 -0.532058 19.584735 1.129628 -1.813415 -10.159165 2.636058 -1.563622 3.723889 -6.886100 -4.498314 0.210255 3.666783 -0.401564 -14.965524 1.463925 1.560979 -0.436046 11.202651 7.225419 -9.436239 -6.178406 -9.812346 -18.589487 -5.157486 -10.414791 7.330875 7.516609 -8.501860 -4.242257 11.892163 -15.168529 -3.769270 -10.182890 23.568730 -17.011228 -2.338637 7.938544 -0.393215 
-10.899096 67.604401 -4.042923 108.774222 -34.123794 163.991720 2.824397 2.381650 -8.145734 -9.265711 -5.258689 31.254859 3.214255 12.078755 -5.403565 -1.025096 0.083045 -0.608692 -3.741988 -6.073969 -8.278279 -3.286395 -0.793074 15.398624 0.076292 -17.089703 13.278002 1.708424 0.478547 -1.844239 -3.182689 -0.348724 19.407780 1.046580 -1.900220 -9.949127 2.652859 -1.431519 3.614590 -7.171219 -4.550167 0.273315 3.668085 -0.696281 -15.355007 1.724595 1.682372 -0.538005 11.824210 7.428572 -9.696139 -6.060263 -9.412659 -19.186472 -4.505589 -10.400813 7.783816 6.833730 -7.834670 -4.109654 10.989458 -14.573680 -3.954613 -10.693847 23.399937 -17.307635 -2.695541 8.013480 -0.237153 
-10.897676 67.564911 -4.232152 108.449815 -34.269909 164.333197 2.808536 2.213758 -8.641347 -9.562194 -5.232120 31.911634 2.684570 11.543525 -4.809141 -1.050991 0.115727 -0.592500 -3.713939 -5.922007 -8.245473 -3.380671 -0.265087 15.148639 -0.103631 -17.237172 13.137150 1.738721 0.444455 -1.837514 -3.285137 -0.259520 19.493168 1.015095 -1.967864 -10.042889 2.693604 -1.384653 3.640926 -7.352214 -4.610946 0.020750 3.895513 -0.694154 -15.373890 1.723385 1.473729 -0.776546 12.257168 7.328396 -9.802699 -5.864914 -9.669381 -19.623417 -3.879130 -10.418227 7.490945 6.378734 -7.467601 -4.163382 10.037239 -14.229718 -3.892261 -11.404947 22.910100 -17.760051 -3.003411 7.889023 -0.182328 
-10.934772 67.522522 -4.697367 108.058957 -34.335068 164.626561 2.958123 2.144069 -9.186810 -9.734182 -4.637505 33.168363 1.789311 10.605974 -4.364296 -1.040370 0.106775 -0.621543 -3.697841 -5.962239 -8.016821 -3.505972 -0.289686 14.961151 -0.428983 -17.137590 12.433832 1.757646 0.421909 -1.855645 -3.322407 -0.131776 19.357428 0.912231 -2.037425 -9.741979 2.679435 -1.283025 3.523957 -7.683516 -4.752145 0.165198 3.850749 -0.853876 -15.642243 1.795105 1.319966 -0.821125 12.635703 7.302391 -10.073042 -5.882892 -9.804924 -20.013017 -3.372991 -10.434679 7.834924 5.787952 -7.174682 -3.988382 9.091517 -13.919399 -4.101634 -11.515258 22.463812 -18.004029 -3.247633 7.911582 0.197668 
-10.877640 67.486641 -4.582512 107.872828 -35.312593 164.582820 2.889454 1.864028 -9.529875 -9.916769 -4.609880 33.639962 0.677654 9.566779 -3.605089 -1.039136 0.096964 -0.698500 -3.733823 -5.773304 -7.759937 -3.866392 0.100241 14.953655 -0.761800 -17.610977 12.783145 1.739679 0.449485 -1.873607 -3.345692 -0.072878 19.551430 0.844364 -2.085904 -9.820096 2.706188 -1.230521 3.552087 -7.894825 -4.701047 0.128842 3.923376 -0.591264 -15.714697 1.856984 0.992849 -1.068459 12.868532 7.155484 -10.352484 -5.829651 -10.231123 -20.381241 -3.257372 -10.520561 7.794400 5.302047 -6.980237 -3.922170 8.266009 -13.761255 -4.208870 -11.833092 22.212996 -18.243465 -3.524230 7.941838 0.215534 
-10.881246 67.462807 -5.085411 107.386339 -35.378457 164.714829 2.984962 1.759289 -10.154758 -10.099415 -4.240988 35.371906 -0.764482 8.649336 -2.410738 -0.972098 0.047833 -0.738094 -3.810588 -5.776158 -7.454067 -3.936729 0.231546 15.116781 -0.957827 -17.583639 11.972165 1.675139 0.431679 -1.943314 -3.341753 0.063344 19.642508 0.744865 -2.147760 -9.723136 2.696104 -1.109249 3.509599 -8.280639 -5.032412 0.161232 4.010885 -0.989820 -16.231922 2.050700 0.876299 -1.338003 13.014042 7.087745 -10.569333 -5.683018 -10.353399 -20.819590 -2.270443 -10.540064 7.628672 4.727972 -6.523780 -3.858869 7.558478 -13.611249 -4.401038 -12.407434 22.323097 -18.667268 -4.041715 8.042222 0.098208 
-10.960760 67.439774 -5.781829 106.896088 -34.386883 165.211586 3.293242 1.690759 -10.972978 -9.988252 -3.524561 37.106039 -1.991819 7.813880 -1.315571 -0.993425 -0.030188 -0.721375 -3.663541 -5.710906 -7.298599 -3.866433 0.287893 14.725450 -1.083624 -17.035211 10.621663 1.656643 0.466847 -2.026031 -3.431750 0.207341 19.452656 0.725044 -2.259931 -9.364035 2.680368 -1.012374 3.262637 -8.687744 -5.087684 0.267016 4.008711 -1.345308 -16.546820 2.061535 0.803320 -1.452524 13.282785 7.053670 -10.706404 -5.557312 -10.487642 -21.492858 -1.341678 -10.697986 7.798707 4.260259 -5.841338 -3.765471 7.075293 -13.055551 -4.465609 -12.984166 22.831193 -19.447288 -4.627176 7.988841 -0.176124 
-10.988067 67.414566 -5.796685 106.694522 -34.798331 165.237644 3.438544 1.505316 -11.403281 -9.763404 -3.327454 37.741692 -3.554045 6.186493 -0.325329 -0.943307 -0.078049 -0.756449 -3.716765 -5.665015 -7.282442 -4.081797 0.261628 15.010390 -1.315838 -17.092619 10.477116 1.685259 0.502248 -2.061611 -3.390743 0.224876 19.493315 0.680710 -2.282354 -9.307860 2.624618 -0.998398 3.167311 -8.987179 -5.275668 0.277954 3.882899 -1.577393 -16.517618 2.151460 0.507078 -1.419521 13.365725 6.845767 -10.841719 -5.378640 -10.860419 -21.649585 -1.110819 -10.522316 7.659884 3.920280 -5.525918 -3.695470 6.575696 -12.784372 -4.478942 -13.198744 22.742863 -19.715595 -4.808321 7.939069 -0.307657 
-11.138602 67.401535 -5.684585 106.941960 -34.613306 165.016183 3.870288 1.429670 -11.590501 -9.212902 -3.272212 38.021589 -4.732884 4.581817 -0.192516 -0.937227 -0.088633 -0.786343 -3.578854 -5.716070 -7.247085 -3.909777 -0.025397 14.991065 -1.266209 -16.770696 10.016414 1.671457 0.547949 -2.078303 -3.373310 0.290282 19.347444 0.665321 -2.293637 -9.129010 2.601747 -0.904827 3.060808 -9.097150 -5.375866 0.174092 3.816657 -1.647180 -16.357425 2.199036 0.363087 -1.502363 13.519386 6.918471 -10.831374 -5.240780 -11.417426 -22.099927 -0.742351 -10.294455 7.234872 3.951602 -5.068651 -3.716225 6.008664 -12.205177 -4.579011 -13.277010 22.839738 -20.331387 -5.091783 7.840473 -0.334448 
-11.254172 67.399742 -5.758447 106.931861 -34.205775 165.190159 4.225477 1.219412 -12.120928 -8.687767 -3.348877 38.509652 -6.334219 2.963995 0.672102 -0.973420 -0.122661 -0.761745 -3.395971 -5.618725 -7.284377 -3.883800 0.315090 14.746628 -1.364084 -16.533961 9.535959 1.670122 0.549942 -2.111889 -3.405031 0.355001 19.269430 0.666837 -2.314623 -8.985832 2.568456 -0.842736 2.986371 -9.191968 -5.387489 0.153220 3.988943 -1.766787 -16.511763 2.145955 0.257892 -1.663181 13.629382 6.794770 -10.857245 -5.138675 -11.713442 -22.507532 -0.505597 -10.325775 7.166533 3.788721 -4.647585 -3.671529 5.718525 -11.826113 -4.505935 -13.440338 23.123846 -20.707987 -5.056716 7.761473 -0.551244 
-11.238688 67.397263 -5.891907 106.768437 -34.567946 165.006586 4.713975 1.189559 -12.305497 -8.311905 -3.537588 38.897627 -9.389962 0.612886 2.674748 -0.915573 -0.161894 -0.777406 -3.496929 -5.627537 -7.078065 -3.947922 0.406292 15.214588 -1.589588 -16.739063 9.314997 1.739994 0.549779 -2.127891 -3.349119 0.355858 19.201773 0.583218 -2.349175 -8.827336 2.567176 -0.805739 2.994427 -9.338359 -5.479362 0.135445 3.879061 -2.052012 -16.539973 2.098996 0.013356 -1.725051 13.335190 6.538814 -11.113539 -5.014837 -11.914032 -22.542585 0.456340 -10.450497 7.413276 3.545101 -4.360570 -3.694459 5.752539 -11.800064 -4.675148 -14.383698 23.482520 -21.331765 -5.984703 7.905158 -0.715505 
-11.279920 67.404610 -5.921918 106.888525 -34.198583 164.993723 5.279196 1.106630 -12.378336 -7.570260 -3.919458 38.470903 -11.425478 -1.076641 4.113954 -0.914542 -0.151053 -0.733060 -3.371824 -5.552883 -7.050782 -3.756381 0.469261 15.079503 -1.457961 -16.413014 9.007266 1.772457 0.570953 -2.124039 -3.303580 0.403563 19.238511 0.588177 -2.376772 -8.714975 2.521788 -0.721931 2.909274 -9.529160 -5.804246 -0.137230 3.974310 -2.248190 -16.791227 2.032619 -0.081250 -1.893148 13.088371 6.543339 -11.000273 -4.776959 -12.389713 -22.854484 0.987926 -10.469684 6.752066 3.559022 -3.871156 -3.727866 5.405552 -11.427148 -4.532328 -14.335270 23.706654 -21.428893 -6.345578 7.942767 -0.692914 
-11.202978 67.419266 -6.028979 106.679972 -34.179338 164.966523 5.726921 1.231422 -12.353820 -7.093417 -4.232260 38.038019 -13.989207 -2.205738 6.632516 -0.912288 -0.143636 -0.757011 -3.423936 -5.595484 -6.907148 -3.867507 0.579339 15.231312 -1.500574 -16.233454 9.047879 1.788866 0.614998 -2.153844 -3.288350 0.381383 19.270370 0.564646 -2.383228 -8.733347 2.524315 -0.726862 2.925728 -9.537982 -5.871304 -0.347600 3.885960 -2.419351 -16.778018 1.906216 -0.170024 -1.896502 12.943982 6.486569 -10.901936 -4.879862 -12.724044 -22.793533 1.253082 -10.440084 6.827202 3.388509 -3.566979 -3.782092 5.167331 -11.156628 -4.580932 -14.449081 24.176952 -21.509236 -6.710743 7.922442 -0.727780 
-11.135760 67.443375 -6.152382 106.690985 -34.470590 164.920168 6.161135 1.318681 -12.186975 -6.411173 -4.644906 36.991645 -15.509189 -2.288067 8.798355 -0.936644 -0.150397 -0.708279 -3.429014 -5.604914 -6.887340 -3.817738 0.647081 15.585694 -1.555707 -16.329969 9.045379 1.842346 0.569304 -2.140338 -3.208354 0.305004 19.151740 0.470278 -2.337649 -8.689602 2.541244 -0.810882 2.973828 -9.496524 -5.898749 -0.525554 3.792144 -2.600470 -16.767266 1.877900 -0.079466 -1.847167 12.553740 6.214810 -10.826303 -4.718662 -12.874277 -22.451682 2.161745 -10.689975 6.614261 3.216959 -3.448279 -3.864274 5.494609 -11.012065 -4.393923 -15.049339 24.537974 -21.706319 -7.862679 8.092289 -0.987006 
-11.082074 67.475571 -6.010744 106.900685 -34.846142 164.655506 6.506881 1.437986 -11.982575 -5.661989 -4.955292 35.708192 -15.424193 -0.707654 10.678253 -0.875725 -0.116984 -0.678836 -3.399244 -5.623188 -6.943857 -3.797336 0.458056 16.060917 -1.507918 -16.303937 9.339328 1.848827 0.555206 -2.134264 -3.141854 0.225125 19.098155 0.482188 -2.358227 -8.683301 2.472810 -0.857733 3.111353 -9.232707 -5.891800 -0.714424 3.713003 -2.831977 -16.502810 1.678359 -0.008762 -1.758035 12.008015 5.986948 -10.695339 -4.449320 -13.178669 -21.761395 2.560894 -10.803626 6.667532 3.311478 -3.215035 -3.866282 5.678905 -10.665304 -4.286125 -15.084056 24.525615 -21.327925 -8.275118 8.180762 -0.716041 
-10.967604 67.513115 -5.894258 106.559901 -34.561773 164.771711 6.469667 1.464883 -11.630619 -5.151572 -5.154368 34.277843 -14.609954 1.755691 12.455518 -0.818351 -0.161966 -0.704038 -3.543504 -5.412598 -7.044439 -3.902288 0.725404 16.217522 -1.290939 -16.284973 9.693914 1.806657 0.599424 -2.162726 -3.059929 0.169108 19.000410 0.349013 -2.280726 -8.770428 2.467242 -0.823057 3.298600 -9.238497 -5.952685 -0.957930 3.686521 -2.809346 -16.608606 1.427180 0.118738 -1.783686 10.903887 5.759937 -10.444100 -4.180496 -13.614019 -21.400050 3.016004 -10.620568 6.341567 3.158892 -2.949679 -3.884845 6.362489 -10.328684 -4.067899 -15.375082 24.815969 -21.230362 -8.318159 8.155758 -0.816099 
-10.952652 67.554131 -5.469961 107.141998 -35.096192 164.482340 6.503414 1.618896 -10.772973 -4.209762 -5.354487 31.342041 -11.483053 4.797376 12.453792 -0.817460 -0.169974 -0.661756 -3.448121 -5.349306 -7.202598 -3.734288 0.325324 16.374496 -1.103360 -16.104423 10.266254 1.841116 0.655310 -2.062909 -2.881719 -0.012294 18.709540 0.297178 -2.171390 -8.745183 2.407860 -0.874329 3.350860 -9.057529 -5.903914 -1.015576 3.552419 -2.627392 -16.470458 1.144309 0.163165 -1.728404 9.915112 5.437134 -10.367880 -3.898834 -13.886518 -20.759391 3.301223 -10.730531 5.902315 3.376600 -2.901218 -3.756584 7.075718 -10.063261 -3.651485 -14.857439 24.308983 -20.479097 -8.617486 8.180418 -0.765272 
-10.865737 67.599541 -5.020059 107.556018 -36.092933 164.085766 6.116800 1.540728 -9.696380 -3.420718 -5.747266 28.278521 -8.566844 8.033556 12.848441 -0.756806 -0.112578 -0.591904 -3.439984 -5.208343 -7.579941 -3.807398 0.064033 17.398823 -1.068881 -16.492523 11.140031 1.896896 0.590866 -1.899615 -2.680760 -0.245169 18.328349 0.162447 -2.109571 -8.876551 2.421646 -1.079301 3.646554 -8.685959 -5.738054 -0.883271 3.410285 -2.494390 -16.131507 0.641460 0.433815 -1.397714 8.937458 5.165940 -9.939022 -3.796085 -13.840097 -19.308596 3.265607 -10.863237 5.972828 3.641986 -2.965901 -3.668683 8.186560 -9.977750 -3.092029 -14.812896 24.043304 -19.518058 -8.895777 8.108127 -0.427958 
-10.868276 67.646774 -4.876290 107.726999 -36.197945 164.029789 6.107249 1.667827 -9.371032 -3.067832 -5.670208 26.895434 -6.848450 10.040937 13.587942 -0.758364 -0.104625 -0.592616 -3.398186 -5.125365 -7.519762 -3.754032 0.045767 17.277297 -0.931682 -16.345272 11.229812 1.808665 0.594726 -1.859823 -2.640397 -0.395385 18.288959 0.215168 -2.030309 -8.933872 2.403758 -1.170285 3.670179 -8.487305 -5.604976 -1.124075 3.387605 -2.558342 -16.020012 0.187495 0.540655 -1.393194 7.750945 4.775625 -9.600861 -3.830116 -13.864883 -18.410151 3.310395 -10.745917 5.735004 3.999500 -3.049203 -3.724800 9.377874 -9.894717 -2.762413 -14.594737 23.979878 -19.140184 -8.829969 7.713221 -0.809466 
-10.764384 67.698921 -5.004783 107.732008 -36.007060 164.066594 5.788129 1.563982 -8.355483 -2.483900 -6.145665 24.496903 -4.398827 12.798490 14.731810 -0.782894 -0.056188 -0.565237 -3.337462 -4.834286 -7.901315 -3.622584 0.035831 18.148808 -0.961110 -16.080488 11.402374 1.941384 0.565968 -1.778456 -2.469378 -0.687528 17.943821 0.122499 -1.957569 -9.198826 2.367552 -1.287520 4.054709 -8.115811 -5.258086 -1.070926 3.181977 -2.067433 -15.405130 -0.324522 0.945971 -0.998238 5.769944 4.549964 -8.870943 -3.603481 -14.359572 -17.022188 3.289462 -10.632184 5.302554 4.207500 -3.298434 -3.738474 11.047786 -9.615628 -2.145409 -14.436934 23.966954 -18.249779 -8.795271 7.660333 -0.808946 
-10.856521 67.748718 -4.765779 108.109238 -35.339970 163.845116 5.730458 1.630899 -7.677518 -1.927750 -6.254764 22.773437 -2.203422 14.884222 15.187377 -0.799124 -0.020629 -0.521701 -3.216976 -4.887531 -8.153929 -3.355981 -0.621452 18.410510 -0.536897 -15.192172 11.266805 1.959455 0.561985 -1.734526 -2.345009 -0.789032 17.703323 0.164284 -1.895912 -9.197003 2.337579 -1.377764 4.193416 -7.812891 -5.216335 -1.032674 3.065669 -1.869642 -14.963028 -0.870092 1.204958 -0.561262 3.951043 4.511092 -7.977836 -3.521861 -14.832953 -15.929412 2.981193 -10.208229 5.053976 4.680597 -3.398784 -3.577522 12.507191 -9.456874 -1.460270 -13.783073 23.595884 -17.465432 -8.283475 7.088267 -0.665217 
-10.888657 67.801987 -4.728683 108.391940 -35.401261 163.655278 5.600900 1.632798 -6.953649 -1.516095 -6.325078 21.047368 -0.422685 16.282710 15.630222 -0.803756 -0.043252 -0.482448 -3.130621 -4.863883 -8.301566 -3.210144 -0.897696 18.950505 -0.658416 -14.989525 11.396914 1.991700 0.624955 -1.654168 -2.263717 -0.987282 17.457056 0.187731 -1.866704 -9.255822 2.294649 -1.573784 4.286400 -7.464353 -5.075876 -1.033038 2.877937 -1.264281 -14.563510 -1.605520 1.567647 -0.110561 1.694939 4.519194 -7.126349 -3.656246 -15.112911 -14.369339 2.784504 -10.092135 4.731928 4.928147 -3.740384 -3.455299 14.656847 -9.561434 -0.653098 -13.739340 23.025787 -16.583591 -8.158360 6.873625 -0.354608 
-10.984922 67.860550 -4.476705 108.840612 -35.434763 163.232607 5.536660 1.498344 -6.464413 -1.305834 -6.789137 20.029113 1.002403 17.228912 15.840365 -0.870302 -0.025610 -0.487225 -3.117324 -4.828027 -8.272436 -2.832420 -0.851850 19.346706 -0.589696 -14.722537 11.599515 1.988758 0.635064 -1.590849 -2.184059 -1.105421 17.204194 0.134143 -1.869443 -9.426097 2.272866 -1.737899 4.597273 -6.899459 -4.731816 -0.978123 2.757503 -0.809405 -13.890577 -2.282182 2.124996 0.325660 -0.778520 4.548000 -6.086288 -3.869543 -15.552712 -12.516146 2.297749 -10.220752 4.113296 5.138372 -4.007697 -3.463884 16.717230 -9.511806 0.058503 -13.551575 22.414546 -15.614352 -7.591195 6.773638 -0.589234 
-11.020966 67.910362 -4.233346 109.265316 -35.279100 162.761047 5.591384 1.537927 -5.707225 -1.018849 -7.042575 18.737298 2.046319 17.823709 16.159678 -0.881905 -0.002610 -0.495163 -3.038715 -4.797756 -8.236772 -2.550460 -1.021864 19.826380 -0.531535 -14.334676 12.013397 2.034350 0.653914 -1.462991 -2.055625 -1.331027 17.018451 0.002249 -1.813767 -9.627335 2.245040 -1.854577 4.831212 -6.390038 -4.466216 -0.639107 2.514619 -0.590996 -13.173012 -3.111155 2.617177 0.826622 -3.333875 4.691108 -5.077535 -3.770401 -15.878869 -10.410577 1.090811 -10.121177 4.373666 5.248681 -4.116980 -3.451907 18.800862 -9.249857 0.623215 -13.487197 21.612067 -14.598533 -6.609414 6.443272 -0.447964 
-11.119160 67.960808 -3.886066 109.790655 -35.261076 162.240763 5.706879 1.679857 -5.420222 -0.796097 -7.058754 18.260952 2.854650 17.950413 16.054827 -0.939239 -0.049332 -0.491689 -2.908038 -4.889709 -7.745693 -2.237606 -0.863737 19.391554 -0.630634 -14.293109 12.427774 1.985025 0.710257 -1.327068 -1.956731 -1.495272 16.743325 -0.140580 -1.814166 -9.689571 2.248081 -2.032076 5.048814 -6.138548 -4.322267 -0.757984 2.300110 -0.055780 -12.433943 -4.036905 2.977653 1.361590 -6.185340 4.911675 -4.169156 -4.137553 -16.077154 -8.427997 0.676536 -10.134306 4.580548 5.161665 -4.056078 -3.348531 20.707481 -8.963233 1.300884 -13.162850 20.815548 -13.143424 -5.946225 6.407082 0.361329 
-10.654268 68.006996 -3.832371 110.123506 -35.084579 161.754502 5.944795 1.853163 -5.159050 -0.790757 -7.491532 18.125277 2.342191 18.184745 17.908615 -0.926068 -0.097055 -0.536845 -2.920207 -5.121023 -7.461706 -1.732870 -0.847553 19.674636 -0.022673 -14.042357 13.966990 2.044017 0.725248 -1.269467 -1.891552 -1.565715 16.758438 -0.198772 -1.849314 -10.076176 2.221623 -2.185232 5.348389 -5.473450 -4.123494 -1.026228 2.387481 0.393990 -11.486357 -5.064370 3.514702 2.118762 -9.442585 5.298175 -2.946593 -4.338135 -15.971593 -5.989711 -0.141258 -9.916046 4.574566 5.085320 -4.087420 -3.334459 23.131065 -8.831489 1.892965 -13.584065 20.355108 -11.940626 -5.091684 6.009710 0.254376 
-10.089740 68.048241 -4.125783 110.326309 -35.148550 161.541425 6.221114 2.027984 -4.872396 -0.607330 -7.173465 17.756215 1.580259 17.997997 19.714219 -0.993664 -0.112417 -0.440471 -2.722056 -5.287128 -7.221331 -1.719229 -1.384996 20.010991 0.070446 -13.917353 15.316789 2.177454 0.737061 -1.243640 -1.909681 -1.709393 16.521846 -0.302457 -1.863468 -10.009397 2.167008 -2.441038 5.251702 -4.961232 -3.874945 -0.942182 2.169858 1.175191 -10.803051 -6.347588 4.054311 2.961527 -12.491035 5.718895 -1.632660 -4.578609 -16.581716 -3.869029 -0.932759 -9.922251 4.973025 5.111676 -4.239066 -3.135913 25.076178 -8.685826 2.884333 -13.804131 19.775123 -11.099900 -4.353613 5.548118 0.754209 
-9.496719 68.086960 -4.381288 110.422993 -35.250716 161.049043 6.265776 2.036657 -4.692421 -0.317776 -6.988679 18.284973 0.506281 17.632989 21.353538 -0.978526 -0.054847 -0.481449 -2.742133 -5.364897 -6.851863 -1.652347 -1.787566 20.823707 0.438654 -13.884530 16.578296 2.028075 0.672116 -1.010575 -1.772429 -1.761289 16.467080 -0.560675 -1.975169 -10.191540 2.183160 -2.574399 5.435899 -4.432072 -4.001990 -1.053297 2.157529 1.428026 -10.475676 -7.285617 4.541435 3.689222 -16.484391 6.216938 -0.357689 -4.905065 -16.805489 -1.265499 -2.141968 -9.699766 4.198813 4.543873 -4.097779 -2.867669 27.474657 -8.412146 3.571437 -13.939828 18.300029 -9.624760 -3.130371 5.224419 0.719446 
-8.837936 68.118286 -4.302596 110.512325 -36.479056 160.512765 6.295694 2.089150 -4.673681 -0.523345 -6.544709 18.385159 -1.198217 16.926683 22.796485 -0.938776 -0.038459 -0.450509 -2.875675 -5.514912 -6.050975 -1.895118 -1.882690 20.918325 0.283013 -14.304208 18.206703 2.107001 0.570148 -0.917835 -1.784828 -1.850825 16.608631 -0.748704 -1.979374 -10.444135 2.150184 -2.843523 5.517663 -3.754484 -3.707967 -1.248907 2.127492 1.840814 -10.006545 -8.366181 5.202904 4.263375 -20.283880 6.518553 0.737756 -5.010159 -16.919989 1.282227 -3.196828 -9.531370 3.566607 4.188909 -4.470607 -2.601640 29.546441 -8.424632 4.341417 -14.526451 17.049079 -8.299942 -2.130089 4.912262 0.552199 
-8.047496 68.144066 -4.224398 110.184248 -37.699299 160.142121 6.094279 2.022682 -4.568021 -0.848027 -6.155499 18.457455 -2.981964 16.017407 24.848450 -0.912538 -0.069753 -0.454199 -3.134973 -5.575493 -5.268871 -2.343501 -1.829569 20.921442 0.078884 -14.689416 20.269105 2.093355 0.561247 -0.764244 -1.869128 -2.006040 16.936463 -1.139879 -1.961555 -11.090311 2.147494 -3.036192 5.854849 -3.114701 -3.646468 -1.397278 2.244247 2.428062 -9.698734 -9.368533 5.720213 4.685417 -24.746447 6.824708 1.872637 -4.926599 -17.023634 4.224331 -3.995232 -9.498238 2.969981 3.427132 -4.727545 -2.240862 32.073272 -8.548772 5.146431 -14.998275 15.881914 -6.558091 -1.485668 4.779350 0.070929 
-7.439516 68.161163 -4.782178 109.396140 -37.160337 160.354842 6.040915 2.063938 -4.790900 -1.119441 -5.728694 19.871235 -4.140270 15.657212 26.077290 -0.857609 -0.147192 -0.473332 -3.262952 -5.481321 -4.765024 -2.360830 -1.338626 21.033886 0.029930 -14.344053 20.687458 2.044587 0.652747 -0.717058 -2.002205 -2.035003 17.039084 -1.450215 -2.071196 -11.353028 2.103189 -3.125086 6.040919 -2.952854 -3.733509 -1.543451 2.308741 2.643172 -9.588790 -10.334648 6.029163 5.032294 -28.928286 7.148885 2.770471 -4.877286 -17.203131 5.997509 -4.201916 -9.333704 2.379234 2.725402 -4.442790 -2.105028 34.308882 -8.325226 5.766067 -15.488870 15.352235 -5.880672 -0.659472 4.716027 -0.511212 
-6.895380 68.178314 -4.518324 109.347142 -38.627615 159.735192 5.847447 2.124926 -4.551885 -1.314840 -5.541369 19.687244 -5.295701 14.908213 26.798672 -0.730668 -0.152749 -0.404270 -3.449995 -5.609039 -4.055460 -2.564650 -1.111690 21.270505 -0.158631 -14.560208 21.655241 2.107098 0.648577 -0.620706 -1.902822 -2.118328 17.222253 -1.841843 -2.020829 -11.703961 2.050774 -3.278087 6.318798 -2.460810 -3.814564 -1.660900 2.517692 2.902688 -9.203411 -11.460067 6.306764 5.269774 -32.394641 7.445759 3.613477 -4.941965 -17.696153 8.188897 -4.879823 -9.225711 1.903917 2.160556 -4.521236 -1.474644 36.261891 -8.786206 6.271840 -15.867473 14.461916 -4.532131 0.066760 4.392948 -0.774802 
-6.401089 68.197433 -4.679968 109.329745 -39.475426 159.454369 5.818686 2.078847 -4.592388 -1.279182 -5.345123 19.961809 -6.193721 14.297556 27.396744 -0.707798 -0.152873 -0.421804 -3.428920 -5.713353 -3.610759 -2.647151 -1.165776 21.394874 -0.131144 -14.390003 22.154200 2.131714 0.606147 -0.473315 -1.884906 -2.159017 17.299972 -2.157939 -1.990197 -12.072779 2.077449 -3.484721 6.443618 -1.938218 -3.986008 -1.867725 2.698623 3.148957 -8.652716 -12.590823 6.705651 5.582409 -35.589666 7.464723 4.639788 -5.203496 -17.860913 10.040035 -5.700355 -9.280346 1.400065 1.761711 -4.694566 -1.060536 37.842986 -8.934582 6.958895 -16.085086 13.434179 -4.184465 0.783588 4.288483 -1.687198 
-6.068373 68.213806 -4.555368 109.362150 -40.422889 158.845721 5.827123 2.192837 -4.659708 -1.551643 -5.256172 20.608023 -6.901730 13.660089 27.555379 -0.563812 -0.189380 -0.446846 -3.528153 -5.851570 -3.102000 -2.575390 -0.942104 21.623842 -0.202735 -14.193614 22.341815 2.133467 0.651591 -0.453981 -1.960653 -2.159229 17.554145 -2.427131 -2.011961 -12.257364 2.020486 -3.664575 6.668679 -1.559928 -4.011769 -2.085778 2.907796 3.380146 -8.520396 -13.699717 6.851621 5.819019 -38.158702 7.653907 5.200854 -5.289206 -17.713177 11.397506 -6.327158 -9.210038 0.966246 1.458193 -4.503755 -0.692869 39.333702 -9.130908 7.297609 -16.448700 12.443478 -3.588267 1.528039 4.078568 -2.319563 
-5.733862 68.236488 -4.292189 109.415823 -41.462997 158.189371 5.769771 2.247872 -4.637938 -1.781188 -5.083096 21.009885 -7.530295 13.044869 27.715410 -0.529519 -0.186329 -0.431960 -3.619579 -5.917293 -2.659944 -2.576877 -0.680256 21.836884 -0.199092 -14.026971 22.550569 2.099450 0.646936 -0.341852 -1.964697 -2.143863 17.734047 -2.633822 -2.038761 -12.335505 2.006341 -3.761618 6.717194 -1.353771 -4.290579 -2.284734 3.012477 3.567546 -8.231075 -14.714062 6.777729 5.941404 -40.427723 7.747148 5.832221 -5.365408 -17.457828 12.342570 -6.982132 -9.304531 0.590738 1.193129 -4.284599 -0.308149 40.504142 -9.493537 7.897573 -16.819661 11.558331 -3.174097 2.323950 4.055216 -2.704747 
-5.450144 68.261719 -4.124100 109.425903 -42.797651 157.713444 5.645697 2.244688 -4.660679 -2.016587 -4.757459 21.208257 -7.988694 12.426790 27.687387 -0.481460 -0.149674 -0.441415 -3.747159 -5.898730 -2.382870 -2.694830 -0.677446 22.200855 -0.194876 -13.900167 22.586448 2.142461 0.606262 -0.325227 -2.097685 -2.131189 18.166637 -2.757209 -2.016733 -12.505501 1.989264 -3.877556 6.854279 -0.862296 -4.279196 -2.395853 3.286206 3.892738 -8.206679 -15.623316 6.728275 6.175851 -42.146349 7.876907 6.498441 -5.720146 -18.066678 13.401516 -7.310623 -9.331258 0.155306 1.096462 -4.296736 0.347754 41.530862 -10.019916 8.500444 -17.193573 10.938429 -2.852664 2.941000 3.924372 -3.210118 
-5.086374 68.291229 -4.216767 109.087314 -43.652960 157.517547 5.453193 2.230633 -4.630339 -2.161016 -4.497582 21.635548 -8.587204 11.931810 27.743297 -0.526926 -0.121849 -0.402821 -3.847610 -5.935812 -1.832458 -2.831805 -0.314855 21.974154 0.003436 -13.628342 22.460046 2.079720 0.559165 -0.168133 -2.170632 -2.071515 18.259585 -3.011817 -2.051163 -12.666722 2.021263 -3.931249 6.959553 -0.666039 -4.343820 -2.541133 3.347840 3.958660 -7.919095 -16.136431 6.683600 6.249399 -43.775671 7.853179 6.891070 -5.747035 -18.177770 14.090324 -7.876584 -9.492699 0.084411 0.703437 -4.281339 0.882835 42.660533 -10.402807 9.130398 -17.269452 10.345374 -2.522712 3.452960 4.003234 -3.863996 
-5.041784 68.325432 -4.296561 109.455414 -43.658874 157.129597 5.635140 2.080045 -5.441173 -2.039220 -4.397216 23.368306 -8.452436 11.629357 26.909372 -0.530160 -0.197782 -0.427920 -3.511492 -5.942386 -1.643596 -2.553077 0.048658 21.745689 0.128333 -12.881104 21.640319 1.999755 0.571349 -0.166747 -2.213636 -1.965221 18.079487 -2.964094 -2.052664 -12.219015 1.954376 -3.976181 6.640514 -0.642714 -4.354862 -2.377553 3.368823 3.884560 -7.853899 -16.803945 6.717020 6.321438 -44.621275 7.880643 7.463899 -6.101821 -18.432651 14.289512 -8.273676 -9.806101 -0.063737 0.646523 -4.068556 0.956714 43.286937 -10.631876 9.697996 -17.432176 10.130881 -2.880102 4.004140 4.162918 -4.591433 
-4.775055 68.361923 -4.766744 109.225562 -44.281892 157.170116 5.655281 2.005319 -5.948662 -2.179415 -4.152901 24.512639 -8.755196 11.430950 26.662770 -0.624765 -0.265696 -0.421447 -3.507620 -6.027715 -1.558216 -2.396010 0.028492 21.908893 0.123866 -12.430736 20.791085 1.957497 0.552906 -0.173277 -2.174228 -2.061713 17.939473 -3.039684 -2.094653 -12.101287 1.992654 -4.088044 6.583200 -0.655016 -4.227667 -2.360392 3.496423 4.101929 -7.902721 -17.190967 6.892047 6.374455 -45.564309 7.933231 7.994010 -6.293279 -19.012663 14.781064 -8.428475 -9.953533 -0.182456 0.365594 -4.215559 1.248949 44.013456 -11.200579 10.273827 -17.751871 10.092399 -3.161192 4.419779 4.269532 -5.344912 
-4.797088 68.398651 -5.400570 108.867861 -43.461072 157.538688 5.790843 1.705345 -6.809313 -2.185616 -4.027325 26.625495 -8.336725 11.154321 25.375556 -0.543067 -0.461828 -0.526906 -3.298389 -5.902656 -1.302049 -2.181797 0.156883 21.246798 0.387488 -11.260151 18.832422 1.787167 0.679085 -0.231082 -2.390374 -1.860452 17.922015 -2.925410 -2.165636 -11.576615 1.862891 -3.879857 6.383588 -0.393576 -4.256879 -2.267586 3.652255 4.034814 -7.962576 -17.591280 6.600139 6.561276 -46.098386 7.862521 8.298547 -6.481319 -19.378198 14.771419 -8.583712 -10.156616 -0.054430 0.201309 -4.000492 1.536085 44.824067 -11.322348 10.870065 -18.022896 10.321169 -3.241606 4.947094 4.615260 -5.833595 
-4.896334 68.437027 -5.490419 109.113435 -43.645855 157.005876 6.029346 1.489960 -7.828406 -2.470827 -3.944279 29.101174 -7.947439 10.543550 24.682412 -0.569252 -0.459747 -0.472369 -3.198161 -5.948411 -1.088904 -2.059128 0.204596 21.453515 0.235913 -10.476889 18.059723 1.691508 0.665752 -0.300413 -2.462168 -1.664927 18.131490 -2.650243 -2.284340 -11.271997 1.717419 -3.911926 6.073423 -0.082912 -4.162658 -2.051431 3.584053 4.035033 -8.101822 -18.254996 6.653673 6.643249 -46.324351 8.139589 8.360230 -6.686747 -19.554059 14.732192 -8.438056 -10.142680 0.041596 0.408912 -3.960162 1.717490 44.827988 -11.724636 11.237269 -18.340095 10.661388 -2.941851 5.023984 4.746187 -5.796501 
-4.764272 68.479149 -6.292082 108.475472 -43.965476 157.458674 5.970023 1.302196 -8.548448 -2.627141 -3.623493 30.877782 -8.213797 10.130387 24.295942 -0.604429 -0.545360 -0.517824 -3.305991 -5.906332 -1.033161 -2.184847 0.071597 21.740799 0.143672 -10.159658 17.274916 1.529551 0.691184 -0.358025 -2.556427 -1.606218 18.183258 -2.611074 -2.317548 -11.122643 1.691207 -3.879072 5.997766 0.231285 -4.154291 -1.968772 3.706894 4.149005 -7.728017 -18.334286 6.713579 6.858227 -46.611816 8.165931 8.643480 -6.847762 -19.984173 14.728103 -8.461688 -10.326011 -0.016279 0.132945 -4.309594 2.252150 45.516039 -12.406605 11.647350 -18.735588 11.015041 -3.203805 5.029051 4.993077 -6.399895 
-4.969326 68.526100 -6.534147 108.467032 -43.564299 157.579089 6.148148 1.164521 -9.579090 -2.676900 -3.330943 32.889863 -7.769498 9.952206 23.479438 -0.589055 -0.595501 -0.557683 -3.343484 -6.026535 -1.076653 -1.991495 -0.188747 21.584663 0.289723 -9.492554 16.000473 1.422359 0.677142 -0.418004 -2.662276 -1.489164 18.204524 -2.483639 -2.419612 -10.966543 1.619565 -3.848182 5.915993 0.539826 -3.971320 -1.998764 3.786682 4.217799 -7.989187 -18.336390 6.667789 6.853729 -46.758275 8.091420 8.819006 -6.986566 -20.559284 14.831163 -8.117289 -10.543549 -0.388950 0.017326 -4.290871 2.281897 45.735913 -12.457868 11.871270 -18.935049 11.398368 -3.219565 5.099388 5.141023 -6.997194 
-4.952514 68.572365 -6.548280 108.491961 -43.939844 157.410972 6.037391 0.951023 -9.920696 -2.803885 -3.550590 33.743162 -7.499410 9.694433 23.037456 -0.499343 -0.650341 -0.579996 -3.311350 -6.012924 -0.943606 -2.140219 -0.108919 21.477768 0.330879 -9.369919 15.944570 1.345703 0.712533 -0.387423 -2.720674 -1.371071 18.250679 -2.338385 -2.461790 -10.843150 1.535086 -3.871379 5.716536 0.808917 -3.806998 -1.930075 3.762066 4.193090 -7.473201 -18.680138 6.622591 6.868144 -46.506163 8.075270 8.985901 -7.223844 -20.417166 14.849138 -7.841190 -10.626646 -0.382644 0.210190 -4.361137 2.449489 45.645534 -12.805587 12.142501 -19.017670 11.455225 -3.330162 4.598237 5.142573 -7.103177 
-4.981758 68.620003 -6.823545 108.339498 -43.936010 157.622109 5.867981 0.596244 -10.072609 -2.830273 -3.811888 34.193783 -7.055448 9.835617 22.386542 -0.510501 -0.615965 -0.582421 -3.325820 -5.853796 -1.083766 -2.000877 0.083725 21.556269 0.347688 -9.185784 15.519644 1.307934 0.676369 -0.409074 -2.803739 -1.289273 18.325237 -2.234014 -2.457702 -10.817870 1.482380 -3.794852 5.752281 1.111483 -3.702028 -2.104103 4.034508 4.307254 -7.402835 -18.434601 6.606274 6.838995 -46.267432 8.035532 9.075431 -7.431179 -20.749385 14.910683 -7.545626 -10.768883 -0.712261 0.108167 -4.524713 2.484236 45.877628 -13.116897 12.364424 -19.027450 11.619597 -3.233418 4.363071 5.120617 -7.214740 
