HIERARCHY
ROOT Hips
{
	OFFSET -0.179506 -22.333345 2.821913
	CHANNELS 6 Xposition Yposition Zposition Zrotation Yrotation Xrotation 
	JOINT LeftUpLeg
	{
		OFFSET 6.951974 -9.140623 -0.681533
		CHANNELS 3 Zrotation Yrotation Xrotation
		JOINT LeftLeg
		{
			OFFSET 3.427654 -37.519855 -0.449580
			CHANNELS 3 Zrotation Yrotation Xrotation
			JOINT LeftFoot
			{
				OFFSET -1.359570 -39.796059 -4.369333
				CHANNELS 3 Zrotation Yrotation Xrotation
				JOINT LeftToe
				{
					OFFSET 2.635814 -5.579078 11.928840
					CHANNELS 3 Zrotation Yrotation Xrotation
					End Site
					{
						OFFSET 0.000000 0.000000 0.000000
					}
				}
			}
		}
	}
	JOINT RightUpLeg
	{
		OFFSET -6.767048 -9.052170 -0.431982
		CHANNELS 3 Zrotation Yrotation Xrotation
		JOINT RightLeg
		{
			OFFSET -3.829005 -38.256897 -0.885003
			CHANNELS 3 Zrotation Yrotation Xrotation
			JOINT RightFoot
			{
				OFFSET 1.577377 -39.841461 -4.231180
				CHANNELS 3 Zrotation Yrotation Xrotation
				JOINT RightToe
				{
					OFFSET -2.537174 -4.814398 12.334795
					CHANNELS 3 Zrotation Yrotation Xrotation
					End Site
					{
						OFFSET 0.000000 0.000000 0.000000
					}
				}
			}
		}
	}
	JOINT Spine
	{
		OFFSET -0.253288 10.896323 -2.669631
		CHANNELS 3 Zrotation Yrotation Xrotation
		JOINT Spine1
		{
			OFFSET 0.548704 13.518043 0.109247
			CHANNELS 3 Zrotation Yrotation Xrotation
			JOINT Spine2
			{
				OFFSET 0.145701 5.292222 2.542457
				CHANNELS 3 Zrotation Yrotation Xrotation
				JOINT Neck
				{
					OFFSET -0.277840 21.387037 -4.285703
					CHANNELS 3 Zrotation Yrotation Xrotation
					JOINT Head
					{
						OFFSET 0.515184 6.496960 5.134897
						CHANNELS 3 Zrotation Yrotation Xrotation
						End Site
						{
							OFFSET 0.000000 0.000000 0.000000
						}
					}
				}
				JOINT LeftShoulder
				{
					OFFSET 7.884473 12.174932 -3.408961
					CHANNELS 3 Zrotation Yrotation Xrotation
					JOINT LeftArm
					{
						OFFSET 9.097692 3.046888 -0.886815
						CHANNELS 3 Zrotation Yrotation Xrotation
						JOINT LeftForeArm
						{
							OFFSET 25.961220 -1.277207 -2.745643
							CHANNELS 3 Zrotation Yrotation Xrotation
							JOINT LeftHand
							{
								OFFSET 24.923361 0.898606 -0.117091
								CHANNELS 3 Zrotation Yrotation Xrotation
								End Site
								{
									OFFSET 0.000000 0.000000 0.000000
								}
							}
						}
					}
				}
				JOINT RightShoulder
				{
					OFFSET -8.175920 11.883285 -3.861528
					CHANNELS 3 Zrotation Yrotation Xrotation
					JOINT RightArm
					{
						OFFSET -9.601238 3.255117 -0.914307
						CHANNELS 3 Zrotation Yrotation Xrotation
						JOINT RightForeArm
						{
							OFFSET -25.374195 -1.332924 -2.140099
							CHANNELS 3 Zrotation Yrotation Xrotation
							JOINT RightHand
							{
								OFFSET -25.529810 0.777228 -0.555919
								CHANNELS 3 Zrotation Yrotation Xrotation
								End Site
								{
									OFFSET 0.000000 0.000000 0.000000
								}
							}
						}
					}
				}
			}
		}
	}
}
MOTION
Frames: 117
Frame Time: 0.033333
-0.179506 55.749268 2.821913 131.673510 -83.007683 140.983037 0.412925 0.730294 4.065491 0.662471 -1.850917 1.435108 -5.162089 7.882154 20.934906 -0.362593 -0.349426 -0.372244 -2.786725 -4.968100 3.138077 -0.130287 -2.835480 4.154099 10.574265 -7.728818 22.638206 -0.143270 -1.248546 0.855395 -1.210152 -1.259260 15.464966 -0.713543 -2.569631 -8.039578 3.019360 -3.685536 6.389673 -0.757166 -4.183648 -2.671835 2.502498 2.109092 0.281343 -13.423427 -2.649210 5.496272 -50.946849 -2.613619 14.792688 -10.583615 -20.644785 24.668774 -16.834631 -12.662025 -1.506032 9.926357 5.521001 1.109488 58.536679 2.661289 20.718697 2.160412 22.476452 14.292852 15.480350 4.103829 2.099255 
-0.096812 55.748550 2.990520 134.274648 -83.155988 138.290718 0.547027 0.707963 4.046705 0.614404 -1.795671 1.566302 -5.326746 7.719717 21.167815 -0.390550 -0.412133 -0.429790 -2.733731 -4.941497 3.257503 -0.095017 -3.058038 4.152894 10.642786 -7.886040 23.113285 -0.142514 -1.277830 0.896784 -1.292048 -1.266103 15.403797 -0.615160 -2.569523 -7.798714 3.031373 -3.715175 6.313312 -0.871788 -4.113790 -2.777578 2.454686 2.185761 -0.085551 -13.608628 -2.932867 5.576878 -50.828161 -2.710076 15.074327 -10.647781 -20.871490 24.737651 -16.859234 -12.734509 -1.746052 10.257109 5.641120 1.416437 58.060673 2.783422 20.875691 2.116602 22.462119 14.096026 15.703166 3.969517 2.009070 
-0.061146 55.743958 3.082727 134.612346 -83.131212 137.932681 0.642527 0.794170 4.034508 0.488311 -1.642006 1.593319 -5.426735 7.523620 21.347912 -0.406316 -0.396176 -0.445256 -2.789953 -4.970685 3.280593 -0.025025 -3.134767 4.115359 10.716431 -7.883049 23.339934 -0.046902 -1.220847 0.899976 -1.332841 -1.273947 15.370107 -0.612485 -2.602735 -7.787199 3.057044 -3.729406 6.332780 -0.976605 -4.055210 -2.866694 2.484514 2.349287 -0.381828 -13.639515 -3.104780 5.705561 -50.779131 -2.679648 15.237331 -10.886343 -21.103599 24.928989 -16.942028 -12.787752 -1.965233 10.401969 5.802038 1.632555 57.816989 2.822646 20.872985 2.076560 22.618949 13.959961 16.050081 3.827840 2.094450 
-0.094895 55.739738 3.116299 135.888840 -83.119727 136.832650 0.783768 0.794084 3.962535 0.470803 -1.505132 1.403434 -5.425936 7.304075 21.242807 -0.406506 -0.398016 -0.469778 -2.735525 -4.966906 3.223687 0.117019 -3.276522 3.929712 10.739385 -7.842114 23.333527 -0.024898 -1.159274 0.875403 -1.422389 -1.251986 15.271181 -0.507501 -2.617546 -7.728673 3.022408 -3.746729 6.289595 -1.001320 -3.928843 -2.990149 2.514694 2.546444 -0.644493 -13.802077 -3.252342 5.802582 -50.573292 -2.650050 15.378592 -11.202012 -21.620874 25.078682 -16.810752 -12.774516 -2.264977 10.796761 5.825943 1.883126 57.285388 2.784039 20.935206 2.191236 23.133465 13.874317 16.064850 3.758841 2.154271 
-0.038553 55.733261 2.785180 134.780125 -83.355984 137.855227 0.751341 0.763166 3.977216 0.468808 -1.406971 1.535258 -5.656436 7.087386 21.432128 -0.453040 -0.422139 -0.507530 -2.746993 -4.901708 3.387133 0.060365 -3.441403 3.818685 10.591283 -7.995974 23.310645 0.028208 -1.208187 0.870631 -1.533984 -1.259021 15.341427 -0.441458 -2.560620 -7.593172 3.011757 -3.775234 6.202320 -1.097478 -3.787376 -3.104522 2.427238 2.704222 -1.023697 -13.911354 -3.524784 5.731755 -50.263190 -2.719945 15.540335 -11.869844 -22.312628 25.572558 -16.750328 -12.832618 -2.373581 11.002324 5.816730 2.077621 57.014916 2.640472 21.026627 2.624579 24.230071 13.738542 16.183748 3.945563 1.847971 
-0.045228 55.722916 2.478017 134.451955 -83.501363 138.286721 0.858612 0.769115 3.776036 0.432603 -1.348788 1.725395 -5.821215 6.850006 21.356660 -0.445080 -0.414496 -0.527946 -2.703502 -4.797368 3.282045 0.146938 -3.554787 3.872568 10.444234 -8.057207 23.090620 0.067717 -1.156654 0.790173 -1.619388 -1.275601 15.289814 -0.416552 -2.564923 -7.622430 3.041113 -3.841371 6.276200 -1.139559 -3.799787 -3.361144 2.430371 2.831324 -1.439241 -14.027860 -3.651680 5.630457 -50.085653 -2.900452 15.688163 -12.530443 -23.406427 26.150157 -16.372551 -12.934124 -2.730558 11.199364 5.767387 2.070038 56.641069 2.666181 21.100292 3.052878 25.687609 13.810843 15.977532 4.184551 1.644225 
-0.049811 55.709023 2.155090 133.459341 -83.586456 139.377883 0.961721 0.782037 3.656699 0.370765 -1.148886 1.797405 -5.924579 6.564658 21.309023 -0.484727 -0.384187 -0.503667 -2.676787 -4.826430 3.301621 0.230421 -3.798724 3.638732 10.399815 -8.170741 22.954668 0.025517 -1.096792 0.701336 -1.761023 -1.281719 15.180084 -0.339027 -2.505299 -7.547458 3.019299 -3.833144 6.263973 -1.206908 -3.748251 -3.482552 2.445274 3.004096 -1.803958 -13.949002 -3.828285 5.605910 -49.534154 -3.132091 15.855667 -13.339528 -25.111144 26.455253 -16.153269 -13.282958 -3.355699 11.293243 5.916692 2.059415 55.958506 2.853789 21.014021 3.284237 28.082551 13.649229 16.020725 4.659094 1.172118 
-0.046983 55.694275 1.857400 132.010438 -83.635226 140.798639 1.016803 0.758402 3.666771 0.327275 -1.063476 1.871106 -6.107345 6.472739 21.275363 -0.548974 -0.335166 -0.432764 -2.687222 -4.805554 3.395300 0.267427 -3.968923 3.511435 10.448222 -8.219471 22.806364 0.072195 -1.120474 0.586781 -1.897428 -1.275556 15.030666 -0.281039 -2.459792 -7.452366 3.059939 -3.847444 6.230522 -1.359674 -3.545310 -3.547497 2.490408 3.418146 -2.096807 -13.754253 -3.773136 5.586152 -48.545346 -3.210187 16.027682 -14.348893 -27.413852 26.923251 -15.779202 -13.854281 -4.333743 11.030606 5.790139 1.921094 54.964454 2.806024 20.874781 3.421898 31.275820 13.278447 15.920754 5.219252 0.220805 
-0.023647 55.679764 1.717414 131.703009 -83.708268 141.032400 1.049252 0.690032 3.816571 0.318276 -1.084550 1.714380 -6.258663 6.501786 21.409121 -0.611701 -0.284486 -0.417684 -2.678916 -4.873343 3.531776 0.259916 -4.385717 3.375707 10.564595 -8.328057 22.843830 0.163340 -1.150203 0.480922 -2.000430 -1.326435 14.958812 -0.248791 -2.371399 -7.591923 3.165724 -3.898336 6.364667 -1.492457 -3.401327 -3.746942 2.553311 3.887674 -2.416400 -13.257666 -3.580081 5.456268 -47.309959 -3.317527 16.139997 -15.814105 -30.563395 27.500542 -15.234732 -14.718004 -5.855801 10.692881 5.349719 1.846923 53.594323 2.563709 20.753499 3.756464 35.185101 12.834637 15.786841 5.950008 -1.110230 
-0.029758 55.666077 1.518509 131.698821 -83.685457 141.336926 1.072677 0.594290 3.627686 0.510414 -1.489908 1.459673 -6.257892 6.685224 21.429781 -0.518533 -0.373182 -0.493878 -2.499608 -4.999929 3.419129 0.266554 -5.015737 2.946707 10.807394 -8.517808 22.758144 -0.013949 -1.018747 0.130953 -2.117641 -1.420477 14.908372 -0.367918 -2.273873 -8.206964 3.309419 -4.005517 6.952599 -1.671958 -3.577487 -4.285945 2.681083 4.023631 -2.832547 -12.439793 -3.223790 5.127179 -45.352850 -3.423867 16.206772 -18.341622 -34.900378 28.892979 -14.080008 -15.605314 -7.911065 10.148747 4.660838 1.755207 51.301790 2.203825 20.446454 4.953707 40.270153 13.230029 14.665183 6.924939 -2.468211 
-0.100425 55.646988 2.019885 134.446806 -83.489683 138.714915 1.087095 0.458635 3.675781 0.590420 -1.734733 1.121277 -6.137610 6.991461 21.052207 -0.501878 -0.308820 -0.415968 -2.451937 -4.975736 3.415804 0.358029 -5.471558 2.661254 11.121914 -8.623450 22.941685 0.071117 -1.083927 -0.419771 -2.336547 -1.584508 14.744283 -0.147973 -2.154548 -8.295437 3.466514 -4.042991 7.132265 -1.828868 -3.403243 -4.576219 2.916625 4.370071 -3.334690 -11.422839 -2.895967 4.792883 -42.956012 -3.476529 16.216754 -20.845895 -40.908184 29.244570 -12.417853 -16.861948 -10.619832 9.670553 3.962548 1.604813 49.041395 1.530527 20.247046 4.736650 46.651954 12.162289 13.871453 8.052656 -4.082615 
-0.304919 55.629532 2.395231 135.996557 -83.126241 137.705477 1.197366 0.386620 3.399305 0.638797 -1.827009 0.690782 -5.979957 7.173471 20.195963 -0.536089 -0.173010 -0.391246 -2.304401 -4.953261 3.177994 0.480874 -5.672925 2.090977 11.528425 -8.420430 22.430669 0.002157 -1.216845 -0.880506 -2.468619 -1.568330 14.311314 -0.082049 -2.072599 -8.371979 3.694447 -4.019948 7.248924 -2.034555 -3.353410 -4.987487 2.942757 4.728587 -3.400191 -10.364837 -2.484117 4.453917 -39.626421 -3.647348 15.821626 -23.985755 -47.780163 30.408700 -10.433742 -17.749940 -13.568556 9.109431 2.888788 1.324396 45.831104 0.539689 19.986600 5.277050 53.926439 12.158873 12.543525 8.962176 -5.414483 
-0.415336 55.610123 2.425161 137.121977 -83.081224 136.862502 1.276601 0.294544 3.401957 0.714407 -1.949020 0.177892 -6.109788 7.446301 19.685562 -0.505817 -0.152994 -0.421635 -2.277323 -5.096779 2.887738 0.686288 -6.194571 2.142630 11.679666 -8.272345 21.973962 0.154906 -1.216074 -1.179123 -2.545349 -1.653970 14.205333 -0.030205 -1.972878 -8.593928 3.873687 -3.974579 7.339653 -2.227143 -3.461889 -5.472490 3.115972 4.934264 -3.570442 -9.160685 -1.995758 3.974266 -35.403397 -3.818614 14.807541 -27.345309 -55.596032 31.224465 -8.228190 -18.954103 -17.144791 8.395950 1.786387 1.186554 42.144990 -0.568998 19.465219 5.962113 62.400209 12.830870 10.829096 9.993625 -6.967290 
-0.594569 55.589622 2.989942 139.382135 -82.722161 134.985880 1.386922 0.108471 3.376973 0.667482 -2.285314 -0.490344 -5.894293 8.106396 18.981730 -0.525412 0.020308 -0.445390 -2.176641 -5.047184 2.463998 0.811645 -6.512065 2.164757 11.945122 -8.283968 21.638678 0.467477 -1.443183 -1.551769 -2.600904 -1.768653 13.753185 0.105759 -1.859731 -8.686750 4.102132 -3.949169 7.323760 -2.322122 -3.571260 -6.055381 3.348711 5.137187 -3.515778 -7.868517 -1.442034 3.501465 -30.531035 -3.972453 13.433661 -29.606441 -63.286813 30.424673 -6.090043 -19.695900 -21.340794 7.782289 0.691152 1.009046 38.164068 -1.715668 18.855604 5.854200 71.097277 12.278521 9.354024 10.507189 -9.523615 
-0.656641 55.566551 2.146750 139.240028 -83.223027 135.614637 1.557152 0.012807 3.230334 0.683356 -2.497149 -1.185890 -6.288887 8.269305 18.837465 -0.642749 0.034505 -0.491667 -1.990955 -5.022623 2.081215 0.952701 -6.638539 2.099902 11.444998 -8.557875 20.803878 0.884437 -1.349839 -1.364059 -2.675935 -1.942134 13.651011 0.099737 -1.722784 -9.493642 4.222461 -3.970436 7.440475 -2.483442 -3.894108 -5.987978 3.576136 5.615965 -3.482147 -6.821334 -0.813478 2.951604 -24.843794 -4.037684 11.626378 -30.215578 -70.092215 27.795247 -4.015378 -20.399188 -25.064184 7.148483 -0.368288 1.004378 33.174375 -2.584163 17.729047 6.446248 78.293520 12.183291 7.675453 11.343161 -11.709633 
-0.900569 55.544876 2.608279 141.667481 -82.837268 133.922360 1.773026 -0.193629 2.842138 0.624787 -2.727999 -1.826543 -5.736601 8.572201 18.063487 -0.771145 0.060240 -0.598624 -1.724113 -4.947825 1.553963 1.092628 -6.437859 1.660425 11.263866 -8.523068 20.417360 0.933681 -1.362777 -1.474857 -2.754733 -2.150654 13.413538 0.428205 -1.520276 -9.674743 4.095554 -3.976336 7.177662 -2.326888 -4.148850 -6.004437 3.714273 5.689940 -3.707588 -5.737163 -0.345654 2.265134 -19.019142 -4.200771 9.286017 -25.634353 -75.127481 20.222921 -2.114706 -20.374302 -26.757538 6.609441 -1.604209 0.822854 28.378947 -3.321139 16.590433 2.753649 84.155884 7.659560 6.190152 11.741387 -12.874342 
-1.051690 55.519409 2.263723 140.386971 -82.833146 135.897801 1.918839 -0.330504 2.525030 0.524736 -2.784073 -2.551371 -5.598786 8.712138 17.839642 -0.925968 0.091800 -0.606493 -1.658752 -4.989596 1.043568 1.320778 -6.185451 1.282149 10.965681 -8.536493 19.745712 1.140674 -1.230730 -1.274168 -2.814551 -2.217372 13.001024 0.681557 -1.479387 -9.781586 3.874721 -3.961237 7.048639 -2.445120 -4.447883 -6.075439 3.756301 5.072058 -3.714193 -4.442361 -0.068803 1.513273 -12.804862 -4.066935 6.525645 -14.938904 -78.050517 6.402727 -0.663175 -20.482403 -28.518320 5.962564 -2.536741 0.514979 23.108069 -4.189687 14.691904 -59.870958 88.302571 -56.203135 4.420010 12.140416 -14.389069 
-1.251138 55.489479 2.503210 141.714044 -82.558137 135.048927 2.110489 -0.485665 2.287889 0.475638 -3.290977 -3.017540 -5.191270 9.240427 17.222411 -1.003700 0.092826 -0.589618 -1.479143 -4.891959 0.728030 1.456591 -5.477670 1.004210 10.763340 -8.914291 19.194990 1.367906 -1.112846 -1.164758 -2.795554 -2.304457 12.624448 0.874637 -1.511471 -9.808773 3.777839 -3.996323 6.786883 -2.749761 -4.676062 -5.952681 3.753683 4.855868 -4.319853 -3.421829 0.223678 0.668308 -7.293825 -3.456138 3.393780 1.700164 -77.917044 -12.970784 0.676156 -20.179020 -27.767157 5.277316 -3.555439 0.125858 18.101340 -5.173567 12.686615 -115.368067 86.244981 -112.247362 2.423662 12.323071 -13.493550 
-1.424215 55.456238 2.605830 144.779627 -82.592254 132.375300 2.344253 -0.658611 1.986683 0.433309 -4.084751 -3.292648 -4.922485 9.837412 16.649707 -1.196885 0.026073 -0.578934 -1.288914 -4.664244 0.424507 1.598077 -4.181105 1.004422 10.112797 -9.877314 18.677413 1.452403 -1.001460 -0.972441 -2.848983 -2.249073 12.180995 0.901789 -1.594819 -10.246047 3.772731 -3.947132 6.923088 -2.951985 -4.684748 -6.069229 4.150748 4.907900 -5.012708 -2.184455 0.591319 -0.259399 -2.472047 -2.104534 0.326256 12.998347 -75.031202 -27.001094 3.262835 -19.588172 -26.229864 4.521780 -4.590312 -0.465168 13.826568 -6.512312 10.366560 -106.936263 83.584911 -104.627901 -0.920827 12.791891 -12.157300 
-1.592363 55.423981 2.875165 143.319144 -82.046098 134.311653 2.548062 -0.426711 1.514353 0.255157 -4.349565 -3.329397 -4.588050 10.016460 16.291895 -1.426752 0.125505 -0.640515 -1.248625 -4.571032 -0.102643 1.694349 -3.658122 0.955191 10.001168 -10.221669 18.537126 1.569619 -0.949571 -0.900119 -2.879534 -2.211352 11.885323 1.037268 -1.598468 -10.847403 3.748828 -3.956966 7.089922 -3.069535 -4.697539 -6.086329 4.041888 4.454547 -5.496755 -0.969332 1.010900 -0.901518 1.978706 -0.857617 -2.077497 11.408384 -70.177034 -27.472818 4.933912 -18.722466 -23.813636 4.107637 -5.626332 -1.304901 9.695849 -7.427087 8.252692 -78.021228 81.597128 -77.120515 -4.043874 12.765996 -10.888846 
-1.687459 55.404480 1.784813 141.852349 -82.549687 136.357236 2.667309 -0.368007 1.036474 0.484587 -5.244103 -3.658702 -4.734846 10.038539 16.498828 -1.597038 0.172555 -0.789583 -1.250390 -4.841794 -0.494793 2.050291 -3.123584 0.892467 9.332913 -11.177211 17.431461 1.507076 -0.999524 -0.623190 -2.813528 -2.129585 11.701709 0.938647 -1.597069 -11.479824 3.717541 -3.982040 7.559666 -3.117661 -4.936570 -6.376888 4.110530 3.679944 -6.335548 0.389905 1.402794 -1.684420 6.298226 0.519361 -4.514885 6.670708 -64.365146 -23.993825 7.904712 -18.158699 -18.966977 3.359113 -6.479271 -1.858322 5.738200 -8.706828 5.686774 -52.593157 77.922585 -52.449422 -8.035618 13.615238 -6.820098 
-1.683873 55.391289 1.555689 135.360229 -81.768248 142.711135 2.679703 -0.114419 1.052377 0.323730 -5.715219 -3.312386 -4.294067 10.594539 16.860460 -1.704422 0.104783 -1.087778 -1.448331 -5.049686 -0.426002 2.232564 -2.800296 0.761005 9.504194 -11.843526 17.339528 1.202267 -0.983098 -0.377436 -2.838643 -2.042845 11.818084 0.839829 -1.465937 -12.214964 3.507478 -3.836704 7.680346 -2.662872 -5.021793 -5.880033 4.030294 3.284817 -6.508212 1.685217 1.872995 -2.099619 9.269067 1.550549 -7.015577 1.130415 -55.981984 -19.682453 8.387138 -18.282628 -14.013310 2.246037 -7.122825 -2.172591 3.142332 -9.337495 3.683740 -31.257236 70.914128 -32.448086 -9.439832 13.400147 -4.892970 
-1.917502 55.383438 1.003745 135.638195 -81.978834 142.744787 2.882525 0.452453 1.022895 0.563471 -6.868361 -3.888906 -4.640531 10.905186 16.158120 -1.625132 0.046602 -1.454194 -1.336443 -5.247183 -0.370271 2.478860 -2.321734 0.435960 9.474728 -13.128214 15.998040 0.470969 -0.918886 -0.330816 -2.774327 -1.980265 11.881170 0.650629 -1.412696 -13.042663 3.517141 -3.842813 8.210905 -2.536198 -5.328249 -5.790544 4.048356 3.157410 -7.292885 3.374695 2.346263 -2.330487 11.572073 2.676065 -8.985211 -2.080628 -47.880579 -15.726314 10.030046 -18.319782 -7.850087 1.221517 -7.855613 -2.542197 1.427133 -9.980982 1.155105 -19.166677 60.025722 -21.070073 -11.957649 13.875803 -0.581127 
-1.968498 55.385689 0.520493 128.494797 -80.965106 149.528282 2.857903 1.025354 1.105786 0.381164 -7.606642 -3.058268 -4.312410 11.681373 15.912343 -1.539924 -0.092503 -1.784607 -1.508410 -5.507715 -0.175918 2.543886 -1.866376 0.572622 9.756425 -13.745038 15.230870 -0.416953 -0.443926 -0.316038 -2.786834 -1.973836 11.725150 0.375812 -1.283294 -13.307190 3.339305 -3.717693 8.266866 -2.452145 -5.866007 -5.178878 3.866955 2.033000 -7.767844 4.755722 2.823736 -2.495064 13.527772 3.157370 -11.073920 -2.889377 -39.918957 -15.085450 10.634762 -17.846164 -2.850349 -0.126306 -8.183723 -2.542039 0.283552 -10.697436 -1.000208 -13.940082 50.626613 -16.952099 -12.931056 13.337880 1.721557 
-2.131147 55.387550 -0.862685 127.137605 -81.884898 151.388069 3.064730 1.203064 0.636676 0.453805 -8.479066 -3.183561 -4.833299 11.700578 15.466659 -1.508245 -0.334435 -1.952437 -1.393297 -5.702886 -0.311322 2.814175 -0.942623 0.415011 8.919615 -14.996065 13.622339 -1.145042 -0.031098 -0.428013 -2.742758 -1.964081 11.717796 0.296079 -1.207684 -13.785406 3.220928 -3.706280 8.533687 -2.352655 -6.010308 -5.578671 4.019947 1.755648 -8.128809 5.588205 3.238747 -2.903032 14.733642 3.925491 -12.586631 -2.698053 -33.670418 -15.865393 12.349633 -17.979880 1.202013 -0.748083 -8.495829 -2.794868 -0.755235 -10.910932 -2.582625 -11.835502 42.192088 -15.566173 -14.556730 13.634650 4.754338 
-2.373900 55.379372 -1.149440 126.233918 -81.620683 152.707966 3.356983 1.606172 0.809163 0.450056 -9.045874 -4.226021 -4.841245 11.886520 15.066454 -1.393641 -0.510818 -2.229552 -1.463742 -6.094747 -0.236543 3.297244 -0.992400 -0.408379 9.130397 -15.581824 12.919035 -2.245641 0.554255 -0.570375 -2.794636 -1.938353 11.434122 0.121652 -1.117808 -14.185042 3.200196 -3.611466 8.728305 -2.153282 -5.985127 -5.258084 3.676279 1.191847 -8.324630 6.603725 3.393825 -2.777640 16.243479 4.331985 -14.244269 -3.329778 -28.175056 -16.454179 13.325551 -17.892032 3.939868 -1.502548 -8.496411 -2.754671 -1.691667 -10.461229 -4.427281 -9.606960 34.199139 -14.258455 -15.516108 13.160786 7.082736 
-2.977568 55.374329 -1.955168 124.776243 -81.602632 155.090511 3.795056 1.971872 0.275547 0.288680 -9.745631 -4.742523 -4.456909 11.707237 13.424225 -1.504600 -0.460229 -2.217358 -1.418372 -6.207385 -0.441310 3.809678 -0.084553 -1.245034 8.937641 -15.790763 10.323509 -2.935179 0.954406 -0.392186 -2.739532 -1.812022 11.346403 -0.138648 -1.189327 -14.887178 3.203580 -3.576659 9.038953 -1.967203 -6.485712 -5.343994 3.697116 0.236178 -8.914312 7.435518 3.844403 -3.080726 17.776031 4.830642 -16.023486 -3.127213 -22.470013 -17.290221 14.163495 -18.069912 6.828196 -2.361976 -8.695805 -3.052425 -2.775033 -10.329202 -6.559996 -9.258433 26.101814 -14.843559 -17.034094 13.167494 9.016267 
-3.035034 55.370216 -2.881002 121.448199 -81.717631 158.402914 3.885476 2.401289 0.094847 0.195731 -9.840779 -4.279291 -4.800323 11.462402 13.349401 -1.479715 -0.528002 -2.230932 -1.483469 -6.359722 -0.471608 3.948016 0.568965 -0.932917 8.309700 -16.331761 9.716377 -3.109319 1.317308 -0.441782 -2.493568 -1.808018 11.299432 -0.438090 -1.151249 -14.928101 3.024058 -3.573492 8.963734 -1.812628 -6.787863 -5.399503 3.353024 -0.741266 -9.263849 7.879523 4.241087 -3.080173 18.517236 5.309750 -17.194894 -2.483460 -18.402506 -18.032434 15.892708 -17.867696 9.143623 -3.015116 -8.838255 -2.862602 -3.378529 -10.479724 -7.765950 -9.193655 20.290654 -15.023997 -19.542877 13.190401 11.008543 
-3.464523 55.366142 -3.302930 119.325203 -80.740257 160.955486 3.964627 2.656332 0.105804 0.661506 -10.305529 -4.643232 -4.208312 11.813378 11.943556 -1.306639 -0.401636 -2.046075 -1.401797 -6.525972 -0.450768 4.288466 1.120174 -1.581381 8.386978 -15.985748 8.112087 -3.095879 1.495094 -0.156123 -2.196715 -1.686367 10.895032 -0.697774 -1.285820 -15.095278 2.950490 -3.422248 8.770317 -1.533895 -6.754963 -4.879315 3.148640 -1.138374 -9.276950 8.577301 4.763480 -3.096610 19.239305 5.710750 -18.752278 -1.911995 -14.746128 -19.780710 15.045772 -16.946672 10.472631 -3.754841 -9.080206 -2.803345 -4.084508 -10.605484 -9.451647 -9.175854 14.876487 -16.605581 -18.959391 11.890438 11.434715 
-3.715186 55.365379 -3.934976 117.143251 -79.973042 163.332883 4.165327 3.191492 -0.029370 0.802506 -10.656792 -4.363751 -4.102154 11.880412 11.091208 -1.260327 -0.305959 -1.958910 -1.313685 -6.704453 -0.241704 4.576375 1.397697 -2.166616 8.459999 -15.790715 7.055933 -3.304851 1.801350 0.008227 -2.076312 -1.524636 10.881871 -1.007334 -1.386535 -15.505873 3.107351 -3.411598 8.849547 -1.717864 -6.855965 -5.137197 3.151434 -1.193158 -9.822734 8.994587 5.099014 -3.059010 19.724513 6.281351 -19.547832 -1.662632 -12.592644 -21.719069 15.083478 -16.028039 10.459760 -4.348549 -9.390240 -2.690017 -4.476244 -10.924944 -10.377011 -8.966501 10.969709 -19.162207 -18.965729 10.809636 11.115452 
-3.801697 55.371002 -4.930389 113.287840 -79.827073 167.016062 4.125253 3.356417 -0.026340 0.767590 -10.761204 -3.739236 -4.165475 11.720261 10.956952 -1.315796 -0.344722 -1.974696 -1.449523 -6.848862 -0.078102 4.697092 1.683175 -1.950028 8.113902 -15.895620 6.044058 -3.431998 1.952377 -0.127690 -2.149292 -1.493535 10.858033 -1.064360 -1.407123 -15.664741 2.987515 -3.332888 8.832294 -1.650447 -6.691779 -5.192387 3.174826 -1.265030 -9.993304 9.414617 5.330247 -3.056318 20.023360 6.736993 -19.897498 -1.598255 -10.892710 -22.947838 15.395249 -15.680150 10.490440 -4.641525 -9.498147 -2.705408 -4.653416 -11.299860 -10.891431 -8.755297 8.903957 -20.305871 -18.919264 10.157579 10.922007 
-3.977181 55.383354 -5.802567 111.371123 -80.520246 169.399964 4.236574 3.277008 -0.149833 0.810199 -10.880684 -4.443527 -4.680446 11.546747 10.910042 -1.287181 -0.556196 -2.163945 -1.528952 -6.991490 -0.385682 5.052339 1.837915 -1.890857 7.384221 -16.202202 4.987292 -3.957713 1.863846 -0.089692 -2.016622 -1.555211 10.911850 -1.212106 -1.291018 -15.800470 2.900393 -3.288318 9.095926 -1.688810 -6.956117 -5.527390 3.176067 -1.097905 -10.086165 9.343600 5.515457 -3.188931 19.768216 7.010374 -19.955477 -1.836075 -10.085566 -23.547093 15.885867 -15.735688 11.084106 -4.972572 -9.595278 -2.381557 -4.384226 -11.495470 -11.156451 -8.183645 7.263388 -20.666996 -19.254508 10.144210 11.469681 
-4.400015 55.402870 -5.861729 112.493138 -80.355576 168.875217 4.498340 3.195562 -0.198165 0.963337 -11.227147 -5.283221 -3.894010 11.550684 10.047896 -1.284207 -0.481403 -2.248725 -1.448268 -6.946629 -0.529888 5.446298 1.980974 -2.478475 7.183160 -15.996448 3.734499 -4.029428 1.947079 -0.112550 -2.141704 -1.522555 10.779706 -1.275166 -1.334940 -16.183878 2.974582 -3.294826 9.187702 -1.619364 -7.075180 -5.356219 3.223168 -1.212106 -10.202972 9.655579 5.729493 -3.078657 20.333367 7.366940 -20.096104 -2.378518 -8.765218 -23.896071 15.758275 -15.514346 11.145290 -5.130222 -9.892252 -2.431676 -4.637889 -11.606090 -11.487248 -7.791955 5.556545 -21.331507 -19.464384 9.631355 11.561315 
-4.561014 55.424110 -6.267946 111.857372 -80.613269 169.705732 4.705081 3.451699 -0.324377 0.818818 -11.422523 -5.356193 -3.947920 11.100170 9.840073 -1.376787 -0.408656 -2.357798 -1.504527 -7.186596 -0.679004 5.750559 1.835127 -2.332275 7.095758 -15.945137 2.932421 -4.395694 2.117185 -0.110279 -2.188556 -1.552185 10.715674 -1.397173 -1.293942 -16.619881 3.075652 -3.338795 9.295673 -1.424852 -7.054097 -5.743091 3.216174 -1.090668 -10.476957 9.974497 6.172209 -3.009029 20.421856 7.736279 -20.303543 -2.440025 -8.507379 -24.034494 16.147422 -15.451487 11.345438 -5.356025 -10.177354 -2.524585 -4.412501 -11.642262 -11.994031 -7.498243 4.354395 -21.939167 -19.997061 9.557548 12.000453 
-4.910438 55.450073 -6.466584 112.470125 -80.848404 169.226258 4.854904 3.321597 -0.474692 0.847484 -11.222462 -5.095818 -3.483569 10.527951 8.615336 -1.458694 -0.391525 -2.459750 -1.499365 -7.191331 -0.653917 6.035274 1.641199 -2.223040 6.811489 -15.456049 1.500217 -4.578876 2.054690 -0.172213 -2.108811 -1.597748 10.793792 -1.313617 -1.198901 -16.622908 2.900162 -3.287879 9.053873 -1.219702 -7.222429 -5.360689 3.155332 -1.234290 -10.315293 10.209946 6.549406 -2.948089 20.453254 7.797922 -20.392046 -2.176934 -8.148264 -23.927766 16.379409 -15.161991 11.129631 -5.446997 -10.672932 -2.413538 -4.461329 -11.874937 -11.924223 -7.409587 3.438291 -22.290411 -20.372876 9.317504 11.741533 
-4.886801 55.481842 -6.709445 111.510201 -81.101500 170.171280 4.862413 3.303505 -0.239998 0.865008 -11.523689 -5.559309 -3.644847 10.609783 9.122212 -1.363121 -0.447748 -2.570681 -1.564144 -7.198108 -0.636897 5.977105 2.173549 -2.092587 6.590062 -15.922279 1.479354 -4.647023 1.973669 -0.078019 -2.064614 -1.551795 10.804077 -1.393999 -1.178189 -16.723066 2.865587 -3.308571 9.216925 -1.319779 -7.341559 -5.488540 3.090503 -1.218628 -10.315490 10.221224 6.710707 -2.939991 20.512560 7.994205 -20.103440 -2.608354 -7.260348 -23.507107 16.367873 -15.051814 11.904445 -5.645468 -10.828219 -2.316543 -4.568431 -12.064907 -11.741518 -6.761195 2.513136 -21.899818 -20.363225 9.023730 12.378573 
-5.049837 55.519775 -6.855138 111.856618 -81.065281 169.660689 5.044262 3.499720 -0.070036 0.836275 -11.718303 -5.337367 -3.565425 10.475414 8.385612 -1.318393 -0.378714 -2.540886 -1.538735 -7.196798 -0.614846 6.147525 2.325438 -1.527717 6.410775 -15.790179 0.543956 -4.327754 1.991900 -0.014804 -1.933599 -1.557859 10.593101 -1.529414 -1.211534 -16.592315 2.910573 -3.365286 9.188857 -1.393501 -7.283878 -5.354134 2.904542 -1.579452 -10.231531 10.375894 6.801904 -2.758804 20.617368 8.227623 -19.965222 -2.825280 -6.740098 -22.568214 16.056083 -14.998243 12.893338 -5.734337 -10.889693 -2.337545 -4.430199 -12.248606 -11.715581 -6.454800 2.010635 -21.399010 -20.944392 9.166564 12.891558 
-5.275150 55.555214 -6.978225 111.682668 -80.570845 169.870714 5.218661 3.659934 0.046124 0.801402 -12.001134 -5.275907 -3.090221 10.621912 7.655398 -1.389996 -0.246966 -2.456969 -1.501944 -7.280436 -0.602358 6.292450 2.649595 -1.449720 6.191913 -15.361891 -0.287558 -3.917070 1.851315 0.075155 -1.788523 -1.503495 10.314345 -1.667699 -1.207330 -16.604096 2.880096 -3.267485 9.117853 -1.225622 -7.183556 -5.214005 2.940914 -1.644578 -10.305808 10.620286 7.057874 -2.668124 20.820691 8.535131 -20.034183 -2.923984 -6.333860 -22.917341 15.444165 -14.766849 13.163586 -5.834456 -10.966309 -2.204157 -4.346902 -12.667396 -11.776017 -6.270892 1.509926 -21.780623 -20.720261 8.987943 12.632795 
-5.593600 55.591347 -6.931054 112.544187 -79.929691 169.283413 5.346866 4.086822 0.067495 1.014638 -11.918175 -5.449571 -2.703598 10.642338 6.386410 -1.321756 -0.219849 -2.384202 -1.459745 -7.565350 -0.769879 6.693978 2.647737 -1.489051 6.352909 -14.707079 -1.337066 -3.966596 1.847282 0.216178 -1.840235 -1.464132 9.878330 -1.703111 -1.212602 -16.778259 2.960204 -3.287340 9.037210 -1.008270 -7.131352 -4.887150 2.969363 -1.722420 -10.214509 10.956196 7.293872 -2.372361 20.827480 8.751914 -20.168951 -2.886024 -6.170774 -22.670365 15.246948 -14.382930 13.672752 -6.008550 -11.037786 -1.931380 -3.677478 -13.003841 -12.131939 -6.373346 1.028070 -22.051666 -21.057467 8.513566 12.323551 
-5.925214 55.630363 -6.921405 113.630080 -79.613139 168.535587 5.528166 4.140065 -0.055022 1.170765 -12.136458 -5.581577 -2.223339 10.872010 5.176335 -1.207155 -0.340558 -2.443543 -1.328642 -7.490922 -0.875139 6.969927 2.790568 -1.677216 6.258672 -14.442781 -2.531224 -4.452342 2.029142 0.182678 -1.840503 -1.465656 9.645107 -1.747451 -1.236107 -16.941909 3.042527 -3.282773 9.144258 -1.090603 -6.858845 -4.810972 3.055672 -1.475480 -10.033118 11.217005 7.555587 -2.394820 20.757891 8.820780 -20.259964 -2.916599 -5.904357 -23.004580 15.280502 -14.350033 13.198192 -6.140541 -11.185221 -1.960814 -3.200423 -13.077015 -12.197266 -6.372466 0.526322 -22.447518 -21.017559 8.167184 11.632869 
-6.056551 55.666527 -6.881165 114.558936 -79.685190 167.690150 5.588327 4.089266 0.121172 1.403748 -12.239543 -6.002151 -1.896061 10.793022 4.905185 -1.164241 -0.291053 -2.303092 -1.231259 -7.449102 -0.650324 6.942646 3.495369 -2.066461 5.912323 -14.780387 -2.689352 -4.450478 2.209001 0.213115 -1.715550 -1.499159 9.539733 -1.762556 -1.223696 -17.040693 3.035607 -3.331809 9.327788 -1.109297 -6.387029 -4.963513 2.923726 -1.068560 -10.034025 11.303830 7.870832 -2.416667 20.628329 9.062543 -20.050329 -3.132204 -5.062094 -22.558254 14.194410 -14.030924 13.781338 -6.176209 -11.375091 -2.009230 -3.307495 -13.070721 -11.940031 -6.117610 0.030813 -22.039401 -19.935537 7.909259 11.940339 
-6.210456 55.703087 -6.707238 115.511348 -79.108001 166.716328 5.752833 4.292885 0.219643 1.429942 -12.079539 -5.810365 -1.439173 10.861875 4.149513 -1.102535 -0.308552 -2.320642 -1.165537 -7.515476 -0.824366 7.201318 3.389279 -1.586596 5.927376 -14.241636 -3.179522 -4.531477 2.187373 0.182726 -1.691565 -1.531458 9.431822 -1.771126 -1.232502 -17.092310 3.081352 -3.359704 9.338451 -1.092313 -6.284296 -5.028218 2.919117 -1.209382 -10.165336 11.423732 8.037932 -2.213527 20.654043 9.295957 -19.839300 -3.203195 -4.689735 -22.307921 14.201180 -13.700765 14.063346 -6.171424 -11.430134 -2.064124 -2.901172 -13.310932 -11.945352 -6.290694 -0.204496 -22.061916 -20.245484 7.741675 12.055481 
-6.313551 55.742416 -6.692303 115.811006 -79.290980 166.362761 5.815947 4.206188 0.244234 1.316733 -12.083679 -5.656496 -1.458219 10.740268 3.617169 -1.021805 -0.424735 -2.451630 -1.242572 -7.509828 -0.596740 7.258858 3.312179 -1.706014 6.036943 -14.258913 -3.599270 -4.883170 2.246351 0.218637 -1.732042 -1.601841 9.497136 -1.657821 -1.153207 -17.418654 3.078287 -3.418061 9.349908 -0.934367 -5.805913 -5.379306 2.855703 -0.737654 -10.413200 11.616299 8.221725 -2.214095 20.501908 9.334980 -19.673871 -3.425335 -4.370547 -21.984875 14.496151 -13.952688 14.141601 -6.095834 -11.770772 -2.187431 -2.705211 -13.379348 -11.723782 -6.142744 -0.353437 -22.108637 -20.463870 7.714118 11.926599 
-6.446131 55.782585 -6.951471 115.108209 -79.204204 167.286263 5.845150 4.326410 0.400361 1.454665 -12.175455 -6.263011 -1.331621 10.788978 3.628852 -0.990373 -0.440453 -2.472906 -1.246722 -7.537292 -0.750146 7.404423 3.394464 -1.695322 5.715845 -14.182900 -4.135959 -4.864910 2.272228 0.191440 -1.700469 -1.605769 9.443682 -1.720738 -1.139733 -17.514922 3.097085 -3.464051 9.591632 -0.975541 -5.643684 -5.365587 2.734916 -0.536957 -10.212993 11.572055 8.429796 -1.904066 20.044819 9.530049 -19.309637 -3.719214 -3.681912 -20.996176 14.178372 -13.639910 14.374805 -6.076981 -11.952069 -2.039769 -2.217567 -13.493328 -11.562773 -6.043730 -0.561946 -21.312132 -20.407129 7.522704 12.010278 
-6.598326 55.825340 -7.288075 113.915498 -79.142254 168.420641 5.862736 4.287437 0.175729 1.266111 -12.192382 -5.423184 -1.073586 10.639642 2.866176 -1.013108 -0.495323 -2.520923 -1.263923 -7.450218 -0.717446 7.403063 3.479873 -1.451096 5.466191 -14.129069 -5.107051 -5.189303 2.402855 0.226671 -1.719974 -1.624094 9.246975 -1.638814 -1.139594 -17.441043 3.061718 -3.458316 9.508345 -0.939257 -5.151298 -5.745812 2.614678 -0.186958 -10.450893 11.587858 8.620874 -1.857291 19.843981 9.649674 -19.007818 -3.941412 -3.518849 -20.517328 14.232917 -13.851444 14.885021 -5.980541 -12.154577 -2.157428 -1.840955 -13.662484 -11.311910 -6.051518 -0.524097 -21.237810 -21.003743 7.893158 12.149029 
-6.471274 55.868462 -7.191019 114.342098 -79.371420 167.862576 5.898750 4.308507 0.547126 1.260931 -12.160769 -6.000208 -1.400598 10.661050 3.559645 -1.013708 -0.512622 -2.509251 -1.400852 -7.610937 -0.589912 7.554992 3.543163 -1.347611 5.418238 -14.403214 -4.447498 -5.173617 2.347259 0.274694 -1.606541 -1.590582 9.446585 -1.688764 -1.186962 -17.630972 3.078904 -3.578318 9.772524 -1.081622 -5.099033 -6.027360 2.560100 0.188034 -10.423401 11.202203 8.740591 -1.536175 18.908657 9.722143 -18.371288 -4.387577 -2.892959 -19.210248 13.955010 -13.729887 14.691331 -5.838737 -12.313062 -1.958064 -1.305430 -13.869841 -10.908131 -5.813312 -0.532818 -19.925394 -20.754715 7.623409 12.259623 
-6.408986 55.911949 -7.356688 113.143330 -78.931912 168.906682 5.849679 4.488528 0.669795 1.208949 -11.988984 -5.679823 -1.626411 10.848520 3.593785 -0.914466 -0.642977 -2.593333 -1.461778 -7.642088 -0.411579 7.549126 3.498065 -1.390999 5.729274 -14.282700 -4.374420 -5.531603 2.420896 0.249096 -1.660859 -1.535041 9.318318 -1.682809 -1.183690 -17.573556 3.095716 -3.621947 9.852375 -0.969263 -5.103470 -6.145730 2.595947 0.419650 -10.404335 11.041837 9.049062 -1.029653 17.617224 9.737777 -17.767859 -4.818607 -2.430864 -18.239217 13.764987 -13.350629 14.394859 -5.813954 -12.542033 -1.744048 -0.274948 -14.004698 -10.733491 -5.560496 -0.525386 -19.139218 -20.709962 7.238361 12.027932 
-6.587208 55.954071 -7.720775 112.469471 -78.825005 169.695455 5.927026 4.675676 0.677365 1.280744 -11.710563 -5.633935 -1.837221 10.510585 2.847613 -0.936400 -0.512080 -2.457574 -1.431531 -7.721161 -0.272645 7.721662 3.332449 -1.650411 5.621602 -13.948647 -5.188574 -5.439345 2.325929 0.329146 -1.692790 -1.462087 9.275523 -1.756841 -1.137267 -17.571428 3.208767 -3.718419 9.994419 -0.897094 -4.787951 -6.486868 2.600213 0.928900 -10.347727 10.848531 9.273190 -0.529219 16.152890 9.871642 -17.132700 -5.310127 -2.157877 -16.814464 12.387277 -12.567287 14.170208 -5.540627 -12.798917 -1.554283 0.781003 -14.117726 -10.735361 -5.179874 -0.536557 -18.245538 -19.426874 6.759625 12.088251 
-6.515703 55.993111 -7.136750 114.486356 -79.417600 167.345826 5.876556 4.545358 0.867742 1.180403 -11.697430 -5.550042 -1.830635 10.298459 2.660801 -0.969150 -0.403017 -2.316307 -1.615559 -7.773724 -0.135244 7.766563 3.196640 -1.133508 5.242850 -14.083756 -4.531409 -4.868311 2.099608 0.473051 -1.602283 -1.457544 9.364649 -1.824880 -1.169784 -17.574623 3.172994 -3.887355 10.411848 -0.797999 -4.386116 -6.947793 2.350863 1.598458 -10.145220 10.040758 9.468650 -0.007866 13.706246 9.703839 -16.236854 -5.917060 -1.720258 -14.168718 10.640940 -12.023016 14.074381 -5.085589 -12.836517 -1.574079 2.097741 -13.741402 -10.579091 -4.804458 -0.396129 -16.361895 -18.100568 6.780513 12.324320 
-6.340267 56.032776 -6.184151 116.717164 -79.380496 164.694361 5.776366 4.324083 1.035602 0.872647 -11.818691 -5.071250 -1.436160 10.852738 2.477320 -0.909660 -0.278053 -2.232267 -1.830417 -7.722182 -0.237150 7.715084 3.895719 -0.222500 4.948734 -14.499316 -3.310334 -4.285909 1.757490 0.491442 -1.694302 -1.344995 9.362194 -1.854401 -1.038660 -17.372972 3.088172 -3.957065 10.640495 -0.385768 -3.619305 -8.092306 2.118590 2.634165 -9.738200 9.224229 10.034665 0.617227 10.888026 9.595229 -14.512865 -7.015711 -1.945720 -10.790006 7.987499 -10.931472 13.629746 -4.261909 -13.009768 -1.843896 3.972837 -13.111286 -10.128714 -4.150564 -0.237797 -13.956020 -16.044675 6.645018 12.720938 
-6.311390 56.071136 -5.339449 119.923677 -79.235859 161.331143 5.914289 4.339825 1.082506 0.767553 -11.395148 -4.836390 -1.017520 10.478176 2.177787 -1.094763 -0.149693 -1.987376 -1.885400 -7.821621 -0.007633 7.887868 3.291969 -0.371051 5.148948 -13.913919 -2.111872 -3.756932 1.732434 0.481605 -1.731991 -1.442543 9.429970 -1.820725 -1.199392 -17.425234 3.077149 -4.315375 10.842162 -0.293658 -3.524082 -8.608826 1.896496 3.069153 -9.615902 8.469523 10.082004 1.728641 7.668192 9.543809 -13.056102 -7.700862 -0.979898 -8.002333 5.307112 -9.982258 12.890735 -3.957007 -12.816499 -1.572030 5.284867 -12.616648 -9.453861 -3.588368 -0.110194 -11.709023 -14.798256 6.029495 13.044154 
-6.063720 56.108315 -4.403907 122.241193 -79.203785 158.689190 5.882396 4.130836 1.328494 0.514828 -10.978456 -4.800530 -0.918062 10.395044 2.786974 -1.241256 0.000732 -1.814122 -2.076620 -7.938643 0.185235 7.781474 2.769682 -0.275290 5.600339 -13.566320 -0.226277 -3.028048 1.396679 0.484207 -1.654946 -1.471512 9.465989 -1.769202 -1.277373 -17.113989 2.950118 -4.588853 10.916032 -0.041718 -3.094543 -9.101807 1.643712 3.974546 -9.175560 7.123186 10.105526 2.733705 3.155731 9.438631 -10.607359 -8.380089 -1.270777 -3.341370 1.789545 -8.990180 12.604066 -3.372657 -12.776600 -1.252894 7.085817 -12.095623 -8.643287 -3.081449 0.467638 -8.871783 -12.672108 5.674785 13.555317 
-5.875889 56.146965 -3.625425 124.579609 -79.256976 156.211258 5.903156 3.904889 1.426021 0.299126 -10.586520 -4.858363 -1.016602 10.322754 3.253544 -1.296960 0.073270 -1.770571 -2.179833 -7.977815 0.204998 7.704118 2.343171 -0.143278 6.024997 -13.400465 1.214230 -2.662933 1.158137 0.523352 -1.467411 -1.509794 9.415897 -1.775622 -1.339686 -16.706185 2.823781 -4.751107 10.849903 0.140653 -2.980226 -9.410534 1.579190 4.873186 -8.480250 5.903177 10.056163 3.587314 -1.206290 9.545908 -8.157167 -9.033170 -2.130819 1.189819 -1.278932 -8.285973 12.078124 -2.994561 -12.643773 -0.713552 9.073817 -11.839727 -7.869318 -2.707367 0.912651 -6.448030 -10.759653 5.349400 13.862973 
-5.410250 56.187675 -2.106102 129.720177 -79.511159 150.449088 5.926629 3.469611 1.800627 -0.021017 -10.201633 -4.829474 -1.244647 10.182093 4.714769 -1.343517 0.051365 -1.969275 -2.352716 -8.135409 0.453601 7.394328 1.684749 0.402720 6.986172 -13.314733 4.215557 -2.340276 0.810394 0.663212 -1.192928 -1.568697 9.486285 -1.839645 -1.509159 -16.624466 2.579412 -5.021872 11.119320 0.400477 -3.049900 -9.668122 1.763695 5.567840 -7.234653 4.136761 9.590965 4.418222 -8.194442 9.344792 -4.946907 -9.763307 -3.945783 7.899534 -5.413873 -7.268214 11.613203 -2.718675 -12.163492 -0.255806 12.320326 -11.140559 -7.323740 -2.646442 1.476249 -4.098622 -8.182406 4.638095 13.545668 
-5.239172 56.231720 -1.565993 131.634894 -79.563155 148.352732 6.011810 3.363979 1.824735 -0.300464 -9.624317 -4.615578 -1.497358 9.823381 5.192403 -1.360737 0.069375 -2.024172 -2.435710 -8.269866 0.408906 7.321014 1.039080 0.798925 7.434178 -12.943679 5.381834 -2.203959 0.658552 0.701919 -1.078219 -1.726710 9.641193 -1.885063 -1.591298 -16.561778 2.493927 -5.213325 11.086612 0.521502 -2.895570 -9.839102 1.848475 5.967324 -6.762162 3.216728 9.400934 4.857216 -11.655093 9.307220 -3.287019 -10.348613 -4.964573 11.499882 -7.289850 -6.840252 11.248450 -2.521398 -11.957633 0.023099 13.912689 -10.780132 -6.976716 -2.367748 1.530128 -2.899163 -6.660883 4.219369 13.564895 
-5.015254 56.276039 -1.379198 132.398026 -79.761863 147.330208 6.010766 3.298398 1.893164 -0.496515 -9.161546 -4.341679 -1.903821 9.469705 5.964608 -1.415191 0.084156 -2.055791 -2.540449 -8.329823 0.382501 7.205584 0.618326 1.318048 7.581339 -12.871202 6.431863 -2.204886 0.573580 0.735486 -0.986065 -1.838022 9.781830 -1.968592 -1.635162 -16.546153 2.430054 -5.354299 11.094049 0.573202 -2.781249 -10.067869 1.929293 6.291085 -6.465119 2.529830 9.225085 5.030302 -14.260338 9.183766 -2.116445 -10.715457 -5.539147 13.800731 -8.527846 -6.627825 10.866355 -2.405134 -11.844266 0.178290 15.219407 -10.589091 -6.541650 -2.193580 1.579320 -2.058465 -5.550975 3.989645 13.405928 
-4.811579 56.321098 -0.971198 133.273086 -79.685859 146.107730 6.031745 3.360520 1.962521 -0.721655 -8.683238 -3.823877 -2.211045 9.233902 6.423679 -1.423915 0.104035 -2.035204 -2.638669 -8.446405 0.418779 7.077442 0.231032 1.826229 8.015178 -12.768149 7.550276 -2.099802 0.526588 0.748926 -0.967567 -1.898350 9.903870 -1.981738 -1.711367 -16.628071 2.396550 -5.495475 11.092590 0.695742 -2.702050 -10.156423 1.944788 6.381877 -6.118872 2.048691 9.151735 5.159074 -16.146631 9.002259 -1.398729 -10.961182 -6.120866 15.497561 -9.153681 -6.649902 10.547278 -2.279692 -11.673567 0.180121 16.178846 -10.302291 -6.273528 -2.093205 1.767511 -1.575875 -5.037200 3.818842 13.266996 
-4.679222 56.366623 -0.974887 133.214517 -79.721504 146.021871 6.061086 3.367110 2.000948 -0.835394 -8.372010 -3.604024 -2.503664 9.079329 6.868442 -1.416486 0.060489 -2.098977 -2.684631 -8.450326 0.463164 7.034788 -0.027811 2.018802 8.147653 -12.788058 8.110601 -2.169988 0.449390 0.808049 -0.952578 -1.967426 9.897721 -2.011184 -1.746534 -16.630521 2.372431 -5.542660 11.077480 0.751621 -2.817978 -10.109450 1.997793 6.453844 -5.802368 1.722897 9.065592 5.285851 -17.454855 8.889323 -0.870060 -11.110988 -6.414242 16.635053 -9.626515 -6.610245 10.295037 -2.251642 -11.609154 0.318963 16.945463 -10.188948 -6.063414 -1.983660 1.718198 -1.197887 -4.555723 3.586173 13.080867 
-4.582042 56.411423 -0.787165 133.489979 -79.649198 145.616337 6.085482 3.423234 2.118823 -0.936578 -8.100001 -3.553350 -2.722423 8.995084 7.153615 -1.408280 0.093145 -2.088690 -2.762042 -8.500076 0.547406 7.027091 -0.308027 2.083599 8.405779 -12.796209 8.738712 -2.113540 0.436721 0.794501 -0.973534 -1.977899 9.892586 -1.967706 -1.751744 -16.537085 2.347152 -5.549374 10.979274 0.775682 -2.812564 -10.101878 1.994627 6.588422 -5.623871 1.514090 9.045105 5.311086 -18.146142 8.722501 -0.568256 -11.226391 -6.725749 17.210279 -9.815449 -6.688373 10.080196 -2.084772 -11.591344 0.359897 17.305677 -10.104211 -5.922594 -1.836194 1.831377 -0.997605 -4.260556 3.590408 13.058198 
-4.464595 56.456306 -0.678519 134.240541 -79.796202 144.767630 6.143601 3.429915 2.271508 -1.066746 -7.853777 -3.697513 -3.015639 8.802838 7.647398 -1.413953 0.110461 -2.059072 -2.804322 -8.523476 0.731452 6.986080 -0.408171 1.945828 8.364420 -12.975715 9.524688 -2.129325 0.436984 0.819599 -0.975674 -1.998018 9.911220 -1.933485 -1.755831 -16.577620 2.315709 -5.625421 10.914121 0.747763 -2.890721 -10.298501 1.957203 6.481628 -5.296363 1.228165 9.038698 5.245098 -18.438899 8.525891 -0.407697 -11.270169 -6.973141 17.292214 -10.191621 -6.730654 9.857977 -1.872725 -11.635924 0.283353 17.488594 -10.089047 -5.543869 -1.721443 1.953098 -0.897659 -3.768540 3.429278 13.085084 
-4.402566 56.497955 -0.606128 134.047934 -79.602761 144.907347 6.216875 3.501790 2.276720 -1.157999 -7.594189 -3.508340 -3.002281 8.668347 7.832627 -1.433287 0.158962 -2.001711 -2.772203 -8.490018 0.869010 6.969163 -0.408528 1.744543 8.348553 -13.040831 10.054614 -2.076631 0.487150 0.816344 -1.005454 -2.019897 9.890363 -1.821371 -1.750252 -16.452667 2.286603 -5.648088 10.645101 0.674396 -2.956188 -10.353522 1.855817 6.436600 -5.173191 0.998799 8.983651 5.244452 -18.285230 8.425076 -0.287160 -11.274442 -7.091477 17.282345 -10.501012 -6.679599 9.740542 -1.527094 -11.593285 0.212496 17.323231 -9.950740 -5.320285 -1.579086 2.094163 -0.944890 -3.392212 3.223821 13.250392 
-4.451763 56.536560 -0.553466 134.580662 -79.611682 144.546660 6.214838 3.510151 2.286799 -1.076018 -7.457557 -3.820691 -2.928492 8.587633 7.740940 -1.459769 0.202549 -1.936783 -2.726104 -8.391027 0.920150 7.027391 -0.165237 1.400485 8.199155 -13.316172 10.070305 -2.056093 0.507792 0.856198 -1.019917 -1.991556 9.842464 -1.790400 -1.781646 -16.424301 2.302540 -5.615257 10.715689 0.532992 -3.043700 -10.390864 1.876361 6.384242 -5.073103 0.957807 8.964182 5.039898 -17.793520 8.408439 -0.518084 -11.237470 -6.906117 16.814647 -11.175753 -6.689910 10.044956 -1.308881 -11.582620 0.069009 17.208454 -10.036766 -5.313633 -1.457347 2.023027 -0.773123 -2.598287 3.418557 13.380576 
-4.420518 56.574203 -0.863474 133.590784 -79.673795 145.608242 6.129823 3.459980 2.238375 -0.946375 -7.381739 -3.794283 -2.922040 8.574736 7.932936 -1.492385 0.237485 -1.837944 -2.671071 -8.273349 0.933766 6.999459 -0.026075 1.271611 7.875491 -13.605113 10.012373 -1.995657 0.574557 0.811753 -1.046240 -1.971035 9.768521 -1.739344 -1.744016 -16.228770 2.273343 -5.531191 10.615458 0.441419 -3.254715 -10.213462 1.816039 6.186217 -5.178203 1.146995 9.024707 4.921581 -16.858365 8.466082 -0.840118 -11.142257 -6.598257 16.027490 -11.559726 -6.559521 10.198987 -1.139453 -11.672591 -0.049844 16.796764 -10.210259 -5.212071 -1.368620 2.040536 -0.566253 -2.172173 3.478062 13.847121 
-4.349146 56.609917 -1.197867 130.959999 -79.384741 148.165251 6.031334 3.598223 2.110361 -0.959013 -7.410661 -3.219411 -2.842999 8.716967 8.105391 -1.478100 0.253705 -1.796658 -2.732629 -8.315719 0.865211 6.975532 0.155262 1.414492 7.741984 -13.609254 10.156110 -1.991781 0.715293 0.668867 -1.178691 -1.868755 9.794580 -1.598118 -1.677859 -16.202817 2.262782 -5.400774 10.520016 0.456191 -3.253452 -10.165453 1.762771 5.944540 -5.307808 1.568759 8.982485 4.895486 -15.511478 8.373945 -1.316419 -10.965884 -6.346185 14.764261 -11.093513 -6.456465 10.385022 -1.026181 -11.565536 -0.149454 16.171440 -10.230465 -5.378968 -1.296441 1.964738 -0.808994 -2.228228 3.507267 14.193029 
-4.372699 56.646164 -1.558581 130.759976 -79.781629 148.441000 5.918495 3.567576 2.022118 -0.786207 -7.658370 -3.204682 -2.976472 8.699986 8.011141 -1.393558 0.198624 -1.850230 -2.700817 -8.250492 0.898773 6.937082 0.518088 1.373553 7.345668 -14.103724 9.833220 -2.197551 0.932102 0.581367 -1.191514 -1.814388 9.748939 -1.567160 -1.569780 -16.137380 2.272785 -5.313534 10.436826 0.333475 -3.528159 -10.038782 1.764980 5.495795 -5.428879 2.051703 9.092323 4.701623 -13.486385 8.354279 -2.384492 -10.634999 -5.877123 12.833147 -10.650888 -6.497398 10.815255 -1.038616 -11.671635 -0.221461 15.320506 -10.503145 -5.667629 -1.189782 1.719891 -1.071923 -2.479051 3.811312 14.491186 
-4.430451 56.679390 -1.898623 130.464096 -80.119526 148.906351 5.759625 3.486166 1.908704 -0.532346 -7.975915 -3.325008 -2.917681 8.788034 7.894320 -1.381838 0.179473 -1.812864 -2.630985 -8.109427 0.777299 6.899974 0.847630 1.429703 6.864821 -14.609197 9.317188 -2.331409 1.109677 0.525871 -1.203566 -1.785189 9.712901 -1.555778 -1.498471 -16.002410 2.324706 -5.199283 10.366546 0.165477 -3.665511 -9.820687 1.723287 5.053395 -5.719363 2.665383 9.139037 4.296511 -10.494312 8.294057 -3.787560 -10.213544 -5.201312 10.383071 -9.825093 -6.813162 11.569332 -1.098401 -11.722192 -0.414279 14.079272 -10.600027 -5.834636 -1.187822 1.670195 -1.363889 -2.894261 4.214289 14.974828 
-4.414599 56.709694 -2.947638 126.946186 -80.538740 152.668650 5.458851 3.479875 1.852792 -0.113462 -8.544648 -3.697596 -3.077909 8.972387 8.481302 -1.319925 0.075603 -1.894951 -2.540581 -7.931555 0.721761 6.740155 1.438218 1.148251 6.130080 -15.472296 8.592841 -2.886369 1.438278 0.429239 -1.368975 -1.675611 9.659277 -1.556355 -1.416761 -16.010857 2.387220 -4.968626 10.536997 -0.070861 -4.058649 -9.507366 1.691514 4.245199 -6.322412 3.775980 9.168988 3.665150 -6.199865 8.207127 -5.876932 -9.786519 -4.093129 6.431737 -8.222430 -7.254600 12.276492 -1.401032 -11.790375 -0.626398 12.116951 -10.995701 -6.136000 -1.153956 1.500416 -1.821576 -3.851664 4.730792 15.470825 
-4.449830 56.738014 -4.139424 121.512601 -80.312318 158.379302 5.200730 3.632513 1.787375 0.316935 -9.017446 -3.893640 -3.166512 9.343619 8.890652 -1.253561 -0.093988 -2.058636 -2.421923 -7.752993 0.687021 6.625259 2.015706 0.670936 5.694569 -16.053495 7.543947 -3.783841 1.805653 0.294147 -1.592303 -1.511769 9.608609 -1.470847 -1.317313 -16.002296 2.532077 -4.616555 10.529622 -0.386565 -4.675963 -8.906693 1.895601 3.483436 -7.099431 5.136000 9.108433 2.959622 -1.578844 8.141221 -8.194030 -9.196404 -2.971744 1.348229 -6.037135 -7.498882 12.674499 -1.899243 -11.815704 -0.739008 9.933085 -11.411820 -6.482689 -1.365310 1.279426 -3.269251 -4.712269 4.696360 15.297189 
-4.782705 56.769295 -6.481109 113.615295 -80.139113 167.242635 5.125933 4.222766 1.136749 0.790145 -9.326691 -4.156010 -3.851357 9.159245 8.786151 -1.242667 -0.110686 -2.083651 -2.061580 -7.768316 -0.055782 6.658804 1.949906 0.470995 5.039654 -16.072662 4.403093 -4.691996 2.175993 0.293690 -1.584859 -1.397860 9.290030 -1.553353 -1.337323 -15.818940 2.808481 -4.069984 10.011972 -1.043924 -5.130932 -7.481371 2.195174 2.376447 -8.210497 7.053995 9.167650 1.322325 6.003017 8.286882 -11.795602 -7.630228 -2.230000 -5.928402 0.537208 -8.958503 13.985504 -2.808040 -12.104620 -0.771959 6.215019 -12.452196 -7.178755 -2.218121 0.787276 -6.378499 -8.478019 5.462798 15.674539 
-4.954505 56.812538 -6.717124 113.249323 -80.190053 168.199425 5.049499 4.046223 0.502100 0.960405 -9.888080 -4.069928 -3.461766 9.590498 8.431731 -1.178193 -0.385947 -2.321617 -1.767245 -7.571254 -0.692164 6.461355 2.040005 0.614182 4.910836 -16.434079 3.373733 -5.687687 2.498947 0.087809 -1.509798 -1.513095 9.407583 -1.424280 -1.298527 -15.690913 2.728352 -3.648784 9.316530 -1.431496 -5.508681 -6.517415 2.428394 2.085367 -8.663779 8.124401 8.980928 0.099943 10.247208 8.202465 -13.667511 -6.539299 -2.489592 -9.498193 5.212321 -10.507030 14.771393 -3.319210 -12.178157 -0.823686 3.969311 -12.618842 -7.516577 -3.280370 0.776410 -8.258129 -11.980115 6.160154 16.124244 
-4.982459 56.859077 -6.910906 112.257222 -79.728871 169.542188 5.068690 4.214780 0.401437 0.998109 -10.054403 -4.420514 -3.216052 9.802945 8.886547 -1.242773 -0.365953 -2.394887 -1.699896 -7.745134 -0.950666 6.456040 2.097501 0.342949 5.102894 -16.419993 3.396440 -5.898250 2.787209 -0.319017 -1.605969 -1.446220 9.559739 -1.456185 -1.248855 -15.819213 2.853190 -3.580307 9.416231 -1.572019 -5.731351 -5.951805 2.583418 1.331150 -8.956157 8.935289 8.668236 -0.157980 12.811946 8.233722 -14.959016 -6.173308 -2.709462 -11.919644 7.677921 -10.867973 14.598823 -3.975674 -11.888423 -0.787300 2.642035 -12.661649 -7.921119 -3.250293 0.926548 -9.303087 -13.541383 6.105562 15.932144 
-4.833492 56.901291 -7.401823 109.530065 -80.411172 171.978498 4.804816 3.967562 0.532153 0.975412 -10.410904 -4.303597 -3.664239 9.859811 9.721782 -1.222199 -0.475780 -2.640390 -1.909065 -7.622063 -0.888724 6.244431 2.098792 0.957493 4.902644 -17.156876 3.253921 -6.265545 2.829622 -0.485407 -1.665497 -1.409949 9.950165 -1.526762 -1.134240 -15.873426 2.898584 -3.387618 9.474883 -1.919754 -5.913584 -5.460462 2.882989 0.986215 -9.330273 9.693638 8.216751 -0.869294 15.103955 8.198896 -16.070370 -5.894754 -3.079114 -13.623763 8.813766 -11.624084 14.584407 -4.416188 -11.672433 -0.962135 1.359339 -12.835082 -8.290093 -3.319764 1.171117 -9.849403 -13.712515 6.373756 15.651111 
-4.517919 56.946869 -7.245121 108.292722 -80.569705 172.777126 4.512141 3.654733 0.514131 0.761369 -10.350941 -3.555636 -3.733114 10.063729 10.762464 -1.148241 -0.676178 -3.016812 -2.086961 -7.491850 -0.782922 5.837933 1.752771 1.453283 4.992295 -17.634027 4.454762 -6.474685 2.788971 -0.751955 -1.791784 -1.464504 10.370978 -1.453624 -1.097024 -15.799409 2.860050 -3.290843 9.515842 -2.189220 -6.379488 -4.739452 3.016204 0.086932 -9.549539 10.163876 7.569334 -1.150109 16.500861 7.972300 -16.572010 -5.884872 -3.693697 -14.064693 10.376336 -12.544226 15.326001 -4.829221 -11.256252 -1.069005 0.826115 -12.823193 -8.426724 -3.415176 2.207574 -9.419919 -15.227242 7.362593 16.021587 
-4.270530 56.995865 -7.677723 105.732411 -81.490300 175.495930 4.289153 3.011236 0.328281 0.735961 -10.212282 -3.861316 -4.117500 9.992512 12.268830 -1.295279 -0.841037 -3.127522 -2.150413 -7.487178 -0.740506 5.609366 1.317950 1.122390 4.516936 -18.541380 5.445759 -7.085965 2.723794 -1.019575 -1.930692 -1.476715 10.917190 -1.290444 -1.058342 -15.760504 2.780418 -3.240110 9.659354 -2.483347 -6.288180 -4.487535 3.262319 0.579841 -9.763870 10.254121 7.042138 -1.669001 17.046348 7.450655 -16.570941 -6.242747 -4.107427 -14.427776 11.255033 -13.219861 15.048056 -5.139340 -11.058410 -1.049764 0.162301 -12.361711 -8.116332 -2.880708 2.783595 -9.428001 -14.862047 7.333046 15.938029 
-4.074309 57.050110 -8.353933 102.070197 -81.050930 179.128605 4.075451 3.104606 0.372350 0.880037 -10.316857 -3.760801 -4.839203 10.396130 13.179140 -1.055794 -0.960544 -3.251379 -2.170339 -7.378721 -0.877575 5.405062 0.881827 1.338884 4.673681 -18.861094 5.580199 -7.413143 2.750524 -1.114420 -2.084803 -1.439864 10.903615 -1.330019 -1.093401 -15.726589 2.865245 -3.100547 9.647274 -2.650129 -6.232300 -4.088655 3.449082 0.292799 -9.646418 10.731020 6.385109 -1.880159 17.681008 7.031709 -17.096344 -6.317591 -4.757155 -14.760410 11.730927 -13.510543 15.043124 -5.344815 -10.345870 -1.034949 -0.014223 -11.942170 -8.622886 -2.780840 3.334071 -9.390030 -15.237270 7.521009 15.877965 
-3.846851 57.101280 -8.122777 102.372411 -80.641556 178.762317 3.878166 3.091005 0.388050 0.999885 -10.182660 -3.610009 -4.952579 10.849389 13.755907 -0.930263 -1.100835 -3.105909 -2.123788 -7.267910 -1.048595 5.129616 0.852273 1.573037 4.855030 -19.107399 6.583674 -7.465420 2.792703 -1.209422 -2.057900 -1.443700 11.040191 -1.323186 -1.196734 -15.516093 2.783960 -3.023316 9.651920 -2.838796 -6.196368 -3.721855 3.446781 -0.005869 -9.670971 10.640213 5.779313 -2.043541 17.625932 6.367707 -17.119418 -6.043083 -5.254443 -14.443697 11.489652 -13.848135 15.192357 -5.540469 -9.724070 -0.867408 -0.001378 -11.540259 -8.596561 -2.981390 4.001664 -8.980899 -14.899340 7.645168 15.618588 
-3.527263 57.157990 -8.387732 100.143876 -80.627212 -179.509167 3.636458 3.037514 0.603247 0.986029 -10.206847 -3.076004 -5.377818 11.022347 14.793179 -0.953565 -1.071989 -3.064651 -2.252871 -7.362052 -0.890150 4.839430 0.696683 2.142909 4.803777 -19.497893 7.602643 -7.083526 2.667567 -1.134286 -1.973178 -1.400173 10.944834 -1.347444 -1.185437 -15.042743 2.760513 -2.947890 9.456239 -2.977231 -5.997686 -3.220221 3.472965 -0.030157 -9.583183 10.677844 5.357568 -2.216199 17.629689 5.788169 -17.201838 -5.811537 -5.851587 -14.225964 11.193769 -13.631643 15.234205 -5.636442 -9.282984 -0.897779 -0.203786 -11.274594 -8.532694 -2.927022 4.831388 -8.737753 -14.405130 7.458888 15.504486 
-3.430143 57.214432 -8.014064 101.231914 -80.802121 179.373060 3.624355 3.048507 0.596579 0.927449 -10.124402 -3.062231 -5.454911 10.958122 14.989156 -0.874427 -1.087503 -3.243935 -2.202511 -7.345175 -0.702173 4.602828 0.469880 1.851305 5.040135 -19.720083 8.268226 -7.160796 2.616443 -1.219088 -2.044369 -1.407087 11.115670 -1.337688 -1.202747 -14.960744 2.845761 -2.962673 9.464603 -3.143794 -6.270380 -3.219540 3.626683 -0.045326 -9.580783 10.612987 4.972214 -2.245479 17.362849 5.300350 -17.268848 -5.745372 -7.110451 -13.784239 10.775824 -13.856302 14.677220 -5.669283 -8.998610 -0.798500 -0.116420 -11.041942 -8.494888 -2.741372 5.653245 -8.552205 -13.977740 7.765554 14.868923 
-3.320619 57.262375 -7.642441 102.587958 -80.921989 177.954346 3.634016 2.953076 0.490704 0.813138 -9.967702 -2.744251 -5.305001 10.915646 15.102096 -0.853576 -1.033986 -3.110479 -2.082332 -7.267054 -0.793799 4.372341 0.221428 2.139462 4.800767 -19.834318 8.975554 -6.471713 2.302821 -1.113702 -2.052178 -1.487981 11.097393 -1.326334 -1.200639 -14.852207 2.831610 -2.945632 9.440989 -3.086274 -6.374209 -2.882798 3.479241 -0.363210 -9.109404 10.349221 4.682455 -2.450621 17.067275 4.414695 -17.253170 -5.350026 -8.684041 -13.074825 10.811956 -14.086933 15.020015 -5.466276 -8.596328 -0.991316 0.088865 -10.359117 -8.248071 -2.719864 6.631315 -8.218997 -14.063852 8.092128 14.715635 
-3.115395 57.300102 -6.906031 103.977061 -81.218828 176.304343 3.487667 2.597867 0.494546 0.533519 -10.081330 -2.418128 -4.782769 10.984235 15.681238 -1.011184 -1.034197 -3.282522 -2.162211 -7.231422 -0.915733 3.948901 -0.308069 2.705476 4.819550 -20.003017 10.346548 -6.281031 2.003130 -1.444769 -2.293607 -1.565081 11.313387 -1.133801 -1.146859 -14.702481 2.781017 -2.981692 9.348818 -2.944701 -5.970436 -2.653053 3.386927 -0.347449 -9.023893 9.959441 4.119684 -2.252954 16.585650 3.464689 -16.615194 -5.702422 -10.017636 -10.930827 10.476074 -14.475853 15.387541 -5.057385 -8.186493 -1.124729 0.657567 -9.697665 -7.632774 -2.053553 8.285606 -6.323074 -13.972465 8.334573 14.913107 
-3.032487 57.339287 -7.052353 102.199016 -81.859307 178.049110 3.298933 2.413893 0.185182 0.366911 -9.730176 -1.892156 -5.205392 10.847450 15.674037 -0.866489 -1.234274 -3.498805 -2.243136 -7.042144 -1.012058 3.704979 -0.580617 3.070541 4.520768 -20.591839 10.635749 -6.843394 1.635433 -1.624673 -2.442822 -1.768854 11.595539 -1.044747 -1.055697 -14.750639 2.746335 -3.002194 9.426951 -3.044700 -6.109184 -2.464596 3.493285 -0.340458 -9.143598 9.629773 3.603810 -2.316212 15.777967 2.503177 -16.003174 -5.654405 -11.116301 -9.393950 11.768107 -15.171547 14.754440 -4.891219 -7.746657 -1.037637 1.764336 -9.156692 -7.125398 -1.848255 9.241413 -5.170907 -14.909744 8.926091 14.861216 
-3.019637 57.377121 -7.072041 101.868881 -82.396041 178.553266 3.260351 2.151574 -0.040532 0.332773 -9.538746 -1.883780 -5.232192 10.551546 15.722130 -1.080870 -1.106194 -3.376220 -2.153580 -7.002991 -1.153716 3.503288 -1.025117 3.176210 3.961857 -20.728218 10.951662 -6.492429 1.235386 -1.746257 -2.484275 -1.804924 11.581415 -0.914967 -1.033635 -14.571422 2.752111 -2.893939 9.449371 -3.179372 -6.039597 -2.627617 3.514492 -0.034825 -8.858352 9.148604 3.148257 -2.579982 14.910443 1.522773 -15.360538 -5.678083 -13.389677 -8.409932 11.807853 -15.498893 14.307658 -4.286778 -7.369143 -1.163899 2.425383 -8.432431 -6.535145 -1.458824 10.424791 -4.706839 -14.627811 9.306913 14.674682 
-2.768286 57.410301 -6.216353 104.637617 -82.048680 175.310744 3.004853 1.947698 0.304160 0.504668 -9.652333 -1.594906 -5.038718 11.098586 15.971938 -0.982333 -1.058655 -3.231528 -2.176547 -6.783458 -1.065641 3.130444 -1.673720 3.711896 4.311940 -20.830538 12.272059 -5.967730 0.949317 -1.870078 -2.641569 -1.840019 11.779939 -0.845958 -1.139973 -14.624853 2.875374 -2.887004 9.511579 -3.075008 -5.492519 -2.927979 3.601233 0.445343 -8.350659 8.622267 2.696287 -2.643115 13.080010 0.513800 -14.525632 -5.599681 -15.453789 -6.933476 11.397552 -15.622833 13.441684 -3.600259 -6.903511 -1.587579 4.271012 -7.385398 -5.677233 -1.580060 11.835220 -4.053319 -14.381134 9.224275 13.739407 
-2.491135 57.445549 -6.106359 103.577204 -82.527037 175.745715 2.716608 1.930327 0.199178 0.411594 -8.863916 -0.312654 -5.387322 10.458150 16.405360 -1.161265 -0.959185 -2.977397 -2.336644 -6.852601 -0.919277 2.766025 -1.814028 4.590697 3.692911 -21.080523 13.846487 -5.295544 0.581361 -1.755459 -2.479676 -1.938870 12.063835 -0.851735 -1.069130 -14.440690 2.810325 -2.926810 9.434288 -2.952964 -5.389783 -2.903338 3.639345 1.077792 -8.207701 7.643901 2.416749 -2.660526 11.268468 -0.470404 -13.885340 -5.371519 -16.980073 -5.710553 11.118840 -15.786497 12.664943 -3.049049 -6.575960 -1.543356 6.019573 -6.730619 -4.908155 -1.581430 13.209501 -3.166944 -13.658559 9.067270 12.995889 
-2.441045 57.484566 -6.385706 101.321343 -83.058622 177.703666 2.416718 1.647191 0.040489 0.541767 -8.594070 0.555346 -5.392655 10.136029 16.332592 -1.365586 -0.697110 -2.817313 -2.469723 -6.789544 -0.853340 2.641472 -1.855190 5.317522 2.944094 -21.012371 14.127213 -4.356354 0.088729 -1.400252 -2.305711 -1.976732 12.407750 -0.971906 -1.111171 -14.049918 2.704686 -2.890166 9.418737 -2.693072 -5.481183 -2.995591 3.819683 0.713867 -8.316944 6.982285 2.055357 -3.076081 9.469354 -1.378970 -13.289189 -4.960428 -18.847316 -4.085401 10.985368 -16.076857 12.008868 -2.577348 -6.027089 -1.619003 7.683830 -6.282155 -4.445880 -1.621760 14.192500 -2.072278 -13.771193 9.652440 12.774909 
-2.273579 57.527000 -5.408369 105.645421 -82.808161 172.959622 2.325343 1.442978 0.484886 0.657540 -8.480903 0.562781 -4.829000 10.022366 16.746826 -1.346932 -0.587929 -2.806413 -2.352948 -6.561749 -0.565960 2.128114 -2.539052 5.431021 3.210719 -20.548707 15.570448 -3.883393 -0.166090 -1.282260 -2.328804 -1.953063 12.406687 -0.901591 -1.197215 -13.649010 2.706874 -2.866484 9.196476 -2.600558 -4.903755 -2.745705 3.458638 1.146465 -8.177637 6.091100 1.738599 -3.083839 7.548924 -2.626341 -12.172070 -5.160341 -21.333500 -2.256714 9.644336 -15.815766 11.065938 -1.713848 -5.734948 -1.931726 9.737407 -5.092988 -3.237121 -1.345930 15.277303 -1.680166 -12.926387 9.227378 11.316890 
-2.116505 57.568733 -4.462523 109.023116 -82.868650 169.269387 2.074826 1.281174 0.740514 0.796803 -7.997250 0.659558 -4.738356 9.992244 16.730432 -1.163137 -0.621919 -2.861146 -2.413954 -6.517568 -0.318413 1.801643 -2.734052 5.446251 3.582281 -20.648940 16.850178 -4.435644 -0.456897 -1.475168 -2.324545 -1.944802 12.371227 -0.892629 -1.182971 -13.439886 2.779501 -2.986558 9.186715 -2.430696 -5.215272 -3.143218 3.405855 1.335032 -7.745005 5.228508 1.615040 -2.800349 4.955552 -3.506277 -10.956500 -5.410566 -23.237501 -0.806541 8.591679 -15.450512 10.185871 -1.230745 -5.513094 -1.832704 12.322307 -4.350680 -2.073852 -1.192469 16.346898 -1.013742 -11.681382 8.541944 10.706142 
-1.944823 57.609856 -4.338088 109.541785 -83.499899 168.451024 1.970166 1.089460 0.703936 0.730137 -7.574710 1.174006 -5.168500 9.785979 16.946026 -1.236808 -0.612852 -2.686259 -2.478304 -6.442558 -0.067060 1.614856 -3.042427 5.686893 3.178188 -20.633405 17.858086 -3.748860 -0.699801 -1.255471 -2.214827 -2.069739 12.509901 -0.960484 -1.182493 -13.274239 2.820538 -3.001068 9.118150 -2.387904 -4.831478 -3.087227 3.403463 1.668264 -7.766415 4.377079 1.285353 -2.947784 2.349933 -4.864489 -9.421237 -5.418803 -25.257052 0.548666 9.351330 -16.086018 9.187902 -0.703388 -4.823905 -2.113607 15.459393 -3.247648 -0.621576 -1.115281 17.326698 -0.468735 -12.149824 8.934874 9.829025 
-1.769729 57.651329 -3.325797 114.072969 -83.539029 163.311367 1.810247 0.954019 0.981397 0.744623 -6.883439 1.825060 -5.076783 9.641681 16.901424 -1.295885 -0.516338 -2.423386 -2.451152 -6.215040 0.160859 1.097086 -3.823449 6.355700 3.314289 -20.034079 19.264981 -3.248512 -0.925281 -1.509436 -2.220513 -2.198785 12.607332 -0.895173 -1.214720 -13.043362 2.840210 -3.075137 9.062941 -2.103747 -4.053327 -2.806048 3.358896 2.234562 -7.481245 3.274352 0.960263 -2.624058 -1.246541 -6.021358 -7.424033 -5.508627 -27.178674 2.083978 8.803359 -15.832532 7.578949 0.204830 -4.200649 -2.212279 18.962155 -2.013070 1.305260 -0.962798 18.595990 -0.518520 -11.652103 8.475798 7.998574 
-1.542366 57.700241 -2.853069 114.938516 -83.517712 161.816719 1.602108 0.729827 1.286023 0.770488 -6.107724 2.453573 -5.132454 9.242802 17.571898 -1.092708 -0.491502 -2.335190 -2.654879 -6.142180 0.521443 0.773970 -4.983803 6.799488 3.631928 -19.428307 20.385834 -3.489043 -1.323548 -2.022491 -2.250930 -2.252945 12.705925 -0.766223 -1.302102 -12.496371 2.791385 -3.101468 8.897867 -1.949680 -3.725978 -2.610189 3.270783 2.426122 -7.127754 2.147867 0.594342 -2.075862 -4.905098 -6.683841 -5.492321 -5.900309 -28.651283 3.880880 7.467389 -15.372396 6.210018 1.069733 -3.811217 -2.082888 22.234296 -1.279934 3.128545 -0.649697 20.145235 0.387750 -10.538075 7.999424 7.048032 
-1.226965 57.756866 -2.955496 112.479028 -83.811704 163.462804 1.314374 0.737699 1.802990 0.803465 -5.401362 2.928055 -5.549164 8.868291 18.781007 -1.057080 -0.440346 -2.216312 -2.866357 -6.082572 0.894566 0.328238 -5.432288 7.611901 3.283740 -19.082115 21.674703 -2.720253 -1.385368 -1.787574 -2.344314 -2.273598 13.203555 -0.792301 -1.437662 -12.366900 2.839819 -3.241124 8.819295 -1.877118 -3.397346 -2.281252 3.219697 2.718358 -6.697950 1.002943 0.281643 -1.780271 -8.790976 -7.472614 -3.530460 -6.325182 -29.969287 6.058279 6.415954 -14.999008 4.940516 1.758954 -3.247546 -2.125001 25.969267 -0.874137 4.976154 -0.541066 21.521430 1.385141 -9.683203 7.776873 6.215993 
-1.167078 57.821007 -3.151008 111.098769 -84.070345 164.789727 1.228518 0.730598 1.627741 0.816055 -5.007858 3.421364 -5.931663 8.514935 18.734923 -0.849607 -0.493770 -2.140633 -2.854215 -6.020166 1.020671 0.140720 -5.585073 7.573830 3.201096 -19.205055 21.796369 -2.850750 -1.578437 -1.750902 -2.334942 -2.241948 13.280870 -0.912015 -1.497872 -12.358013 2.898904 -3.335927 8.976707 -1.787436 -3.283690 -2.443993 3.314923 3.099334 -6.322388 -0.128878 0.042936 -1.395767 -12.502943 -8.204108 -1.723350 -6.745208 -30.057556 7.797159 5.928442 -14.562201 4.897706 2.321438 -2.616583 -1.991498 29.084300 0.063423 6.439809 -0.014486 21.971438 2.710848 -8.596764 7.399925 6.314029 
-1.016711 57.883034 -3.265266 109.498370 -84.305260 165.817550 1.051836 0.588545 1.821874 0.897264 -4.176201 4.201588 -6.354322 8.137474 19.074007 -0.731299 -0.545870 -2.150785 -2.987445 -6.053091 1.373518 -0.192570 -6.341164 8.121321 3.285397 -18.723728 22.164577 -2.883826 -1.730006 -1.720201 -2.217363 -2.249461 13.550942 -1.009076 -1.568034 -12.108545 2.961043 -3.422833 8.932795 -1.715963 -3.245107 -2.193794 3.232356 2.926427 -6.151412 -1.225010 -0.168364 -1.030982 -17.074587 -9.086912 0.215099 -6.965395 -30.041759 9.328244 4.195208 -14.315069 3.971273 2.756084 -1.965105 -1.887185 33.011507 0.668586 8.285502 -0.018993 22.598418 3.642953 -7.439116 7.328800 5.652400 
-0.889075 57.944687 -3.084909 109.483766 -84.248239 165.486268 0.969871 0.490165 2.032265 0.868444 -3.451311 4.523140 -6.489345 8.025608 19.429799 -0.664911 -0.566360 -1.926307 -3.134003 -5.972990 1.581318 -0.296992 -6.701278 8.408945 3.430185 -18.381340 22.653279 -2.662297 -1.767218 -1.412113 -2.151410 -2.226159 13.806826 -1.171775 -1.574931 -11.976001 3.052334 -3.442520 8.896538 -1.498344 -3.003288 -2.379564 3.148466 3.220569 -5.905201 -2.284741 -0.063238 -0.835677 -21.514458 -9.386263 1.962651 -7.013459 -29.887944 10.639384 2.165719 -14.113128 3.508413 3.359336 -1.670737 -1.672318 36.691874 1.199415 9.987634 0.103420 22.945886 5.135515 -5.509082 7.015873 5.488992 
-0.830676 58.003647 -2.334558 112.399660 -83.926266 162.488764 0.829763 0.350545 2.005334 0.941644 -3.074335 4.834548 -6.329256 8.004407 19.325176 -0.428483 -0.620013 -1.779344 -3.158422 -5.802168 1.868693 -0.465587 -6.950611 7.944886 3.864040 -17.934691 23.326429 -2.940465 -1.822589 -1.632909 -2.149611 -2.145523 13.764717 -1.201122 -1.611029 -11.675622 3.158551 -3.475354 8.868137 -1.446575 -2.993275 -2.635694 3.299399 3.354583 -6.003588 -3.231900 -0.217249 -0.517304 -26.109735 -9.690770 3.831641 -7.271017 -28.993178 11.742426 1.129508 -13.994988 2.534274 3.924059 -1.253922 -1.640468 40.365320 1.576667 11.860547 0.014056 23.037726 5.379935 -4.370068 6.747160 4.794441 
-0.847708 58.052475 -2.334496 111.179890 -83.603113 163.371880 0.802371 0.494852 1.911828 0.882343 -2.508248 5.878799 -6.417876 7.750189 18.932252 -0.348579 -0.749473 -1.710045 -3.179583 -5.558707 2.050789 -0.689509 -6.860465 8.316950 3.952098 -17.377663 23.173176 -2.808396 -1.652887 -1.348477 -2.094900 -2.107611 14.060991 -1.404231 -1.722909 -11.775530 3.252215 -3.496641 8.952006 -1.457799 -2.960992 -2.657064 3.272894 3.317673 -5.786867 -4.083589 -0.392412 -0.250044 -30.949944 -9.709590 5.257765 -6.970471 -27.644595 12.809063 -0.454310 -13.919215 2.315798 4.263464 -0.572522 -1.632183 44.421415 1.965026 13.326840 -0.063864 22.784027 6.642551 -3.045970 6.799661 4.599175 
-0.662387 58.095505 -2.280420 110.822367 -83.815049 163.287779 0.694100 0.389784 1.824992 0.905074 -2.124031 6.833001 -6.671567 7.438389 19.473110 -0.308743 -0.801251 -1.593159 -3.275451 -5.540944 2.256283 -0.870683 -6.690237 8.727015 3.848847 -17.391659 24.178127 -2.916068 -1.565958 -0.919228 -2.012968 -2.018415 14.342773 -1.662811 -1.750424 -11.936478 3.331671 -3.617777 9.151864 -1.163853 -3.083491 -3.199763 3.074521 3.563851 -5.367936 -5.215569 -0.177883 0.188833 -34.722513 -9.535799 6.680833 -7.319597 -26.247123 13.998455 -3.048177 -13.248592 2.250555 4.699122 -0.235339 -1.438973 47.233653 2.480623 14.573256 0.352594 22.454639 7.620050 -0.476426 6.213579 4.212829 
-0.563670 58.129913 -1.839701 111.430879 -83.643533 162.356941 0.609893 0.405766 1.815108 0.786082 -1.745080 7.470619 -6.671737 7.329561 19.715748 -0.225548 -0.797806 -1.501482 -3.472453 -5.536397 2.354070 -0.984010 -6.676848 9.025555 4.133121 -17.221033 24.812462 -2.917573 -1.457362 -0.889805 -1.870796 -1.962649 14.588195 -1.711730 -1.805594 -12.076172 3.345295 -3.723784 9.275466 -1.155572 -3.174024 -3.517831 2.864642 3.781778 -4.861081 -6.309239 -0.009999 0.668027 -38.218685 -9.088543 7.977916 -7.587589 -24.981699 14.847066 -4.826996 -12.647158 2.427091 5.412476 0.130160 -1.291832 49.232795 2.790045 15.511419 0.574561 22.182277 8.127427 1.438194 5.849941 4.005533 
-0.374301 58.157898 -2.265836 107.458691 -83.825011 165.957273 0.336616 0.327759 2.093523 0.925932 -1.584933 7.580686 -7.009236 7.183384 20.615900 -0.094403 -0.770447 -1.528517 -3.744244 -5.515513 2.567554 -0.983896 -6.406119 9.294914 3.808937 -17.208307 25.486847 -2.848162 -1.354596 -0.724836 -1.794336 -1.861975 14.944022 -1.868004 -1.973357 -12.263366 3.423968 -3.831108 9.535431 -1.192314 -3.287924 -4.080378 2.893947 4.005509 -4.499182 -7.181231 -0.136419 1.103124 -41.621683 -8.265249 9.076698 -8.057697 -23.284922 16.097105 -6.803045 -12.265285 2.213199 5.863497 0.685007 -1.049040 51.246891 2.809965 16.295083 0.866593 21.915261 8.976830 3.689164 5.537299 3.835192 
-0.291060 58.185936 -2.338029 106.028480 -83.579563 167.330972 0.294320 0.267602 1.861066 0.858581 -1.175326 8.157582 -7.094652 7.149996 20.903721 -0.107620 -0.781351 -1.350294 -3.812241 -5.506038 2.560360 -1.024760 -6.152356 9.252555 3.710353 -17.092658 25.950717 -2.687555 -1.311390 -0.643381 -1.674179 -1.829695 15.003350 -1.901069 -2.083220 -12.413642 3.424106 -3.930832 9.616551 -1.187599 -3.274730 -4.500856 2.765688 4.119013 -4.155520 -8.083888 -0.157773 1.645803 -44.460769 -7.496318 10.039921 -8.069878 -21.444871 16.688472 -8.493035 -12.064247 2.035131 6.290723 1.113097 -0.977986 52.865375 2.724608 16.907673 0.759892 21.620276 9.239769 5.529878 5.404102 3.143666 
-0.216639 58.212921 -2.605011 103.380536 -83.550066 169.823549 0.277628 0.297369 1.590993 0.678569 -0.776400 8.951803 -7.115851 6.779481 21.357023 -0.066976 -0.879063 -1.364246 -3.888055 -5.441105 2.794549 -1.108166 -5.757546 9.070529 3.438565 -17.069269 26.297221 -2.788022 -1.071038 -0.540145 -1.588825 -1.780939 15.150802 -1.928918 -2.128400 -12.560791 3.390301 -3.981527 9.529641 -1.199524 -3.587905 -4.516076 2.552483 3.974901 -3.519233 -9.043451 -0.299559 2.155452 -46.503557 -6.885655 10.729947 -8.106895 -20.079343 17.259829 -10.334854 -11.679738 1.832592 6.972169 1.579163 -0.645336 53.737181 2.675741 17.247703 1.076786 21.082384 9.797317 7.375149 5.011368 2.711602 
-0.055378 58.237953 -3.093923 99.372029 -83.518700 173.573858 0.133882 0.205763 1.681785 0.643986 -0.571650 9.218604 -7.288942 6.651798 22.225464 0.010407 -0.872366 -1.268382 -4.052073 -5.316220 2.996230 -1.107947 -5.533601 9.099241 3.193994 -17.327531 26.716673 -2.950676 -1.086475 -0.329725 -1.610679 -1.724614 15.310347 -1.959036 -2.165908 -12.875144 3.343887 -4.026558 9.785417 -1.100040 -3.831107 -5.030677 2.513748 3.963435 -3.361037 -9.563744 -0.145992 2.455785 -48.551994 -6.053693 11.524282 -8.072950 -18.942412 18.106565 -11.387431 -11.362899 1.101192 6.877424 1.764023 -0.605663 55.012753 2.730129 17.756976 1.405577 20.762269 10.535019 8.836145 4.658842 1.796976 
0.039256 58.260406 -3.691050 95.136489 -83.986841 177.580036 0.089719 0.110617 1.893494 0.586858 -0.649457 9.175421 -7.659893 6.348442 22.793281 0.052617 -0.833014 -1.543166 -4.181511 -5.385204 3.196205 -1.101005 -5.298906 9.304515 2.760347 -17.282945 27.081952 -2.893754 -1.021366 -0.271347 -1.586914 -1.610266 15.491898 -1.802182 -2.144830 -12.741974 3.293012 -4.025609 9.577666 -1.155037 -4.071443 -5.154122 2.559318 4.026153 -2.825431 -9.950220 -0.316726 2.860994 -50.096260 -5.557894 12.176713 -8.202794 -18.312590 18.154300 -12.676125 -11.166227 0.016252 7.197207 2.051224 -0.379250 55.672363 2.653052 18.235655 1.492441 20.652246 10.416030 10.199086 4.139409 0.904083 
0.040616 58.283371 -4.106858 92.578289 -84.032702 -179.768922 0.134711 0.118748 1.695390 0.523571 -0.423513 9.386463 -7.802987 6.067094 22.953864 0.071448 -0.798991 -1.488162 -4.198109 -5.331923 3.372618 -0.983787 -4.855391 8.886903 2.474028 -17.230542 27.075559 -2.798997 -1.004495 -0.144147 -1.561774 -1.560871 15.561052 -1.820055 -2.159453 -12.918472 3.310016 -4.064963 9.551587 -0.969176 -4.561921 -5.232375 2.492099 3.932990 -2.464822 -10.173045 -0.197965 3.181408 -51.481337 -4.989427 12.528649 -8.039899 -17.122681 18.481968 -14.249718 -11.330793 -0.353825 6.851364 2.162840 -0.415725 56.910793 2.444171 18.588254 1.300016 20.429683 10.725886 11.886566 4.359330 0.077846 
0.008663 58.306664 -4.355279 93.225631 -84.096271 -179.978569 0.333454 0.069341 1.226409 0.628467 -0.231720 9.478448 -7.805401 5.732794 22.850352 -0.002853 -0.818876 -1.439588 -3.914450 -5.461790 3.486675 -0.908741 -4.752422 7.930224 2.382804 -17.046730 26.951660 -3.073514 -1.054250 0.025347 -1.481877 -1.579413 15.267861 -1.833747 -2.235024 -12.920953 3.350519 -4.047932 9.687179 -0.914039 -4.713230 -5.329326 2.661962 3.942529 -2.822138 -10.630544 -0.164672 3.403832 -52.277610 -4.439826 12.990767 -8.284502 -16.623476 18.730017 -14.744276 -11.235691 -0.318883 6.920355 2.299208 -0.186575 57.235514 2.542784 18.914555 1.557563 20.591605 11.014463 12.547855 4.472755 -0.019902 
0.104438 58.324883 -4.535367 92.887815 -84.109842 -179.801108 0.377478 -0.097947 1.117730 0.645098 -0.267390 9.966571 -7.956734 5.937419 23.125859 0.065954 -0.881350 -1.333734 -3.861457 -5.342218 3.772745 -0.837515 -4.551965 7.708533 2.314059 -17.005151 27.401386 -3.150043 -1.165992 -0.034051 -1.439779 -1.511018 15.280506 -1.938091 -2.243787 -13.087275 3.495691 -4.055986 9.717243 -0.860049 -4.753594 -5.470511 2.809498 4.365561 -2.794549 -10.672932 -0.106097 3.618933 -53.212317 -3.861875 13.223684 -8.337640 -16.210363 18.931391 -15.672393 -11.274622 -0.399415 6.583058 2.348294 -0.163837 57.967229 2.419926 19.238066 1.560433 20.509555 11.218046 13.599494 4.401382 -0.443695 
0.225541 58.344315 -5.107904 89.414056 -84.460800 -176.323166 0.400049 -0.355443 0.679060 0.696815 -0.216351 10.659981 -8.279411 5.705866 23.662457 0.037001 -0.872534 -1.327214 -3.776889 -5.421118 3.930513 -0.834809 -4.325824 7.460499 1.938439 -17.128903 27.889722 -3.408335 -1.210175 -0.101184 -1.433759 -1.448367 15.209715 -1.838351 -2.229940 -13.251234 3.545444 -4.122761 9.740485 -0.889567 -4.968223 -5.452508 2.975341 4.482005 -2.681553 -10.760402 0.051293 3.728871 -53.769482 -3.566209 13.460866 -8.371782 -16.133721 18.836595 -15.931519 -11.300052 -1.011798 6.561467 2.235976 -0.005841 58.295813 2.226130 19.522108 1.939138 20.838253 11.395226 14.108417 4.267301 -0.829835 
0.288545 58.362534 -5.294852 88.360084 -84.528146 -175.479876 0.512439 -0.267957 0.513611 0.561448 -0.258748 11.324945 -8.321467 5.519104 23.967080 -0.047035 -0.827479 -1.358588 -3.748780 -5.507104 4.155807 -0.825434 -3.771789 7.433780 1.683977 -17.152894 28.299773 -3.067306 -0.955196 0.064509 -1.409728 -1.423964 15.317743 -1.870415 -2.239825 -13.426515 3.480965 -4.163893 9.787706 -0.818122 -5.081845 -5.448313 2.969193 4.442953 -2.460646 -10.919582 0.145717 3.874981 -53.926792 -3.247334 13.505999 -8.316670 -15.844912 19.124576 -16.295579 -11.232667 -1.203625 6.527598 2.419946 0.164859 58.557713 2.240033 19.588913 2.183091 20.792545 11.974889 14.545119 4.242391 -0.674463 
0.328553 58.376732 -5.787634 85.024303 -84.776364 -172.090077 0.521630 -0.437599 0.134644 0.608313 -0.329801 11.880802 -8.634254 5.414341 24.071685 0.017115 -0.859903 -1.335295 -3.660398 -5.471558 4.233414 -0.805482 -3.648749 7.291966 1.465270 -17.421918 28.257632 -3.386953 -0.952497 -0.092694 -1.489005 -1.347321 15.178495 -1.736331 -2.252108 -13.392079 3.525856 -4.170383 9.814884 -0.878642 -5.121980 -5.566655 3.112396 4.577807 -2.341774 -10.987328 0.153247 3.967574 -54.153590 -2.954743 13.679561 -8.477110 -15.790459 19.011665 -16.485565 -11.202229 -1.593626 6.634010 2.336347 0.248873 58.655566 2.134336 19.712519 2.532327 21.055865 11.816278 15.043234 4.267657 -0.984101 
0.344515 58.390190 -5.974466 83.256533 -84.979297 -170.271330 0.545123 -0.599648 -0.208625 0.530295 -0.497729 12.368229 -8.720352 5.408123 24.109520 0.019715 -0.799361 -1.210994 -3.592144 -5.436993 4.428366 -0.771230 -3.315791 6.882449 1.137220 -17.585107 28.503004 -3.197625 -0.938864 -0.094425 -1.491350 -1.232449 15.170549 -1.723060 -2.276780 -13.698458 3.581849 -4.193019 9.950613 -0.942813 -5.301095 -5.688267 3.176438 4.607952 -2.206959 -10.961378 0.244424 4.000223 -54.341449 -2.656585 13.816470 -8.624492 -15.616751 18.951478 -16.482363 -11.213147 -1.762490 6.617900 2.355557 0.346365 58.590771 1.994473 19.839283 3.005701 21.183506 11.961574 15.424170 4.315396 -1.084548 
0.350218 58.400482 -6.126418 82.311162 -85.124957 -169.210721 0.581187 -0.771035 -0.507773 0.560281 -0.457801 12.674442 -8.754730 5.275619 24.176656 0.012899 -0.842315 -1.226723 -3.459612 -5.361386 4.522842 -0.789424 -3.206406 6.522345 1.024379 -17.737546 28.575447 -3.459874 -0.859580 -0.114464 -1.495055 -1.184082 15.117552 -1.695970 -2.276873 -13.788218 3.608864 -4.228640 9.996769 -0.845940 -5.507522 -5.749518 3.310729 4.531759 -2.175725 -10.902256 0.310362 4.107690 -54.256834 -2.519812 13.883327 -8.779543 -15.795840 19.108980 -16.203187 -11.222786 -2.084656 6.680972 2.300692 0.480523 58.473023 1.985175 19.969111 3.332784 21.469467 12.307899 15.294917 4.352759 -1.121012 
0.351766 58.408089 -6.236566 81.226330 -85.115983 -168.179099 0.619292 -0.893424 -0.754307 0.366706 -0.580045 13.237445 -8.720135 5.342136 24.150274 0.013811 -0.828146 -1.203895 -3.469474 -5.319209 4.679402 -0.772670 -3.037439 6.362463 0.873385 -17.680872 28.570289 -3.295624 -0.916904 -0.152276 -1.508581 -1.084062 15.144976 -1.631776 -2.281023 -13.808577 3.598597 -4.193783 9.957795 -0.767699 -5.612018 -5.798688 3.296999 4.300275 -2.177403 -10.868345 0.342153 4.112313 -54.261400 -2.460938 13.929357 -8.824903 -15.952822 18.971804 -16.185922 -11.185230 -2.294415 6.759383 2.261417 0.482456 58.429069 1.881106 19.997839 3.370651 21.660547 12.165329 15.487778 4.218037 -1.473333 
0.401376 58.414368 -6.716565 77.410014 -85.014917 -164.570174 0.581343 -0.998378 -0.914900 0.281019 -0.599247 13.893078 -8.889646 5.328810 24.501914 -0.003548 -0.824112 -1.209120 -3.470918 -5.271796 4.907567 -0.853556 -2.865792 6.346738 0.563875 -17.744200 28.571930 -3.128912 -1.002664 -0.082653 -1.541733 -1.024053 15.262032 -1.653726 -2.286041 -13.910072 3.598816 -4.202726 9.997672 -0.720214 -5.678738 -5.787352 3.377735 4.206958 -2.144870 -10.746533 0.390778 4.128954 -54.130775 -2.386580 13.913290 -8.892753 -16.097889 19.033483 -15.958031 -11.313920 -2.581272 6.759451 2.264369 0.543795 58.648050 1.781137 20.083819 3.735927 22.116603 12.458312 15.562834 4.359543 -1.605987 
0.393577 58.420059 -6.759551 77.422027 -84.813777 -164.710265 0.551450 -1.083332 -1.089734 0.185267 -0.562743 14.506386 -8.779756 5.401703 24.508130 -0.030639 -0.828560 -1.245412 -3.493738 -5.217563 5.040475 -0.901238 -2.669702 6.315016 0.586018 -17.692506 28.453138 -3.121581 -1.036555 -0.076019 -1.538537 -0.990312 15.319132 -1.666810 -2.267511 -13.834331 3.558881 -4.147182 9.922531 -0.671456 -5.844195 -5.739688 3.356383 3.935272 -2.113278 -10.632659 0.480193 4.098503 -54.120887 -2.362894 13.969018 -8.847942 -16.258567 19.042041 -15.712739 -11.447378 -2.926630 6.668357 2.258805 0.472899 58.808246 1.820146 20.123247 3.702227 22.158634 12.582098 15.531225 4.361696 -1.686799 
0.399849 58.426941 -6.945773 75.888683 -84.814575 -163.317689 0.513414 -1.244863 -1.119692 0.140148 -0.632698 14.819992 -8.807232 5.543330 24.584895 -0.022231 -0.846827 -1.257226 -3.470667 -5.176749 5.168112 -0.939832 -2.470373 6.388172 0.467807 -17.771556 28.342191 -3.220330 -1.144360 -0.086379 -1.561372 -0.985535 15.363494 -1.699114 -2.262075 -13.835083 3.552241 -4.116965 9.977505 -0.693576 -5.845554 -5.702020 3.471922 3.945642 -2.032755 -10.434549 0.483008 4.032071 -54.086966 -2.381023 13.874616 -8.773469 -16.390046 18.840577 -15.530887 -11.630499 -3.359884 6.538242 2.237048 0.453584 59.016979 1.773558 20.271337 3.845338 22.451461 12.876278 15.593048 4.385611 -1.644734 
0.389119 58.435730 -6.903172 75.453340 -84.989899 -162.957077 0.528836 -1.393242 -1.153283 0.068823 -0.694774 15.018993 -8.752151 5.587815 24.471161 -0.050841 -0.826250 -1.263131 -3.435611 -5.180296 5.250807 -0.970288 -2.437752 6.423857 0.460196 -17.784056 28.366299 -3.300757 -1.164356 -0.150184 -1.576010 -0.905727 15.326968 -1.683966 -2.259632 -13.903416 3.556222 -4.080258 10.107257 -0.633614 -5.748814 -5.765183 3.502822 3.933782 -1.906751 -10.139674 0.554451 3.945666 -53.962378 -2.327400 13.868792 -8.911984 -16.767941 18.773718 -15.564678 -11.790200 -3.826049 6.464613 2.085153 0.395821 58.940640 1.754890 20.385901 4.027103 22.544944 12.803897 15.593356 4.475444 -2.018439 
0.361771 58.445503 -7.038137 74.264265 -84.847369 -161.703992 0.544252 -1.311377 -1.241220 -0.058727 -0.549552 15.078508 -8.761095 5.509848 24.492003 -0.085500 -0.838533 -1.352562 -3.438847 -5.157722 5.134526 -1.055426 -2.266950 6.482536 0.310890 -17.775750 28.233162 -3.130225 -1.093650 -0.106907 -1.631655 -0.916713 15.254076 -1.641757 -2.198131 -14.033099 3.480281 -4.074282 10.176622 -0.578788 -5.734791 -5.734403 3.443459 3.748086 -1.805981 -10.024627 0.782920 3.996155 -53.331264 -2.261480 13.707714 -9.152806 -17.328550 18.564612 -15.282735 -11.919869 -4.320108 6.684536 1.950471 0.412251 58.597725 1.767413 20.260367 4.469859 22.924492 12.799280 15.192710 4.641571 -2.251065 
