HIERARCHY
ROOT Hips
{
	OFFSET -0.179506 -22.333345 2.821913
	CHANNELS 6 Xposition Yposition Zposition Zrotation Yrotation Xrotation 
	JOINT LeftUpLeg
	{
		OFFSET 6.951974 -9.140623 -0.681533
		CHANNELS 3 Zrotation Yrotation Xrotation
		JOINT LeftLeg
		{
			OFFSET 3.427654 -37.519855 -0.449580
			CHANNELS 3 Zrotation Yrotation Xrotation
			JOINT LeftFoot
			{
				OFFSET -1.359570 -39.796059 -4.369333
				CHANNELS 3 Zrotation Yrotation Xrotation
				JOINT LeftToe
				{
					OFFSET 2.635814 -5.579078 11.928840
					CHANNELS 3 Zrotation Yrotation Xrotation
					End Site
					{
						OFFSET 0.000000 0.000000 0.000000
					}
				}
			}
		}
	}
	JOINT RightUpLeg
	{
		OFFSET -6.767048 -9.052170 -0.431982
		CHANNELS 3 Zrotation Yrotation Xrotation
		JOINT RightLeg
		{
			OFFSET -3.829005 -38.256897 -0.885003
			CHANNELS 3 Zrotation Yrotation Xrotation
			JOINT RightFoot
			{
				OFFSET 1.577377 -39.841461 -4.231180
				CHANNELS 3 Zrotation Yrotation Xrotation
				JOINT RightToe
				{
					OFFSET -2.537174 -4.814398 12.334795
					CHANNELS 3 Zrotation Yrotation Xrotation
					End Site
					{
						OFFSET 0.000000 0.000000 0.000000
					}
				}
			}
		}
	}
	JOINT Spine
	{
		OFFSET -0.253288 10.896323 -2.669631
		CHANNELS 3 Zrotation Yrotation Xrotation
		JOINT Spine1
		{
			OFFSET 0.548704 13.518043 0.109247
			CHANNELS 3 Zrotation Yrotation Xrotation
			JOINT Spine2
			{
				OFFSET 0.145701 5.292222 2.542457
				CHANNELS 3 Zrotation Yrotation Xrotation
				JOINT Neck
				{
					OFFSET -0.277840 21.387037 -4.285703
					CHANNELS 3 Zrotation Yrotation Xrotation
					JOINT Head
					{
						OFFSET 0.515184 6.496960 5.134897
						CHANNELS 3 Zrotation Yrotation Xrotation
						End Site
						{
							OFFSET 0.000000 0.000000 0.000000
						}
					}
				}
				JOINT LeftShoulder
				{
					OFFSET 7.884473 12.174932 -3.408961
					CHANNELS 3 Zrotation Yrotation Xrotation
					JOINT LeftArm
					{
						OFFSET 9.097692 3.046888 -0.886815
						CHANNELS 3 Zrotation Yrotation Xrotation
						JOINT LeftForeArm
						{
							OFFSET 25.961220 -1.277207 -2.745643
							CHANNELS 3 Zrotation Yrotation Xrotation
							JOINT LeftHand
							{
								OFFSET 24.923361 0.898606 -0.117091
								CHANNELS 3 Zrotation Yrotation Xrotation
								End Site
								{
									OFFSET 0.000000 0.000000 0.000000
								}
							}
						}
					}
				}
				JOINT RightShoulder
				{
					OFFSET -8.175920 11.883285 -3.861528
					CHANNELS 3 Zrotation Yrotation Xrotation
					JOINT RightArm
					{
						OFFSET -9.601238 3.255117 -0.914307
						CHANNELS 3 Zrotation Yrotation Xrotation
						JOINT RightForeArm
						{
							OFFSET -25.374195 -1.332924 -2.140099
							CHANNELS 3 Zrotation Yrotation Xrotation
							JOINT RightHand
							{
								OFFSET -25.529810 0.777228 -0.555919
								CHANNELS 3 Zrotation Yrotation Xrotation
								End Site
								{
									OFFSET 0.000000 0.000000 0.000000
								}
							}
						}
					}
				}
			}
		}
	}
}
MOTION
Frames: 103
Frame Time: 0.033333
-0.179506 45.520988 2.821913 -29.446855 -73.001234 -61.411782 5.719613 1.922290 5.305174 0.166903 -4.588174 4.816092 -4.768818 10.235376 21.793565 -1.193552 0.215191 -0.380895 -6.354051 -4.127944 -8.068769 1.292775 -4.355731 28.562847 9.396929 -8.625101 18.173853 1.424049 -0.729835 0.459986 -1.603881 -2.097418 15.696087 1.265332 -2.460044 -4.593750 3.846053 -4.298132 6.919731 0.525249 -5.269509 0.050898 7.911811 0.683094 0.127581 -13.022706 0.817967 6.739385 -39.156243 2.966739 14.155884 -19.821760 -43.687556 38.657409 -17.463566 -16.208113 -7.123149 11.151521 1.605891 2.245687 45.436216 -4.777787 12.270242 -3.893503 40.368770 7.798740 15.743038 5.313080 0.067611 
-0.661210 45.531723 1.977181 -29.577208 -72.440071 -61.138393 5.957674 2.000647 5.034875 0.159837 -4.572579 4.844604 -4.933528 9.681711 21.617845 -1.301863 0.240486 -0.388925 -6.178832 -4.225768 -7.817902 1.472313 -4.117215 27.875778 8.906027 -8.843159 17.556862 1.300850 -0.720769 0.494651 -1.872789 -1.895296 15.719792 1.209573 -2.413956 -4.629995 3.928861 -4.280718 6.981257 0.453719 -5.412468 -0.291970 8.097282 0.849849 -0.240505 -13.129689 0.695151 6.619240 -38.356172 2.885069 14.008475 -19.902658 -44.147538 38.156012 -17.875988 -16.156174 -6.847069 11.443949 1.709835 2.270714 44.780448 -4.910912 12.071769 -4.211694 41.259623 7.238099 16.364357 5.624853 0.312479 
-1.063888 45.535126 1.525346 -31.613607 -71.731577 -58.857347 6.257112 2.107412 4.691797 0.062903 -4.439380 4.560507 -5.188969 9.188409 20.883651 -1.316583 0.265190 -0.284779 -6.133156 -4.519855 -7.508319 1.692425 -4.081338 26.857663 8.725963 -9.102163 17.144563 1.291850 -0.660649 0.541391 -2.018395 -1.749719 15.547312 1.197466 -2.350686 -4.484045 3.895060 -4.198450 6.968797 0.202419 -5.631578 -0.558741 8.268475 0.673566 -0.746618 -13.338155 0.598079 6.215203 -37.702127 2.759794 13.812405 -19.893753 -45.383410 37.837115 -17.919834 -16.486419 -7.439564 11.761810 1.825949 2.082735 44.029220 -4.811445 11.755508 -5.479326 42.920532 5.672716 16.759911 6.095665 -0.686944 
-1.791912 45.534409 0.362052 -33.082709 -70.720384 -57.205301 6.819050 2.086626 3.850428 -0.187146 -4.715021 5.151558 -5.655307 8.588763 20.434593 -1.353703 0.202731 -0.360979 -5.839553 -4.630340 -7.123258 1.975395 -3.700914 25.864014 8.151678 -9.186917 16.172402 1.241653 -0.689345 0.453461 -2.394536 -1.349207 15.307451 1.202505 -2.318112 -4.535184 3.989275 -4.193834 6.979237 0.367119 -5.568649 -0.960800 8.789442 0.752864 -0.796626 -13.485465 0.743399 6.167364 -36.688621 2.435913 13.640913 -19.640093 -46.726302 36.826124 -17.175272 -16.058860 -7.679662 12.126373 1.541071 2.022886 43.250699 -4.931568 11.689313 -6.233253 45.044774 4.311510 15.727228 6.653186 -1.546454 
-2.364713 45.522179 -0.374599 -34.502337 -69.976318 -55.400626 7.146568 2.065700 3.021345 -0.155522 -4.761781 5.463683 -5.925141 8.161173 19.733970 -1.336133 0.149052 -0.398829 -5.527014 -4.682670 -6.715011 2.085334 -3.234392 24.527628 7.924162 -9.067371 15.403704 1.124409 -0.630368 0.455213 -2.664921 -1.093405 15.021682 0.981092 -2.311462 -4.507331 3.968769 -4.087995 7.058395 0.198175 -5.700799 -1.529556 9.062220 0.662586 -1.504718 -13.475877 0.734920 5.833635 -35.661368 2.412944 13.458756 -19.927341 -48.360615 36.395087 -16.208175 -16.140261 -8.719004 12.235263 1.314657 1.897578 42.345826 -4.827551 11.436015 -7.080773 47.817884 2.925323 15.018203 7.077028 -2.528365 
-2.530936 45.504311 -0.793249 -36.345287 -68.901367 -53.528811 7.235348 2.304652 2.450019 -0.413831 -5.046439 5.799778 -6.437834 7.846992 19.619934 -1.390289 0.060373 -0.214111 -5.570812 -4.830522 -6.050354 2.154472 -2.604927 23.289693 7.775966 -9.433871 15.686201 1.036245 -0.458061 0.237754 -2.742890 -0.716622 15.101041 0.904575 -2.266930 -4.891429 3.946652 -3.878598 7.325996 -0.216824 -6.161715 -1.591411 9.389701 0.574294 -2.002067 -13.658405 0.682118 5.490793 -34.370614 2.368197 13.543888 -20.827346 -51.075459 36.743617 -14.784036 -16.276210 -10.015987 12.397441 1.184204 1.646601 41.242610 -5.147581 10.568603 -10.385118 51.116676 -1.098801 13.467058 7.466866 -5.157926 
-2.729705 45.486473 -1.627691 -37.257213 -68.140137 -52.808086 7.382609 2.216257 1.952146 -0.285440 -5.125697 6.481013 -6.727529 7.619894 20.294300 -1.400901 -0.097105 -0.263632 -5.340532 -4.948038 -5.304802 2.252702 -2.340234 22.117280 7.624252 -9.908057 15.896336 0.827309 -0.264798 0.111018 -3.078068 -0.387949 15.269325 0.626836 -2.079285 -5.434998 4.025411 -3.728732 7.929941 -0.456520 -6.025536 -1.764909 9.407896 0.582843 -2.234308 -13.196262 0.553889 5.026067 -33.324896 2.316348 13.202181 -21.925292 -54.258710 37.091715 -12.966906 -16.363896 -10.747015 12.319423 1.276659 1.358669 40.583131 -5.166257 9.908214 -14.498611 54.330097 -5.644589 12.237796 8.114156 -6.301381 
-2.798107 45.465019 -2.271468 -38.557615 -67.367645 -51.604519 7.541808 2.187385 1.282722 -0.224119 -5.186932 7.157939 -7.152868 7.594352 21.090743 -1.462054 -0.110226 -0.235170 -5.112570 -4.955818 -4.847867 2.260631 -2.006290 21.082353 7.698280 -10.030071 16.803555 0.771168 -0.256443 -0.095245 -3.348282 -0.097165 14.886439 0.582140 -2.067213 -5.411455 3.926848 -3.578351 7.926806 -0.788622 -6.202173 -1.795710 9.571039 0.261342 -2.409607 -13.169802 0.611306 4.692821 -31.872535 2.101582 13.318059 -21.944740 -57.950736 36.904366 -9.975459 -16.598361 -11.992531 12.276171 1.042663 0.941443 39.591331 -5.127521 8.985452 -21.360208 58.114145 -13.006819 9.037024 8.766371 -8.606664 
-2.986341 45.445206 -2.932922 -38.714147 -66.899402 -51.810940 7.571232 1.855046 1.061916 -0.108988 -5.291131 7.987249 -7.406359 8.088291 21.360479 -1.517584 -0.068433 -0.228258 -4.726747 -4.855108 -4.109130 1.987411 -1.721332 20.232669 7.733059 -9.834698 16.739545 0.822006 -0.273476 -0.166072 -3.447073 0.137035 14.853084 0.425674 -1.984487 -5.075205 3.846851 -3.319543 7.783923 -1.267618 -6.268625 -1.089814 9.171706 0.121420 -2.275827 -12.682993 0.654889 4.333565 -31.122443 1.757058 12.629797 -21.607577 -61.213079 36.497515 -8.748312 -16.484419 -11.926372 11.455411 1.066348 0.509345 39.547299 -4.377551 8.057227 -28.185385 60.794134 -19.567353 7.039574 8.636775 -9.127943 
-3.246905 45.427437 -3.240205 -40.519254 -66.019079 -50.186830 7.810060 1.648646 0.082549 -0.280820 -4.904305 9.651733 -7.521298 7.721515 20.814352 -1.560768 -0.102694 -0.041353 -4.338316 -4.912852 -3.199640 1.874920 -1.281254 18.944629 7.489704 -9.475423 16.476390 0.940843 -0.226672 -0.168571 -3.594382 0.400846 14.433625 0.277254 -2.035835 -5.234213 3.809293 -3.173571 7.876126 -1.579701 -6.320021 -0.333174 9.201039 -0.286406 -2.495059 -12.392194 0.578394 4.034157 -29.999188 1.394634 11.942239 -22.011471 -64.442980 36.605644 -6.782656 -16.141937 -11.623371 10.854350 1.351163 0.065308 38.631326 -3.287220 6.764016 -37.233623 63.616387 -28.742965 3.453088 8.803502 -9.421564 
-3.229931 45.408127 -3.179019 -43.084810 -64.886849 -48.149933 7.836082 1.862739 -0.219737 -0.185717 -4.348446 10.500660 -7.634904 7.472997 20.688541 -1.652257 -0.246907 -0.045556 -4.077889 -4.944864 -1.835762 1.617974 -0.911244 17.522608 7.835361 -9.134018 16.812824 0.707940 -0.113210 -0.325411 -3.903520 0.942672 14.245625 0.145211 -2.040263 -5.108220 3.813322 -2.888748 7.851515 -1.506025 -6.177344 0.676366 9.275654 -0.930020 -2.113144 -11.989937 -0.010540 3.777949 -29.198972 0.710782 11.835917 -23.370090 -67.073353 38.053919 -3.545098 -15.601924 -11.681256 10.268307 1.891268 -0.603790 38.293260 -2.348706 5.503770 -48.783116 64.220002 -41.067571 -1.615951 8.487068 -11.819729 
-3.531800 45.393837 -3.868677 -43.411307 -63.909277 -47.543789 7.732441 1.621783 -0.957832 -0.074045 -3.891451 11.017438 -7.874985 7.227304 20.977403 -1.721580 -0.284926 -0.155193 -3.585470 -4.758509 -1.000484 1.345799 -0.362535 15.430692 7.960496 -8.764416 16.594160 0.621471 -0.070906 -0.371541 -4.308057 1.244706 13.689090 0.110048 -1.992253 -4.741348 3.635050 -2.734724 7.421812 -1.485813 -5.871216 1.514821 8.906012 -1.257920 -1.577485 -11.629666 -0.104519 3.932877 -28.366329 0.342498 11.839740 -24.459590 -69.218840 38.945146 -3.094549 -15.725862 -11.328217 9.391857 2.267754 -1.064838 37.460329 -0.858379 4.856678 -58.771337 64.920601 -50.589551 -3.041860 8.430486 -12.190621 
-3.922911 45.390083 -3.924597 -44.604140 -62.438421 -46.061111 7.546266 1.578243 -1.761815 -0.494876 -3.461472 11.701265 -7.678049 6.476195 19.746575 -1.782187 -0.201275 -0.174740 -3.541249 -4.563769 -0.526488 1.156110 0.267828 14.535502 7.814776 -8.543618 15.600345 0.526245 -0.094054 -0.507835 -4.675414 1.531125 13.293457 0.063203 -1.931670 -4.265020 3.412696 -2.545410 7.059609 -1.504052 -6.016534 2.434186 8.689007 -1.569124 -1.741400 -11.648343 -0.595862 4.022321 -27.102244 0.011891 11.984504 -27.075882 -71.412496 41.940554 -1.561417 -15.364290 -11.041611 8.806175 2.966848 -1.496070 35.936911 0.735474 3.386827 -70.759283 63.836067 -62.517071 -5.526737 7.836663 -13.220801 
-4.290551 45.396118 -4.533943 -44.860522 -61.582926 -45.938437 7.559139 1.497680 -2.438151 -0.542698 -3.155497 13.034895 -7.926281 6.137786 19.285769 -1.690500 -0.304247 -0.242566 -3.216378 -4.553158 0.039776 0.926638 0.284294 13.990873 7.907202 -8.460257 14.656348 0.324533 -0.024824 -0.569708 -4.851445 1.693740 12.848263 -0.015777 -1.843555 -3.725984 3.190031 -2.257541 6.942020 -1.289990 -5.828759 3.222085 8.151457 -1.415782 -1.692004 -11.274897 -0.970984 3.763797 -26.759041 -0.011535 11.983291 -29.059025 -72.561711 44.681378 0.206267 -14.451350 -9.527408 8.099745 3.695452 -2.159479 34.815900 3.061465 2.009836 -79.200689 62.278948 -70.647915 -7.676668 7.401157 -12.200349 
-4.576719 45.410461 -4.882029 -45.545035 -60.844688 -45.260716 7.694687 1.299550 -3.301619 -0.647820 -2.564488 14.485906 -8.111199 5.817572 18.566675 -1.651026 -0.296570 -0.052911 -2.814875 -4.562994 0.418760 0.725564 0.317971 13.528581 7.665569 -8.164794 13.963879 0.563767 -0.042857 -0.482740 -4.899470 1.871186 12.462788 -0.112434 -1.838436 -3.265675 2.841830 -1.869646 6.617322 -1.416590 -5.250282 4.130562 7.378016 -1.423838 -1.642781 -11.209920 -1.547673 3.726366 -26.606011 -0.026949 11.728210 -29.351558 -73.761831 46.086565 1.281549 -14.341877 -7.158111 7.061399 4.684801 -2.797511 34.014993 5.793899 0.378266 -88.311445 60.484058 -78.860343 -10.334741 7.452654 -10.265153 
-4.724200 45.429359 -4.804225 -46.075806 -60.408949 -44.658226 7.790517 1.320719 -3.890527 -0.907831 -2.127154 15.612015 -7.873164 5.393870 17.692568 -1.539136 -0.365879 -0.034243 -2.769896 -4.592352 0.569135 0.808562 0.675300 13.395240 7.752224 -8.005613 13.430959 0.505656 0.067619 -0.627949 -5.013908 1.995896 12.293068 -0.199562 -1.739034 -3.120570 2.552725 -1.554736 6.683274 -1.015614 -4.750859 4.636066 6.910613 -1.253411 -1.391852 -11.095111 -2.183742 3.456688 -26.628325 0.275594 12.010652 -30.772390 -74.429226 48.499198 1.570135 -14.402630 -5.523345 6.307522 5.850393 -3.346984 32.728881 8.364199 -1.022417 -94.476778 58.743003 -84.651618 -11.026404 7.279155 -10.203595 
-5.208517 45.440559 -5.420308 -47.797630 -58.543575 -42.758226 7.949543 1.208195 -4.826494 -1.182204 -2.140795 15.875764 -7.877476 4.297593 17.280472 -1.485479 -0.459427 -0.058897 -2.523032 -4.801969 0.470114 0.872984 0.804138 13.229600 6.887389 -8.647872 12.270981 0.204984 0.134982 -0.692094 -5.058193 2.155473 12.126244 -0.115070 -1.703857 -3.166818 2.179224 -1.441196 6.562441 -0.819643 -5.024534 5.449069 6.728345 -1.365585 -1.321471 -11.202440 -3.139488 3.384911 -25.302129 0.373002 12.832141 -38.685022 -74.643624 57.600654 2.273415 -13.893337 -5.747573 6.482839 6.856954 -3.534536 29.487011 10.494396 -2.634206 -100.376967 57.008200 -88.992379 -11.966341 6.819776 -8.731469 
-5.675651 45.448227 -5.968634 -48.294128 -57.418347 -41.976553 7.940214 0.714908 -5.571697 -1.220960 -1.996676 16.352595 -8.010489 3.824905 16.718824 -1.535562 -0.409310 0.173757 -2.258961 -4.624617 0.528416 0.729020 0.758669 12.742471 5.984556 -8.707707 10.948496 0.457069 0.016764 -0.673675 -4.921802 2.358718 12.103344 -0.238750 -1.507377 -2.742056 1.930043 -1.207985 5.924036 -0.166959 -4.369420 5.991436 6.436888 -1.283733 -1.037985 -10.989647 -3.863620 3.478557 -24.868678 0.706091 13.241678 -43.830701 -74.978287 63.045765 1.041313 -14.239349 -4.267827 5.278481 8.005572 -4.025277 27.824158 13.095578 -3.872146 -105.135425 55.389393 -93.027956 -11.579307 6.902583 -8.526095 
-6.052866 45.455673 -6.896469 -48.111003 -56.721308 -42.198089 8.202761 0.625277 -6.159885 -1.305850 -1.619415 17.154282 -8.539298 3.368806 17.341787 -1.416389 -0.235396 0.248705 -2.047365 -4.882018 0.866442 0.716794 0.959063 11.955713 5.527819 -8.749324 10.819966 0.747269 -0.105953 -0.535616 -5.002933 2.712234 11.689569 -0.312379 -1.538536 -2.133626 1.616969 -0.973090 5.502488 -0.009782 -4.400161 6.438868 6.250572 -1.838003 -0.391846 -11.084079 -4.692047 3.513336 -23.956867 1.037100 13.793604 -48.434237 -74.428317 68.546862 0.767323 -14.865909 -3.269353 4.513934 9.275976 -4.627152 25.415626 15.122121 -5.567510 -110.209615 53.429798 -96.661950 -13.123409 7.696092 -5.997519 
-6.390485 45.460098 -7.683462 -48.001460 -56.141473 -42.346339 8.325730 0.440942 -6.300247 -1.196513 -1.360340 17.168204 -8.735059 3.244385 17.817854 -1.256114 -0.210118 0.380888 -1.966753 -5.099500 0.580559 0.934558 0.543546 12.320713 5.203196 -9.149074 10.263765 0.773469 -0.041647 -0.558485 -4.924037 2.759331 11.537452 -0.525000 -1.375294 -2.051365 1.334554 -0.833865 5.619119 0.502029 -4.248454 6.852563 6.024212 -1.814328 -0.157147 -11.327440 -5.287077 3.476597 -22.936268 1.643847 14.762075 -55.921085 -74.194096 76.643400 0.475184 -15.552470 -2.363867 4.302553 10.532110 -4.855040 21.651230 16.849579 -7.349070 -114.947768 52.409177 -100.151843 -13.820375 8.544664 -4.224209 
-6.632267 45.464417 -7.979644 -48.585226 -55.328209 -41.542295 8.544817 0.653297 -6.398435 -1.399720 -1.003376 16.542354 -8.771752 2.662707 17.666620 -1.043315 -0.265740 0.433975 -1.949142 -5.306914 0.498471 1.098686 0.241713 11.986210 4.566299 -9.386516 9.673510 0.742218 0.076590 -0.546833 -4.966031 2.872531 11.142372 -0.522271 -1.287199 -1.665525 1.056111 -0.739922 5.328111 1.017987 -4.221781 7.524572 6.086475 -1.708938 -0.442304 -11.416712 -5.823223 3.685757 -23.246822 2.333657 15.493766 -62.114162 -73.554693 83.233118 -0.968116 -15.603438 -1.840312 3.893990 11.736199 -4.832308 18.274070 18.746466 -9.066142 -118.569259 52.214275 -102.897237 -12.840582 8.907430 -3.482757 
-6.933740 45.471863 -8.693331 -48.105155 -54.823787 -42.004557 8.662977 0.874230 -6.588864 -1.385924 -0.311746 16.798952 -9.124013 2.136824 18.337982 -0.994277 -0.136157 0.545924 -2.025591 -5.561832 0.564486 1.151672 0.062682 11.677342 4.194402 -9.325079 9.463342 0.678320 0.017692 -0.450767 -4.964788 3.021968 10.619814 -0.417828 -1.269142 -0.764599 0.800267 -0.518813 4.711325 1.297014 -4.612034 7.999283 6.124890 -1.749369 -0.122870 -11.957646 -6.351632 4.046204 -23.383951 2.921303 16.464446 -63.343954 -72.659529 85.019783 -1.613388 -15.764106 -1.387316 3.922212 12.664000 -4.802696 15.296315 19.612284 -10.561264 -122.563561 50.873826 -106.366454 -12.884306 9.486546 -1.636578 
-7.384775 45.478638 -9.295047 -48.490742 -53.642023 -41.123058 8.687324 0.599709 -7.202089 -1.310788 0.123369 16.422239 -9.485758 1.519309 18.492106 -0.980600 -0.133364 0.487328 -1.847115 -5.646948 0.313600 0.945946 -0.348117 11.011595 3.364573 -9.649944 8.477280 0.587776 0.084371 -0.334723 -4.836410 3.252054 10.124990 -0.531242 -1.147612 -0.564682 0.597720 -0.403790 4.269548 1.889515 -4.802560 8.465381 6.102575 -2.221678 0.747318 -12.405310 -6.832289 4.138250 -23.179733 3.795642 17.356627 -68.292995 -71.533324 90.071296 -1.985852 -16.088310 -0.385019 3.598156 13.451754 -5.185075 12.350404 21.244395 -11.841452 -126.824537 50.158213 -109.390486 -13.807172 10.417162 0.015207 
-7.550839 45.484314 -9.884484 -48.536646 -53.211440 -41.224850 8.786176 0.545665 -6.842772 -1.121511 0.195405 15.888341 -9.405727 2.122022 19.336145 -0.731957 -0.132197 0.443653 -1.791809 -5.831228 0.442497 1.143021 -0.856255 10.768691 3.484588 -10.153381 8.475115 0.522422 0.133534 -0.270584 -4.897265 3.265896 9.780767 -0.795706 -1.208250 -0.223811 0.392409 -0.511830 4.306982 2.118525 -5.238270 8.653104 6.337262 -2.680658 0.557961 -12.837200 -7.152349 4.660944 -22.956170 4.965745 18.358122 -71.912419 -70.129340 94.207667 -2.050759 -16.415472 0.275196 2.903671 14.509815 -5.446345 10.050936 21.904777 -13.093853 -130.675421 49.010808 -112.754241 -13.579563 10.723735 -0.100173 
-7.958428 45.493828 -10.489107 -49.122098 -51.871812 -40.445838 8.829433 0.641314 -6.621236 -1.170280 0.351385 14.465625 -9.460440 2.139841 19.462128 -0.641496 -0.108614 0.444226 -1.752209 -6.165295 0.509070 1.141812 -1.154287 10.015108 2.969377 -10.773284 7.586644 0.505887 0.094546 -0.137016 -4.879729 3.421676 9.267627 -0.969351 -1.231813 0.324470 0.154499 -0.611848 3.995291 2.129600 -6.054773 9.274530 6.429024 -3.509895 0.516877 -13.720216 -7.053248 5.274939 -22.920287 6.138102 19.436431 -74.711513 -68.596785 96.799993 -2.015767 -16.129258 0.582061 2.572555 15.163919 -5.605732 7.068838 22.621989 -14.224198 -133.771262 48.864499 -115.155449 -14.141827 11.206018 1.364094 
-8.233457 45.506172 -10.830271 -49.691947 -50.706114 -39.586902 8.768547 0.606241 -6.256876 -1.207588 0.436627 12.746900 -9.283565 2.389518 19.534891 -0.520535 -0.102905 0.454133 -1.786874 -6.318475 0.407932 1.170175 -1.441843 9.494295 2.528995 -11.322304 6.902422 0.533068 0.096440 -0.018569 -4.801604 3.444473 8.982204 -1.190979 -1.092173 0.435516 -0.056352 -0.679690 3.872584 1.995862 -6.866976 9.782708 6.464391 -4.356087 0.583715 -14.275754 -6.952829 5.674183 -23.107711 7.070400 20.232538 -75.359481 -67.430074 97.763583 -1.899339 -15.820812 1.182485 2.076823 15.857554 -5.877534 4.857926 23.261795 -15.066449 -136.566958 48.794291 -117.160629 -14.347298 11.227058 2.249819 
-8.650543 45.520744 -11.439735 -49.797014 -49.601323 -39.372174 8.802666 0.810935 -6.067207 -1.530387 0.219054 11.703406 -9.247792 2.574062 19.674457 -0.326706 -0.083299 0.387403 -1.972094 -6.834197 0.348111 1.355301 -1.635670 9.136811 2.044319 -12.025635 6.039315 0.450835 0.111944 0.053701 -4.843710 3.563608 8.808754 -1.406018 -1.250098 0.658844 -0.357946 -0.765377 3.831013 1.923409 -7.843116 9.673153 6.813862 -5.073082 0.607535 -14.854340 -7.024069 5.963474 -22.213087 7.789398 21.084506 -76.519041 -66.381240 99.558986 -1.871696 -15.438015 1.871483 2.113881 16.415758 -5.850983 2.453579 23.121265 -16.110502 -139.393318 48.075015 -119.306997 -14.366123 11.544197 3.545359 
-9.010407 45.533081 -11.904675 -49.671980 -48.878017 -39.176243 8.735149 0.822620 -5.849803 -1.573291 0.185672 10.562315 -8.992668 2.956893 19.870450 -0.289143 -0.051297 0.345600 -2.032777 -6.963063 0.138563 1.364555 -1.997656 8.781665 1.673589 -12.414890 5.080838 0.456593 0.100217 0.118067 -4.817554 3.525586 8.634051 -1.519932 -1.213822 0.797041 -0.510535 -0.836162 3.687367 1.906263 -8.485425 9.565255 6.939580 -5.722490 0.630174 -15.234836 -7.028907 6.194899 -21.635073 8.210166 21.770385 -77.379649 -65.553983 100.683752 -2.062400 -15.602685 2.539107 1.904401 16.744192 -5.971359 0.935152 23.098253 -16.569402 -141.697291 47.521599 -121.402597 -14.110702 11.923214 3.931355 
-9.269780 45.546867 -12.241953 -49.662695 -48.399228 -39.063695 8.750995 0.819992 -5.683162 -1.596130 0.073155 9.921827 -8.703171 3.415039 19.951844 -0.106457 -0.091008 0.314888 -2.053468 -7.162961 0.099224 1.441509 -2.318193 8.487847 1.561858 -12.777188 4.361172 0.419998 0.118206 0.134293 -5.004132 3.637148 8.449304 -1.581717 -1.262221 0.608146 -0.618988 -0.818329 3.898243 2.154124 -9.200399 9.369089 7.351525 -6.306734 0.179369 -15.379419 -7.033160 6.277398 -21.187346 8.541840 22.325671 -78.223198 -65.220953 101.816020 -0.890038 -16.188509 3.123695 1.793923 16.947963 -5.980084 -0.034991 22.953198 -16.899878 -143.765670 47.331834 -123.442416 -14.856320 12.244215 3.445688 
-9.357783 45.559204 -12.111202 -49.875938 -48.023053 -38.551573 8.701998 0.876922 -5.713382 -1.657513 0.144214 9.527489 -8.161933 3.631090 19.600838 -0.047387 -0.098273 0.310969 -2.073850 -7.077880 -0.061820 1.378395 -2.559348 8.266591 1.304491 -13.133040 3.911636 0.394139 0.184850 0.107384 -5.090480 3.592746 8.468109 -1.557391 -1.281784 0.549961 -0.711429 -0.813537 3.887334 2.429268 -9.382832 9.210598 7.540341 -6.498251 0.043400 -15.626960 -7.162547 6.377394 -20.588694 8.887254 22.852916 -80.751376 -64.726283 104.298706 -0.374674 -16.468718 3.514803 1.968935 17.146530 -5.984329 -0.979835 22.869711 -17.096607 -145.897885 46.809244 -125.578982 -15.198049 12.616669 3.303455 
-9.326664 45.571281 -12.024489 -50.154648 -47.981962 -38.319401 8.691827 0.805265 -5.358131 -1.439531 -0.074978 8.958715 -7.844721 4.139005 19.616630 -0.022376 -0.080694 0.278429 -1.918766 -6.921396 -0.111312 1.298609 -2.701886 8.404778 1.242370 -13.287190 4.031225 0.373050 0.207683 0.170813 -5.121273 3.518729 8.311408 -1.557611 -1.229609 0.777795 -0.604663 -0.869421 3.681917 2.556018 -9.379276 9.146546 7.524253 -6.517590 0.048105 -15.782118 -7.130242 6.608692 -20.280320 8.991024 23.033538 -82.495283 -64.251485 106.036891 -0.064464 -16.742932 3.848217 1.904061 17.227183 -5.969782 -0.718911 22.749634 -16.731771 -147.549110 45.867608 -127.497377 -15.626200 12.640670 2.238793 
-9.393387 45.582748 -11.911325 -50.216485 -47.722798 -38.120462 8.596333 0.730403 -5.350148 -1.550989 -0.184080 8.758714 -7.550162 4.444942 19.297801 0.024287 -0.059122 0.252968 -1.953610 -6.843371 -0.168544 1.180311 -2.711985 8.357114 0.994933 -13.587455 3.609052 0.428715 0.190810 0.168246 -5.124516 3.458881 8.136277 -1.596672 -1.208981 0.812596 -0.649150 -0.930617 3.735351 2.607093 -9.707334 8.924663 7.640732 -6.844197 -0.213477 -15.844682 -7.037598 6.660327 -19.832075 8.945234 23.391133 -84.149918 -64.000332 107.497369 0.650616 -17.143760 3.676994 1.787522 17.146123 -6.120070 -1.146362 22.492244 -16.762297 -148.563591 45.568038 -128.813519 -15.876580 12.630444 1.678117 
-9.499310 45.594933 -11.750916 -50.459294 -47.293561 -37.753651 8.498817 0.785501 -5.312720 -1.706575 -0.444871 8.386235 -7.338604 4.632334 18.677497 0.108665 -0.076823 0.244643 -1.994301 -6.925317 -0.223399 1.052827 -2.756432 8.325794 0.689218 -13.908790 2.963612 0.423118 0.210419 0.161018 -5.182114 3.467821 7.960734 -1.554018 -1.251651 0.774514 -0.660603 -0.936320 3.828491 2.561083 -10.089456 8.804338 7.772246 -7.113712 -0.470034 -16.040109 -6.973045 6.690786 -19.173213 8.856332 23.707207 -86.322650 -63.815939 109.547725 1.524425 -17.402623 3.752164 1.841511 17.028619 -6.295674 -1.676044 21.993364 -17.036031 -149.455487 45.372822 -129.993587 -16.288146 12.632473 1.414639 
-9.555415 45.607567 -11.681715 -50.678376 -46.898042 -37.403226 8.413777 0.762611 -5.397968 -1.782537 -0.563055 8.161695 -7.283034 4.714664 18.379196 0.145025 -0.098552 0.225084 -1.995767 -6.930990 -0.323026 0.920688 -2.876497 8.300632 0.431928 -14.106432 2.648662 0.437028 0.232561 0.157392 -5.169737 3.463410 7.885598 -1.543518 -1.268642 0.742800 -0.673200 -0.962054 3.836394 2.556464 -10.294295 8.719576 7.839898 -7.383751 -0.611654 -16.240915 -6.869417 6.783058 -18.401071 8.725071 23.887861 -88.343997 -63.570785 111.320550 1.943611 -17.673074 3.898648 1.810335 16.931751 -6.535994 -1.949082 21.625392 -17.207547 -150.361712 45.200934 -131.179396 -16.688523 12.709935 1.101564 
-9.606537 45.620705 -11.656136 -50.823988 -46.665982 -37.242133 8.351954 0.700541 -5.432190 -1.783448 -0.810098 8.081709 -7.195806 5.002167 18.236454 0.203760 -0.159617 0.175532 -1.969472 -6.961904 -0.288450 0.861305 -2.792174 8.207277 0.235648 -14.378069 2.475600 0.412119 0.245704 0.141774 -5.157252 3.431799 7.716710 -1.471281 -1.290041 0.774932 -0.648093 -0.996956 3.850148 2.516488 -10.512827 8.565529 7.933904 -7.519595 -0.737341 -16.326378 -6.727969 6.834325 -17.831915 8.496303 24.115771 -89.840505 -63.289120 112.576303 2.200497 -17.832891 3.669315 1.733837 16.970140 -6.529589 -2.201144 21.370653 -17.192758 -150.861697 45.173064 -132.113787 -16.297277 12.755707 0.701987 
-9.565624 45.632996 -11.380703 -51.579409 -46.226803 -36.549693 8.387107 0.706190 -5.552551 -1.804127 -0.748058 8.052421 -7.026785 5.015706 17.707194 0.122300 -0.175379 0.205128 -1.807994 -6.861351 -0.232818 0.733615 -2.860040 8.241777 -0.051291 -14.582595 2.436851 0.444576 0.282954 0.075070 -5.035790 3.357233 7.757205 -1.424712 -1.202419 0.731825 -0.625423 -1.033894 3.793697 2.482239 -10.722905 8.597768 8.033538 -7.667512 -0.977863 -16.513913 -6.690216 6.965605 -17.279200 8.362508 24.235980 -92.506650 -62.872441 114.700822 3.180794 -18.143798 3.588352 1.976751 16.456355 -6.643944 -2.411331 20.519027 -17.514234 -151.528902 44.785017 -133.172118 -16.811877 13.080805 1.270978 
-9.591062 45.645752 -11.280570 -52.081790 -45.793111 -36.038877 8.356848 0.639007 -5.752279 -1.760053 -0.819805 8.041785 -6.898584 4.958119 17.452131 0.042066 -0.207618 0.205507 -1.635529 -6.743985 -0.203394 0.568751 -2.928701 8.139846 -0.413447 -14.843930 2.326775 0.410515 0.292159 0.047684 -4.945379 3.314918 7.813115 -1.382625 -1.147095 0.661495 -0.563457 -0.987984 3.713634 2.407131 -10.808616 8.789972 8.183201 -7.593235 -1.193171 -16.639751 -6.706595 7.071988 -16.585743 8.091260 24.333896 -94.634264 -62.380140 116.398389 3.875425 -18.545102 3.448674 1.936067 16.167443 -6.817490 -2.633004 19.928051 -17.768137 -152.247461 44.529643 -134.317764 -17.368432 13.609973 1.485113 
-9.582107 45.657875 -11.196051 -52.128609 -45.857495 -36.054821 8.345910 0.587337 -5.785428 -1.707440 -0.783442 8.318334 -6.692566 5.184378 17.337337 0.006179 -0.210794 0.180447 -1.601805 -6.652687 -0.216000 0.527734 -3.058785 8.340481 -0.379899 -14.832549 2.249430 0.412264 0.301228 0.019808 -4.995499 3.274429 7.699935 -1.275586 -1.105797 0.685007 -0.508901 -0.977759 3.705608 2.482301 -10.806237 8.581191 8.229167 -7.653562 -1.321774 -16.758727 -6.609486 7.210714 -15.946586 7.816949 24.690121 -96.445555 -61.962480 117.863435 4.242523 -18.795970 3.196114 1.927707 16.167587 -6.840801 -2.674989 19.737877 -17.518666 -152.507384 44.690692 -135.018378 -17.086128 13.602235 1.550459 
-9.553404 45.669785 -11.037596 -52.340506 -45.628045 -35.581723 8.216926 0.388206 -5.895832 -1.650752 -0.826162 7.957882 -6.577181 5.328802 17.151753 -0.015997 -0.240092 0.174012 -1.576309 -6.402163 -0.325081 0.426483 -3.108961 8.153908 -0.411966 -14.900373 2.151349 0.419890 0.310834 -0.017815 -5.087225 3.245435 7.639400 -1.068938 -1.026129 0.654476 -0.411007 -0.986941 3.659524 2.624757 -10.686820 8.584850 8.227728 -7.616702 -1.555569 -16.758654 -6.460738 7.307546 -15.876444 7.581306 24.821867 -97.747000 -61.684523 118.676113 4.918246 -19.140342 2.715699 1.682631 15.685725 -7.332264 -2.767309 19.483198 -17.420700 -153.083354 44.426492 -136.287815 -16.635167 13.273959 0.461800 
-9.538188 45.682175 -10.930124 -52.695183 -45.365441 -35.191081 8.223892 0.333577 -6.041841 -1.664634 -0.835152 7.945257 -6.529593 5.353452 16.952823 -0.013369 -0.268316 0.153034 -1.533102 -6.369875 -0.324529 0.429637 -3.103055 8.091017 -0.493330 -14.992257 2.155952 0.444620 0.320828 -0.054590 -5.102477 3.226993 7.610339 -0.982330 -0.997315 0.603051 -0.352293 -1.004273 3.675820 2.574664 -10.792941 8.481442 8.223416 -7.792747 -1.704683 -16.905301 -6.367603 7.379445 -15.454875 7.268342 25.018327 -99.110010 -61.481281 119.793354 5.121710 -19.303233 2.447008 1.750385 15.424158 -7.500907 -2.959145 19.096448 -17.323008 -153.476874 44.292458 -137.098859 -16.026065 13.149216 0.070220 
-9.503063 45.694183 -10.848530 -52.853176 -45.358997 -35.038305 8.245586 0.324706 -6.057205 -1.618942 -0.726888 7.967773 -6.452237 5.449243 16.895795 -0.016763 -0.261174 0.148445 -1.498637 -6.370113 -0.339023 0.446389 -3.188600 8.135001 -0.413378 -14.947263 2.227994 0.468443 0.331567 -0.071554 -5.127057 3.209027 7.579695 -0.897904 -0.989324 0.633611 -0.294333 -1.016161 3.639038 2.546639 -10.868015 8.383840 8.187852 -7.946638 -1.823373 -17.049438 -6.185654 7.526903 -15.049372 6.960555 25.156632 -100.263378 -61.231566 120.747514 5.021184 -19.406749 2.297721 1.734218 15.328064 -7.527211 -2.885275 18.878053 -17.100893 -153.772768 44.270397 -137.742146 -15.543262 12.950142 -0.267100 
-9.466295 45.706032 -10.788820 -52.951150 -45.470061 -35.024668 8.253620 0.255972 -5.977133 -1.500501 -0.788178 8.026664 -6.278426 5.700394 16.871614 -0.024908 -0.273459 0.146208 -1.437106 -6.284874 -0.354535 0.471596 -3.246225 8.329115 -0.360150 -14.917318 2.352148 0.484070 0.348507 -0.094745 -5.136207 3.173118 7.622210 -0.840034 -0.943488 0.511672 -0.225164 -1.005510 3.716758 2.619164 -10.909787 8.205403 8.141014 -8.033189 -2.004339 -17.136481 -5.993068 7.624187 -14.769907 6.711650 25.304202 -101.207986 -61.062989 121.429740 5.014342 -19.483697 2.015426 1.741283 15.262710 -7.523928 -2.716427 18.810101 -16.826455 -154.023330 44.389337 -138.378108 -15.199599 12.830840 -0.685639 
-9.459267 45.717773 -10.732009 -53.116184 -45.398233 -34.894340 8.267496 0.228248 -5.999962 -1.468976 -0.790564 8.079910 -6.273368 5.797257 16.734516 -0.027872 -0.283533 0.152066 -1.430097 -6.315124 -0.352166 0.514784 -3.303741 8.412037 -0.382271 -14.841743 2.338013 0.489181 0.376449 -0.106334 -5.099508 3.158908 7.593355 -0.754657 -0.936364 0.541002 -0.184164 -1.026725 3.634693 2.640472 -10.904374 8.100597 8.151255 -8.125455 -2.179439 -17.248364 -5.836553 7.709592 -14.541536 6.509781 25.411177 -101.930203 -60.979265 122.110258 5.145400 -19.579776 1.738478 1.703128 15.172322 -7.560933 -2.650716 18.801401 -16.679104 -154.357200 44.462331 -138.922014 -15.161309 12.816217 -1.064673 
-9.448094 45.729675 -10.676552 -53.271307 -45.341074 -34.805698 8.273923 0.217781 -5.978219 -1.410846 -0.793271 8.126620 -6.263301 5.831142 16.621739 -0.018735 -0.297745 0.163917 -1.405278 -6.280361 -0.255518 0.526312 -3.331623 8.379550 -0.399347 -14.784038 2.400544 0.502665 0.412850 -0.090149 -5.089727 3.173245 7.560082 -0.698840 -0.946048 0.617159 -0.129335 -1.010576 3.571525 2.651940 -10.915093 8.101417 8.132957 -8.244220 -2.237981 -17.262390 -5.838072 7.824713 -14.444620 6.371366 25.462969 -102.472953 -60.898579 122.761916 5.071946 -19.616312 1.717622 1.694081 15.214726 -7.545841 -2.398689 18.683208 -16.539704 -154.502260 44.389736 -139.158876 -14.964498 12.767363 -1.359955 
-9.392385 45.742096 -10.563304 -53.375717 -45.407135 -34.682423 8.257606 0.113379 -5.857500 -1.330987 -0.863563 7.939965 -6.076803 5.987073 16.607014 -0.008097 -0.315667 0.167083 -1.397994 -6.193475 -0.316890 0.576211 -3.253730 8.521339 -0.330280 -14.749622 2.513346 0.518674 0.449576 -0.101004 -5.099831 3.159924 7.596690 -0.691194 -0.936600 0.553076 -0.114229 -1.003443 3.605433 2.704248 -10.906545 8.012248 8.146776 -8.257778 -2.282252 -17.415887 -5.717036 7.959641 -14.206439 6.156961 25.608472 -103.173324 -60.773557 123.309122 5.001304 -19.529929 1.922092 1.808772 15.121375 -7.491402 -2.171794 18.481071 -16.437538 -154.650418 44.170571 -139.311581 -15.047212 12.649360 -1.236426 
-9.399008 45.754181 -10.529158 -53.352797 -45.481286 -34.707407 8.257993 0.092751 -5.798814 -1.293112 -0.863338 7.944811 -5.999069 6.055504 16.530791 0.010770 -0.329151 0.174425 -1.394949 -6.170466 -0.302597 0.596905 -3.247147 8.539977 -0.375900 -14.703077 2.506608 0.553090 0.476337 -0.062113 -5.063436 3.153035 7.579107 -0.637784 -0.923109 0.479877 -0.072786 -0.981819 3.650826 2.818182 -10.887718 7.807299 8.022656 -8.435067 -2.237207 -17.402162 -5.678178 7.990520 -14.156033 6.030868 25.665967 -103.353448 -60.608853 123.522068 4.961947 -19.549571 1.903424 1.809776 15.194589 -7.552631 -2.103224 18.658939 -16.379373 -154.823729 44.226136 -139.390581 -15.204497 12.576480 -1.233149 
-9.409075 45.766975 -10.516846 -53.246124 -45.521318 -34.766078 8.217048 0.116726 -5.688628 -1.275500 -0.832932 7.781302 -5.999067 6.083020 16.538281 0.052823 -0.330198 0.153519 -1.453018 -6.175748 -0.311454 0.617518 -3.255273 8.541624 -0.319688 -14.657448 2.395919 0.563615 0.478389 -0.070352 -5.106155 3.154047 7.548559 -0.575168 -0.935834 0.507768 -0.032277 -0.978387 3.695609 2.891550 -10.925477 7.718850 7.993810 -8.533643 -2.335824 -17.389494 -5.667825 8.017302 -14.079176 5.856789 25.741136 -103.409297 -60.474381 123.653388 5.185436 -19.542486 2.066691 1.795674 15.311760 -7.578968 -2.172901 18.852005 -16.399116 -154.908945 44.184204 -139.493177 -15.184646 12.388394 -1.336424 
-9.397314 45.780975 -10.486037 -53.159445 -45.666287 -34.814634 8.215027 0.202280 -5.690890 -1.241231 -0.775405 7.889740 -5.960945 6.158841 16.462052 0.111045 -0.349275 0.123178 -1.483098 -6.247657 -0.312796 0.668319 -3.305354 8.518158 -0.175851 -14.534921 2.369689 0.561687 0.474743 -0.078699 -5.101917 3.169092 7.480958 -0.538552 -0.971778 0.477324 -0.002079 -0.991647 3.791755 3.009309 -10.961256 7.522385 7.901114 -8.731077 -2.347862 -17.332992 -5.662216 7.969477 -14.143167 5.789466 25.892307 -103.328762 -60.365233 123.631093 5.272954 -19.416149 2.087884 1.836246 15.359067 -7.686144 -2.169931 19.102047 -16.388546 -155.110870 44.323706 -139.467893 -15.243005 12.187523 -1.241798 
-9.375879 45.795166 -10.413212 -53.326026 -45.505870 -34.589360 8.204762 0.269433 -5.598237 -1.269022 -0.826196 7.521888 -6.001761 6.104689 16.404279 0.113613 -0.341459 0.111103 -1.500373 -6.285934 -0.302862 0.689413 -3.301603 8.423453 -0.183464 -14.566708 2.383362 0.551263 0.472227 -0.058139 -5.085969 3.139008 7.417223 -0.503993 -0.986470 0.484162 -0.007786 -0.986742 3.818541 3.105128 -11.031590 7.374077 7.848667 -8.815047 -2.389171 -17.335759 -5.709873 7.937008 -14.162342 5.723997 25.924245 -103.397322 -60.259314 123.853581 5.503333 -19.350293 2.059650 1.925960 15.182769 -7.777326 -2.293151 19.036191 -16.509866 -155.368162 44.207810 -139.710844 -15.407844 12.129100 -1.220619 
-9.436984 45.809113 -10.408560 -53.495164 -45.030528 -34.318536 8.173922 0.346589 -5.710497 -1.462078 -0.755714 7.302819 -6.225045 5.842950 16.225706 0.074431 -0.345729 0.126251 -1.520272 -6.370440 -0.194887 0.573362 -3.250795 8.070014 -0.464124 -14.752607 2.157622 0.513587 0.456955 -0.048599 -5.016369 3.135175 7.342882 -0.442003 -0.979907 0.571051 -0.041596 -0.957542 3.764323 3.101747 -11.126663 7.506124 7.815075 -8.831705 -2.516520 -17.262445 -5.930708 7.806231 -14.168273 5.683626 25.855107 -103.257005 -60.171582 123.867631 6.102115 -19.585819 1.851744 1.873322 15.052381 -8.021627 -2.745546 19.094167 -16.836467 -155.713564 44.037884 -140.118019 -15.615804 12.319379 -1.373855 
-9.423460 45.823929 -10.434372 -53.372007 -44.970407 -34.307105 8.075995 0.334356 -5.585880 -1.466581 -0.932687 6.877025 -6.241310 5.906634 16.439098 0.137985 -0.358760 0.083988 -1.578096 -6.380902 -0.230859 0.532489 -3.224062 7.926378 -0.350397 -14.821833 2.163683 0.492484 0.441277 -0.063747 -5.003213 3.128738 7.378339 -0.472088 -0.975761 0.394565 -0.065120 -0.977142 3.914647 3.209567 -11.242706 7.270608 7.849362 -8.952786 -2.545596 -17.234730 -5.930314 7.701188 -14.150731 5.607983 25.927817 -102.893401 -60.123956 123.740344 6.593037 -19.628154 2.127863 1.780369 15.056341 -8.229938 -2.964921 19.150603 -16.865460 -156.138089 44.014796 -140.601015 -15.820587 12.199916 -1.718161 
-9.378158 45.839249 -10.355974 -53.553714 -44.952968 -34.154721 8.124390 0.390602 -5.630402 -1.451185 -0.804851 6.995246 -6.242385 5.904486 16.305164 0.109473 -0.354887 0.082997 -1.536793 -6.418638 -0.182895 0.555767 -3.342284 7.905501 -0.228662 -14.754465 2.224126 0.495532 0.435078 -0.062389 -4.976653 3.135210 7.367133 -0.488320 -0.973009 0.342578 -0.092457 -0.956552 3.916060 3.335456 -11.218195 7.199403 7.768731 -9.025468 -2.618346 -17.184909 -6.011379 7.541886 -14.252344 5.663916 25.994086 -102.895565 -59.944102 123.876471 6.632425 -19.515678 2.461409 1.984072 14.836585 -8.277122 -2.758882 19.068577 -16.761782 -156.231194 43.979402 -140.550431 -16.087765 12.187483 -1.640560 
-9.324574 45.854523 -10.347617 -53.531999 -44.964420 -34.171083 8.094151 0.416839 -5.544921 -1.430596 -0.793679 6.886412 -6.269508 5.933536 16.466844 0.136630 -0.355075 0.064988 -1.554440 -6.372867 -0.169207 0.546822 -3.317465 7.907209 -0.080683 -14.785789 2.366707 0.500348 0.443220 -0.063325 -4.990937 3.119484 7.366738 -0.495934 -0.974409 0.304500 -0.107446 -0.951191 3.989439 3.425764 -11.186662 7.033724 7.735409 -8.994117 -2.709295 -17.113628 -6.137465 7.427275 -14.385125 5.681554 26.040542 -102.496016 -59.818518 123.655762 6.712361 -19.531287 2.831549 2.016653 14.831061 -8.312012 -2.745399 19.010130 -16.645882 -156.393341 43.951034 -140.885944 -16.043725 12.175013 -2.081847 
-9.335608 45.870476 -10.291556 -53.659905 -44.564008 -33.909477 8.006049 0.484699 -5.548246 -1.573434 -0.858864 6.517213 -6.433684 5.747108 16.283381 0.158762 -0.368497 0.044849 -1.585572 -6.359322 -0.102382 0.398786 -3.226449 7.624400 -0.157817 -14.983356 2.189987 0.529357 0.438794 -0.044207 -4.909951 3.112388 7.349649 -0.533215 -0.971422 0.420927 -0.125501 -0.963024 3.879246 3.400614 -11.256404 7.145674 7.671935 -9.032396 -2.657706 -17.091264 -6.308035 7.376168 -14.435978 5.595022 25.993775 -102.255715 -59.696968 123.537171 6.937273 -19.555478 3.109773 1.931250 14.688368 -8.621056 -2.929456 18.907725 -16.943779 -156.785467 43.642907 -141.225832 -16.139011 12.110281 -2.162984 
-9.349367 45.888306 -10.357692 -53.622613 -44.394748 -33.908414 7.964230 0.590186 -5.547280 -1.625627 -0.866551 6.415640 -6.659746 5.665104 16.301884 0.185084 -0.376825 0.027972 -1.579650 -6.446755 -0.023576 0.290899 -3.227387 7.412476 -0.097121 -15.108623 2.103346 0.526397 0.451495 -0.022536 -4.866835 3.113151 7.348833 -0.529889 -1.022271 0.506482 -0.133479 -0.969363 3.796687 3.368468 -11.357654 7.294443 7.654598 -9.010372 -2.645669 -17.013502 -6.407349 7.289717 -14.495952 5.510013 25.954425 -101.666298 -59.593681 123.142565 7.259835 -19.584306 3.247013 1.750352 14.696425 -8.787003 -3.141864 19.059071 -17.129212 -157.284340 43.742861 -141.628755 -16.607798 12.120966 -2.154628 
-9.315135 45.907410 -10.393431 -53.441517 -44.587145 -34.150860 7.899066 0.661242 -5.382892 -1.517645 -1.002790 6.449717 -6.656196 5.927457 16.324970 0.244100 -0.409655 0.011367 -1.573599 -6.428085 -0.012976 0.251406 -3.187119 7.542150 0.106078 -15.127506 2.181175 0.598390 0.494944 0.006420 -4.790164 3.063114 7.350721 -0.544480 -1.016895 0.465115 -0.138533 -0.986562 3.875497 3.496351 -11.319558 7.129925 7.559263 -9.022380 -2.519592 -16.849210 -6.453815 7.189001 -14.699241 5.484471 26.020211 -100.998769 -59.411460 122.612203 7.312009 -19.437906 3.376215 1.546575 14.805766 -8.915750 -3.071651 19.309511 -16.984745 -157.649772 44.078216 -142.019495 -16.486829 11.880548 -2.177422 
-9.408527 45.927055 -10.524449 -53.480365 -44.170311 -34.122659 7.892934 0.796170 -5.549612 -1.706947 -0.936812 6.564232 -6.946713 5.698595 16.273515 0.294254 -0.441173 -0.011156 -1.609882 -6.729978 0.090831 0.160865 -3.294274 7.308773 0.022251 -15.345388 1.913169 0.537103 0.506740 -0.037482 -4.758820 3.147742 7.416720 -0.647421 -1.119275 0.379155 -0.224867 -1.010167 3.904201 3.312444 -11.613006 7.029429 7.702176 -9.338837 -2.440475 -16.957042 -6.556137 7.103143 -14.215880 5.311728 26.016821 -100.933515 -59.443658 122.678009 6.503940 -19.146159 3.688237 1.662632 15.081687 -8.804890 -3.395254 19.338143 -17.097123 -157.672385 43.922200 -141.585120 -16.257426 12.056058 -1.458707 
-9.387207 45.948395 -10.509930 -53.526894 -44.001355 -34.062562 7.867196 0.883983 -5.502563 -1.792997 -0.908017 6.426695 -7.058079 5.673551 16.286020 0.292649 -0.435622 -0.025719 -1.652541 -6.696281 0.146887 0.135351 -3.219679 7.249488 0.048797 -15.441238 1.927463 0.548445 0.502305 -0.031634 -4.726651 3.116053 7.433532 -0.659020 -1.133982 0.395717 -0.227651 -1.023391 3.870543 3.310490 -11.629826 6.987511 7.707805 -9.263795 -2.437896 -16.978986 -6.604574 7.075379 -14.255767 5.267926 26.005030 -100.638058 -59.376657 122.443310 6.429314 -19.108282 3.881529 1.662898 15.034532 -8.894037 -3.535126 19.361224 -17.165432 -157.907838 43.855615 -141.970566 -16.124643 12.000237 -1.716229 
-9.368687 45.970604 -10.464714 -53.570982 -43.760302 -33.907152 7.798794 0.951392 -5.588792 -1.884235 -0.741479 6.364281 -7.174558 5.482072 16.248922 0.267338 -0.419756 -0.021927 -1.686143 -6.669805 0.141685 0.018035 -3.224385 7.139319 0.030274 -15.531974 1.890411 0.532866 0.489981 -0.045737 -4.657920 3.084683 7.505065 -0.669169 -1.149751 0.405798 -0.261744 -1.036915 3.784503 3.302764 -11.718799 7.071539 7.686703 -9.198267 -2.421193 -17.043812 -6.668879 7.009432 -14.199931 5.243065 26.049043 -100.472289 -59.245038 122.398981 6.612394 -19.229795 4.079251 1.569365 14.882416 -9.122424 -3.825941 19.288519 -17.320827 -158.302893 43.622642 -142.307736 -16.406313 12.215355 -1.629858 
-9.322690 45.993973 -10.403060 -53.639520 -43.738722 -33.730740 7.758159 0.855075 -5.560347 -1.807804 -0.692327 6.153781 -7.188181 5.606603 16.202130 0.252274 -0.393175 -0.008204 -1.670506 -6.482527 0.037251 0.030301 -3.299782 7.199732 0.118034 -15.572763 1.924801 0.586392 0.458341 0.015697 -4.677122 3.000186 7.377885 -0.539913 -1.152810 0.665829 -0.238857 -1.111055 3.576890 3.421960 -11.540335 7.235474 7.579392 -8.987085 -2.509763 -16.959560 -6.600219 7.029657 -14.478155 5.207674 26.052474 -100.180126 -59.090227 122.071199 7.413313 -19.450628 4.037561 1.287319 14.617617 -9.442062 -3.744671 19.363310 -17.197275 -158.640392 43.642651 -142.880079 -16.710277 11.945525 -2.170110 
-9.357270 46.016876 -10.478024 -53.504192 -43.682681 -33.862854 7.695192 0.865065 -5.463219 -1.811859 -0.729533 6.039218 -7.296826 5.739011 16.209870 0.298113 -0.405862 -0.017073 -1.671661 -6.403193 0.007615 -0.063767 -3.280311 7.296388 0.141622 -15.727108 1.764777 0.626824 0.465257 0.024314 -4.628464 2.935911 7.361967 -0.530514 -1.116129 0.701031 -0.240255 -1.171405 3.572693 3.549575 -11.461251 7.153082 7.498482 -8.950695 -2.437595 -16.788945 -6.571316 6.928174 -14.650562 5.162290 26.045897 -99.573723 -59.066161 121.565011 7.342571 -19.367128 4.010734 1.010641 14.755676 -9.605227 -3.715499 19.765927 -17.026086 -158.725757 43.773207 -143.040435 -16.174278 11.699220 -2.543180 
-9.328256 46.039871 -10.591191 -53.660161 -43.625788 -34.005385 7.799232 1.035982 -5.438239 -1.799061 -0.769475 6.375872 -7.391757 5.781110 16.433168 0.288198 -0.431598 -0.039312 -1.545277 -6.581367 0.215990 -0.108276 -3.302798 7.314608 0.199721 -15.832235 2.098438 0.587233 0.473283 0.003132 -4.568547 2.957965 7.470144 -0.621359 -1.164332 0.523405 -0.278962 -1.168101 3.683664 3.445412 -11.504705 7.051570 7.504499 -8.994149 -2.176834 -16.957736 -6.616881 6.879108 -14.271197 5.108840 26.041661 -99.548075 -59.067248 121.521513 6.486524 -19.156270 4.084930 1.271575 14.924695 -9.385481 -3.703807 19.663067 -16.758569 -158.831602 44.052086 -143.104106 -15.829747 11.886492 -2.279466 
-9.325543 46.063560 -10.639695 -53.613326 -43.585024 -34.004883 7.803423 1.025917 -5.542201 -1.829255 -0.695616 6.515062 -7.440536 5.800820 16.532249 0.292727 -0.426191 -0.060789 -1.531568 -6.646013 0.214144 -0.152960 -3.360924 7.214298 0.252499 -15.873846 2.155205 0.565293 0.470996 0.005288 -4.561082 2.941582 7.469007 -0.610501 -1.176640 0.486423 -0.288515 -1.233571 3.706401 3.397166 -11.481596 7.007225 7.485449 -9.036412 -2.073018 -17.039918 -6.485123 6.854160 -14.188227 5.065884 26.038645 -99.330009 -59.102090 121.228855 6.088183 -19.160439 4.009525 1.196097 14.947948 -9.508990 -3.844031 19.829491 -16.660959 -159.058904 44.120095 -143.357787 -15.309682 11.851502 -2.464961 
-9.333374 46.087746 -10.601835 -53.636138 -43.363023 -33.843995 7.696118 0.924145 -5.715642 -1.848493 -0.606808 6.589384 -7.502789 5.855872 16.352483 0.238571 -0.408110 -0.061658 -1.563212 -6.503455 0.134118 -0.237674 -3.347086 7.219514 0.206082 -16.002586 1.989154 0.617045 0.448392 0.021992 -4.493527 2.849516 7.443463 -0.545069 -1.129439 0.624779 -0.275493 -1.328027 3.546699 3.430641 -11.335710 7.166940 7.497905 -8.801397 -2.051398 -16.999162 -6.350658 6.821358 -14.342606 5.059333 25.962157 -99.146986 -59.017336 120.711292 6.725078 -19.336782 3.590208 0.782825 14.672104 -9.991696 -3.926712 20.115533 -16.657928 -159.448856 44.094384 -144.180333 -15.631248 11.774876 -2.900089 
-9.256468 46.111488 -10.739481 -53.720109 -43.629547 -34.156996 7.863253 1.051474 -5.493692 -1.681839 -0.652957 6.868895 -7.474573 6.084736 16.833666 0.258852 -0.465398 -0.056964 -1.407806 -6.638683 0.387641 -0.157196 -3.330603 7.291723 0.355287 -15.942606 2.646038 0.589035 0.486322 0.015563 -4.471303 2.883107 7.562832 -0.618464 -1.188547 0.417619 -0.267113 -1.288545 3.735904 3.239680 -11.359632 7.093231 7.391497 -8.866936 -1.803908 -17.028758 -6.342615 6.771374 -14.212758 5.062101 25.965482 -98.908011 -59.045760 120.556761 5.876875 -19.095521 3.225067 1.097391 14.915733 -9.637232 -3.646103 20.066257 -16.186631 -159.468967 44.558215 -144.113029 -15.202889 11.910325 -2.986818 
-9.274433 46.135246 -10.729841 -53.680025 -43.587563 -34.064382 7.857093 0.952144 -5.608794 -1.697520 -0.407896 6.910423 -7.453642 6.108965 16.841946 0.209080 -0.447930 -0.043171 -1.447689 -6.540319 0.345055 -0.103564 -3.400654 7.202592 0.310733 -15.941174 2.534180 0.574235 0.483404 0.054155 -4.463327 2.817738 7.478679 -0.489466 -1.174798 0.505779 -0.216217 -1.371130 3.610103 3.263641 -11.089558 7.313599 7.320138 -8.572361 -1.754287 -16.948638 -6.157781 6.797982 -14.524350 5.113971 25.841118 -98.540872 -59.014919 120.006759 6.283666 -19.265160 2.815602 0.848984 14.853430 -9.815160 -3.641988 20.487944 -16.153185 -159.579573 44.578876 -144.428390 -15.479940 11.859250 -3.394373 
-9.263135 46.159370 -10.680407 -53.769118 -43.570389 -34.018047 7.893180 0.937799 -5.648307 -1.661195 -0.216046 7.112566 -7.420688 6.065463 16.773992 0.193051 -0.456321 -0.056881 -1.424124 -6.501488 0.327196 -0.101681 -3.412469 7.373479 0.331238 -15.901102 2.506573 0.535462 0.506129 0.076295 -4.414359 2.822025 7.487466 -0.468511 -1.219805 0.489771 -0.177737 -1.347375 3.575135 3.153226 -10.962784 7.561236 7.262998 -8.266567 -1.541209 -17.025605 -6.077939 6.834146 -14.564031 5.111367 25.823418 -98.548211 -59.006214 120.017688 5.778074 -19.020334 2.838425 0.920048 14.866301 -9.681733 -3.444610 20.546552 -16.090658 -159.446916 44.438204 -144.188626 -15.490108 11.907685 -3.202535 
-9.209970 46.183510 -10.652689 -53.837735 -43.789474 -34.126475 7.992733 0.931229 -5.572431 -1.541578 -0.080700 7.413273 -7.212767 6.222650 16.921755 0.144436 -0.446862 -0.036216 -1.369044 -6.500599 0.426142 0.004939 -3.463328 7.517837 0.419565 -15.765477 2.758380 0.504682 0.500730 0.106743 -4.349682 2.798589 7.478502 -0.459626 -1.246719 0.506482 -0.158060 -1.356240 3.577935 3.033731 -10.742973 7.769341 7.168373 -7.958971 -1.420428 -17.081097 -5.932355 6.845594 -14.652639 5.214161 25.806304 -98.545330 -59.018734 119.884264 5.146938 -18.741529 2.549427 1.085646 14.924434 -9.377783 -3.261391 20.628811 -15.816782 -159.288912 44.575052 -143.996372 -15.317554 12.011327 -2.875677 
-9.187848 46.207039 -10.716755 -53.823347 -44.110159 -34.391526 8.127590 0.995553 -5.441378 -1.371771 -0.016609 7.764498 -7.067638 6.427248 17.163651 0.100265 -0.404938 -0.006787 -1.250522 -6.571176 0.629941 0.081178 -3.464226 7.544999 0.540460 -15.608690 3.003599 0.485549 0.490000 0.151940 -4.344880 2.760245 7.438225 -0.464862 -1.293020 0.620932 -0.121525 -1.377794 3.501829 2.757193 -10.503512 8.028755 7.129059 -7.518869 -1.179517 -17.191547 -5.838468 6.941439 -14.514447 5.410870 25.740051 -98.669760 -59.024667 119.981967 4.520463 -18.485185 2.620138 1.118885 15.259708 -9.046782 -2.868852 20.690540 -15.269927 -159.106623 44.933180 -143.867147 -14.904944 12.017493 -2.731225 
-9.184495 46.230644 -10.840635 -53.690865 -44.403575 -34.742786 8.178799 1.065647 -5.327843 -1.166163 -0.014930 8.115306 -6.984190 6.694214 17.433247 0.126006 -0.421412 0.005571 -1.152316 -6.571894 0.791399 0.118953 -3.417507 7.573213 0.593468 -15.605078 3.313253 0.489921 0.514379 0.162854 -4.342178 2.725036 7.479521 -0.408164 -1.366902 0.527332 -0.086918 -1.354023 3.607247 2.615065 -10.234235 8.211655 7.080419 -7.131333 -0.914189 -17.201044 -5.755017 7.036440 -14.529042 5.512927 25.637299 -98.369434 -59.074504 119.639286 4.363363 -18.309832 2.602269 1.212012 15.792312 -8.661057 -2.488608 21.039514 -14.841150 -158.897333 45.227628 -143.688508 -14.945866 12.075162 -2.360982 
-9.255835 46.254059 -11.027499 -53.550077 -44.606212 -35.188379 8.308897 1.219070 -5.406239 -1.054530 0.151566 8.922398 -7.005003 6.699087 17.629639 0.143229 -0.433131 -0.034362 -1.056116 -6.818028 0.988381 0.089766 -3.545414 7.670357 0.661061 -15.441298 3.336423 0.470417 0.499849 0.133640 -4.362565 2.821342 7.470370 -0.428638 -1.484482 0.531403 -0.081814 -1.316136 3.703264 2.293912 -10.128066 8.423222 7.018960 -7.096342 -0.697917 -17.374699 -5.642868 7.120521 -14.182037 5.522134 25.510360 -98.354942 -59.321040 119.705157 3.404381 -18.035848 2.867165 1.575524 16.461675 -7.993759 -2.316793 21.249184 -14.336893 -158.501175 45.505741 -142.867824 -14.393825 12.389222 -1.728269 
-9.243952 46.279686 -11.022917 -53.531063 -44.993916 -35.479789 8.423778 1.277317 -5.319304 -0.827812 0.315832 9.515783 -6.831844 6.989223 17.544946 0.174817 -0.452837 -0.057717 -0.982275 -6.859649 1.130254 0.210737 -3.571958 7.939367 0.903382 -15.191775 3.399133 0.479115 0.494320 0.135293 -4.359881 2.830922 7.458246 -0.406229 -1.502663 0.327719 -0.002835 -1.333443 3.895215 2.248889 -9.784840 8.515678 6.934598 -6.971659 -0.519524 -17.373207 -5.359533 7.153953 -14.434874 5.610892 25.420113 -98.305427 -59.434588 119.383360 2.618911 -17.926006 2.799170 1.983729 16.592341 -7.470782 -1.519112 21.547868 -13.532017 -158.260370 45.796238 -142.408652 -14.206370 12.348818 -1.501588 
-9.201169 46.307350 -11.066606 -53.663950 -45.093823 -35.480914 8.474888 1.349234 -5.372726 -0.591640 0.384116 9.853835 -6.914739 7.167586 17.580392 0.188056 -0.468754 -0.076757 -0.933684 -6.995439 1.181642 0.333057 -3.735929 8.025056 1.242975 -14.992122 3.622200 0.483990 0.479778 0.139652 -4.393251 2.895580 7.446391 -0.365429 -1.593071 0.173874 0.125224 -1.341486 4.055473 2.096246 -9.550890 8.619469 6.765214 -6.922875 -0.401772 -17.461798 -5.192585 7.212765 -14.544233 5.486847 25.229605 -98.120638 -59.431269 118.846259 1.706275 -17.796733 2.855057 2.667315 16.527287 -6.792401 -0.454721 21.652824 -12.606595 -158.027989 45.622412 -141.791482 -14.436572 12.286575 -1.000459 
-9.208627 46.336327 -11.020549 -53.683212 -45.116060 -35.435501 8.439487 1.331170 -5.499351 -0.468130 0.474594 10.177681 -6.804569 7.306638 17.389552 0.103155 -0.449909 -0.058259 -0.935737 -6.851875 1.197791 0.380181 -3.928350 8.066718 1.478963 -14.908471 3.382264 0.516293 0.461031 0.119868 -4.387937 2.797445 7.571864 -0.306962 -1.592054 -0.063223 0.212872 -1.357075 4.213267 2.214272 -9.020638 8.679028 6.619097 -6.526997 -0.439557 -17.333088 -5.041845 7.202209 -14.924467 5.484832 25.073811 -97.872915 -59.323488 118.422481 2.057487 -18.017242 3.426351 3.109867 16.062120 -6.324928 0.733427 21.502172 -11.631322 -157.492270 45.853092 -141.387740 -15.285440 12.285426 -0.613132 
-9.165909 46.365753 -11.053375 -53.831984 -45.131072 -35.409562 8.537864 1.431686 -5.313780 -0.378536 0.677672 10.014556 -6.759775 7.420114 17.657561 0.038213 -0.407880 -0.001022 -0.895770 -6.899222 1.344320 0.491332 -4.119512 8.030035 1.805278 -14.733199 3.476465 0.470002 0.384444 0.066334 -4.427103 2.796533 7.783436 -0.259978 -1.594377 -0.062510 0.265594 -1.365431 4.292095 2.194727 -8.665413 9.101930 6.448229 -6.174185 -0.547967 -17.269751 -4.862471 7.223265 -15.354115 5.465751 24.792247 -97.434112 -59.611472 118.065599 1.076258 -17.781077 4.198257 3.716857 15.531108 -5.835619 1.819931 20.730401 -11.315441 -155.160292 46.835983 -138.979623 -14.379941 11.857465 -0.415913 
-9.343343 46.397049 -11.402857 -53.958767 -44.658600 -35.451865 8.659157 1.673837 -5.546450 -0.437099 0.858448 10.286079 -6.860807 7.128996 18.111267 -0.045846 -0.443864 -0.000161 -0.812899 -7.161075 1.444407 0.475053 -4.265401 7.927150 1.454587 -14.796924 3.424285 0.453976 0.360516 -0.014438 -4.341534 2.864701 8.036983 -0.258620 -1.671672 -0.313912 0.247491 -1.331902 4.419885 1.845020 -8.433632 9.396558 6.253548 -5.974688 -0.244720 -17.407229 -4.779191 7.128526 -14.981579 5.534474 24.297768 -97.182525 -60.056863 117.734602 -0.657097 -17.233445 4.441323 4.343891 15.125044 -5.689985 1.885706 19.860162 -11.940665 -152.219694 47.871595 -135.709049 -13.850135 12.172678 0.742824 
-9.303274 46.428169 -11.097612 -54.406026 -44.281662 -34.726316 8.612030 1.779605 -5.797994 -0.375566 1.428807 10.168185 -6.817829 6.991328 17.675505 -0.174339 -0.397437 0.052851 -0.781208 -7.052021 1.330776 0.394788 -4.657824 7.820854 1.524283 -14.510190 3.080880 0.504410 0.277782 -0.102866 -4.383632 2.745536 8.258955 -0.154462 -1.661345 -0.328043 0.356436 -1.363115 4.342865 1.885219 -7.785213 9.780884 5.966280 -5.413523 -0.360443 -17.458056 -4.501953 7.339556 -15.558650 5.539447 24.019231 -97.627615 -60.229070 117.987854 -1.209418 -17.075947 5.270968 4.289806 14.682398 -5.782514 2.542271 19.473567 -12.494644 -147.791414 49.740788 -131.791062 -13.791148 11.478799 0.821835 
-9.341078 46.459724 -11.227881 -54.572701 -43.950249 -34.701677 8.612262 1.939556 -5.987089 -0.286118 1.640625 10.512686 -6.963976 6.932944 18.017379 -0.292500 -0.376613 0.051322 -0.777044 -7.107016 1.386131 0.398636 -4.695965 7.944877 1.503746 -14.442889 3.141792 0.485876 0.250274 -0.150278 -4.425445 2.702929 8.408680 -0.077003 -1.695619 -0.480071 0.469013 -1.305987 4.328533 1.763018 -7.293903 9.936483 5.874952 -4.933058 -0.274788 -17.466389 -4.428228 7.456455 -15.814901 5.516775 23.667312 -97.036893 -60.561723 117.492705 -1.917666 -16.723592 5.835904 4.575756 14.302951 -5.682047 3.401038 18.910698 -13.048605 -143.065741 50.607811 -127.310831 -14.093443 11.307967 1.544169 
-9.126495 46.490540 -11.112014 -54.912818 -44.119162 -34.374187 8.673369 1.849933 -5.744561 -0.050748 1.748038 10.019948 -6.713414 7.403438 18.609767 -0.374533 -0.391845 0.101152 -0.744935 -7.206102 1.197072 0.593780 -4.912074 8.290437 2.172233 -13.995290 3.773549 0.542741 0.210164 -0.253587 -4.625843 2.712930 8.675712 -0.043750 -1.620179 -0.917132 0.599070 -1.339796 4.687531 1.723742 -6.644232 9.536248 5.509318 -4.774636 -0.398351 -17.466840 -3.987974 7.460403 -16.737388 5.590873 23.538863 -96.535143 -61.243516 116.946977 -2.506072 -16.274901 6.620522 4.705972 13.809285 -5.819526 4.524763 18.656343 -13.279670 -136.358368 51.951412 -120.887463 -13.500482 10.406431 1.766025 
-9.116186 46.522881 -11.132242 -55.028318 -44.184961 -34.343944 8.618261 2.070069 -5.890061 0.365787 2.223761 10.456128 -6.707271 7.439169 18.629059 -0.449750 -0.500960 0.115551 -0.769291 -7.198594 1.259520 0.816504 -4.883320 8.387145 2.518446 -13.772330 3.767977 0.513939 0.211630 -0.351038 -4.810248 2.695037 9.018104 -0.177360 -1.598263 -1.648587 0.844549 -1.250953 5.197325 1.574320 -6.230995 9.594447 5.242321 -4.474206 -0.618696 -17.178851 -3.406723 7.515412 -17.771217 5.642531 23.007542 -95.839299 -61.944968 115.969777 -3.310453 -15.746298 6.333401 4.744769 12.978361 -5.883080 6.129758 18.505778 -13.629535 -128.989400 52.621397 -114.171738 -14.596099 10.417747 1.674350 
-8.993438 46.556099 -10.852291 -55.981220 -43.425742 -33.410492 8.627324 2.211379 -6.118899 0.305998 2.435113 10.200627 -6.709973 7.719750 18.269071 -0.570466 -0.564389 0.119995 -0.694231 -7.392151 1.397812 0.919622 -4.837073 8.133929 2.647578 -14.003843 3.929998 0.496029 0.175115 -0.532732 -4.783878 2.569723 9.661990 -0.341709 -1.448130 -2.138677 0.800219 -1.268589 5.203155 1.426448 -5.952985 9.634758 5.218308 -3.348132 -1.182105 -17.226275 -2.860267 7.681145 -18.656339 5.453480 22.672802 -95.783437 -62.927826 116.154406 -4.166966 -15.377903 6.077004 4.679010 12.243091 -5.798241 6.864179 17.996619 -14.005772 -118.308264 54.362336 -104.761121 -13.868098 9.573086 1.006457 
-8.904705 46.590546 -11.358711 -55.503625 -44.308775 -34.342947 8.706240 2.578502 -5.651588 0.855949 2.409358 10.394321 -6.474401 8.486628 19.704594 -0.802351 -0.513879 0.017796 -0.599410 -7.656826 1.372178 1.096361 -5.111764 8.807648 3.526070 -13.486049 4.624953 0.393146 0.047411 -0.673791 -4.734132 2.464711 10.153384 -0.694827 -1.234231 -2.319469 0.844122 -1.148094 5.421792 1.056792 -6.024592 9.638574 5.164141 -2.990083 -1.857587 -17.266523 -2.316199 7.597414 -19.079554 5.420214 22.374642 -93.439172 -64.165156 114.124620 -3.519698 -14.543055 6.519752 4.762712 11.707995 -5.575902 7.605785 17.173761 -14.354893 -106.545223 54.949944 -94.895150 -14.802331 9.035473 1.293958 
-9.008801 46.630302 -11.523891 -55.776970 -43.980943 -33.699449 8.668845 2.325681 -5.749097 0.921998 1.844513 9.413347 -6.536941 9.019693 19.711671 -0.949655 -0.488912 0.027889 -0.414422 -7.606832 0.926672 1.196303 -5.166212 8.783786 3.557202 -13.528939 4.255102 0.433075 -0.072329 -0.647765 -4.698900 2.317872 10.640318 -0.922457 -1.018853 -2.972672 0.924321 -1.303575 5.543910 1.111850 -5.516439 9.351836 4.987492 -2.282525 -2.124336 -17.091308 -1.515338 7.755728 -20.520720 5.278321 21.797336 -90.866870 -65.798090 111.502063 -2.006245 -14.395357 6.053062 4.158566 11.048386 -5.856750 9.076927 17.367060 -13.724207 -95.288631 55.479942 -85.439956 -16.001286 7.978982 -0.806269 
-9.528243 46.669281 -12.111220 -55.263037 -43.574486 -33.843585 8.504106 2.548391 -6.096154 1.013426 1.973116 9.173018 -6.850714 8.768328 19.464888 -0.850006 -0.554274 -0.169909 -0.372137 -8.164278 0.704839 1.095041 -5.196234 8.360967 3.316273 -13.553800 2.667223 0.223026 -0.069671 -0.779987 -4.660941 2.329397 10.903237 -0.969908 -1.068364 -3.538192 1.017912 -1.328656 5.894557 0.681435 -5.936215 9.011886 4.764558 -2.678883 -2.452984 -16.317558 -0.904864 7.216705 -21.321961 4.700780 21.387133 -87.532510 -66.560861 108.440419 -0.001074 -13.907792 5.388734 3.925391 10.347192 -6.048830 9.593306 16.824742 -13.719210 -85.275378 54.649946 -77.015659 -17.420038 7.489360 -1.190659 
-9.743707 46.709244 -12.597904 -55.072737 -43.466127 -34.106885 8.738304 2.912088 -6.310605 0.806462 1.997130 9.450812 -7.062112 8.765785 19.883844 -0.941348 -0.492752 -0.120204 -0.300146 -8.475892 0.709372 1.263574 -4.966191 8.273737 2.914372 -13.574828 2.540184 0.127164 -0.143857 -0.838288 -4.585831 2.236324 11.439344 -1.160794 -0.989820 -3.656615 0.952617 -1.243784 5.702409 0.381780 -6.114306 9.742190 4.993843 -2.081240 -2.958479 -16.008002 -0.557691 7.088533 -22.403369 4.604058 20.977074 -83.259452 -68.145756 104.741881 1.452898 -13.893633 5.476266 3.913611 10.227994 -5.779803 9.829712 16.350700 -13.970890 -72.771644 52.481035 -67.087731 -18.086807 7.256582 -2.366364 
-9.891409 46.749184 -13.236160 -54.555590 -44.130931 -34.853194 8.899211 2.813067 -6.757784 1.266099 1.807475 10.825557 -7.165844 9.534066 20.657102 -0.979236 -0.577215 -0.187924 -0.149773 -8.630124 0.660235 1.601365 -4.971591 8.519491 3.080350 -13.378386 2.831007 0.005018 -0.169491 -1.006762 -4.425648 2.249324 11.900696 -1.330691 -0.929453 -4.072559 0.912886 -1.185383 5.715262 0.414282 -6.316983 9.906079 5.235723 -2.004836 -2.986361 -15.676098 -0.113490 6.976841 -22.985668 4.121639 20.999151 -78.491602 -69.097161 99.413117 2.028858 -13.727639 4.715707 4.049105 9.855639 -5.448805 10.562992 15.987307 -13.824192 -64.191824 49.964152 -60.571866 -19.148067 6.648707 -3.781765 
-9.902492 46.786118 -13.498701 -54.880661 -44.084121 -34.640704 9.070414 2.691728 -6.766165 1.481346 1.841057 10.576368 -7.167899 9.829281 21.158176 -1.041529 -0.485487 -0.257268 -0.118619 -8.837612 0.629311 2.120396 -5.258763 8.451575 3.330813 -13.462023 3.416871 0.019734 -0.149658 -0.983245 -4.314595 2.214397 12.152035 -1.657515 -0.894994 -4.616517 1.028597 -1.212554 6.047063 -0.052458 -6.638275 9.218925 5.302269 -2.187469 -2.840541 -15.847432 0.146574 6.957999 -22.882554 3.456483 20.922103 -76.575255 -69.783932 96.477779 2.078503 -14.155787 3.085317 4.792212 9.605052 -5.002482 10.769264 15.046314 -13.524017 -59.118790 48.105513 -56.741037 -19.918969 6.918844 -3.919113 
-9.691813 46.824234 -13.854176 -54.958796 -44.484064 -35.092141 9.176152 2.877869 -6.748172 1.970204 1.905524 11.249057 -7.339356 10.608011 22.293853 -1.063207 -0.594670 -0.480774 -0.157186 -9.043303 0.767838 2.566941 -5.265418 8.880373 4.162662 -13.404577 4.902107 -0.224245 -0.001803 -1.170069 -4.311053 2.236255 12.517519 -1.910458 -0.890440 -5.053445 1.125684 -1.215737 6.232807 -0.325574 -7.030535 8.735316 5.384570 -2.377682 -2.968075 -15.935719 0.491243 6.901767 -23.206632 2.875729 20.714837 -72.716374 -70.194331 92.362329 2.798849 -13.726500 2.748539 5.047050 9.443414 -4.478595 11.409122 14.647532 -13.125234 -52.635921 46.226616 -50.992470 -20.899147 6.291988 -3.691004 
-9.683554 46.863243 -14.288445 -55.235984 -44.493036 -35.173303 9.312663 2.767271 -7.116879 2.412111 1.753654 11.950233 -7.631166 11.044615 23.136413 -1.227839 -0.612544 -0.480509 -0.071415 -9.257181 0.935343 2.999789 -5.525884 8.851370 4.805150 -13.507908 5.531029 -0.371197 0.002822 -1.207544 -4.200123 2.171771 12.846504 -2.143778 -0.797437 -5.395963 1.262865 -1.266507 6.361806 -0.568115 -7.138159 8.566950 5.559041 -1.968716 -3.116489 -15.746644 0.694818 6.584471 -23.984046 2.204076 20.454517 -67.201545 -70.686284 86.883890 2.981677 -13.399201 2.542374 5.316918 9.179194 -4.080378 12.063039 14.359478 -12.514264 -46.672983 43.588966 -46.200976 -21.007807 6.263521 -3.742766 
-9.712919 46.902626 -14.491537 -55.408250 -44.507410 -35.010268 9.372494 2.630612 -7.482516 2.603858 1.502926 12.342984 -7.707602 11.496459 23.199088 -1.281557 -0.584515 -0.480843 0.044099 -9.513594 0.902784 3.210175 -5.626987 8.717385 5.115841 -13.558678 5.722748 -0.395266 0.061509 -1.184370 -4.107223 2.163681 13.069987 -2.300728 -0.682859 -5.795898 1.388830 -1.324956 6.648376 -0.565403 -6.694858 7.891968 5.440100 -1.459703 -3.337803 -15.397523 0.916806 6.143907 -25.092777 1.739124 20.018577 -62.360088 -70.962703 81.676378 3.517807 -12.896851 1.488123 5.212240 8.938895 -4.062172 12.817950 14.233019 -11.340952 -40.322596 41.234823 -40.657915 -21.248431 5.546782 -3.866214 
-9.531868 46.938728 -14.845106 -55.616133 -44.928319 -35.408966 9.609193 2.729766 -7.548275 2.989011 1.402766 13.231472 -7.796517 12.134894 24.106490 -1.263564 -0.685157 -0.429413 0.260549 -9.835183 1.201156 3.375333 -5.766915 8.933517 5.567318 -13.400502 7.148532 -0.458509 0.166068 -1.179615 -4.102985 2.333855 13.262395 -2.493211 -0.720037 -6.176644 1.518449 -1.292878 6.910976 -1.216227 -6.592070 7.857297 5.647093 -1.232146 -3.469597 -15.129769 0.801402 5.903548 -25.949180 1.219429 19.457229 -57.023466 -70.654101 75.714379 3.442176 -12.386011 1.530851 5.275572 9.026757 -3.776697 14.375544 13.949839 -10.029154 -34.948156 39.169467 -35.678936 -20.805654 5.430625 -3.001883 
-9.473575 46.975090 -15.288109 -55.629867 -45.258764 -35.900880 9.729832 2.735698 -7.500366 3.347101 1.159687 13.768763 -7.964972 12.775641 24.749314 -1.255440 -0.741380 -0.554381 0.439339 -10.005159 1.548075 3.499136 -6.068202 8.884551 6.054863 -13.439875 8.164035 -0.761565 0.342956 -1.239992 -3.888048 2.312799 13.548361 -2.762528 -0.598314 -6.511584 1.666938 -1.296126 7.130855 -1.354152 -6.722492 7.369849 5.755325 -1.235777 -3.557551 -14.693621 0.740765 5.392810 -26.854722 0.576286 18.971983 -50.911771 -69.860074 69.623362 3.132540 -11.685974 1.276202 5.351880 9.134892 -3.402678 15.665588 13.971957 -8.696342 -27.842933 35.837386 -29.081061 -19.483844 4.656242 -2.278589 
-9.451777 47.011253 -15.616819 -55.885557 -45.362308 -36.040631 9.971280 2.554142 -7.592495 3.434332 1.004219 14.213382 -8.042034 13.185599 25.108204 -1.256513 -0.770976 -0.483636 0.594022 -10.282332 1.917625 3.743837 -5.966843 8.615115 6.122070 -13.382612 9.058830 -0.755832 0.406921 -1.139183 -3.720127 2.451320 13.648855 -2.888290 -0.495273 -6.696313 1.791102 -1.303981 7.139484 -1.653204 -6.574895 7.292574 5.860399 -1.265275 -3.309874 -14.401666 0.587111 5.001973 -27.939720 -0.064653 18.246432 -45.029899 -69.028902 63.155314 1.367325 -11.246360 1.012767 5.596124 9.270316 -2.909325 17.396239 13.963746 -7.142616 -22.407656 32.821001 -23.494003 -16.926621 4.347545 -0.926261 
-9.334514 47.046722 -15.686914 -56.461839 -45.133193 -35.972863 10.210187 2.563230 -7.746657 3.305865 1.092517 14.825072 -8.091148 13.211752 25.104921 -1.309053 -0.860338 -0.353551 0.603377 -10.607508 2.482672 3.927897 -6.084520 8.354520 6.157118 -13.135191 9.811818 -0.900591 0.538993 -1.030328 -3.340210 2.660646 13.829575 -3.023014 -0.398476 -6.499159 1.834967 -1.159832 6.805270 -2.018725 -6.619834 8.105549 6.024071 -1.616785 -3.134996 -14.221083 0.150704 4.674144 -29.155787 -0.823885 17.488164 -39.835225 -67.908058 57.891207 -0.694240 -10.876049 1.075631 6.089567 9.596795 -2.244925 19.358469 14.038913 -5.726234 -17.532547 29.067906 -17.826375 -14.800122 4.437769 1.194906 
-9.181746 47.084625 -16.216267 -56.143698 -45.831120 -37.113041 10.406710 2.619278 -7.216199 3.537888 1.171019 15.348405 -8.004450 13.921963 26.024025 -1.225824 -0.874179 -0.374780 0.528168 -11.039244 3.034915 4.142828 -6.436586 8.682234 6.566493 -12.793769 11.339721 -1.039261 0.625060 -0.900545 -3.126266 2.834623 13.914799 -3.076279 -0.323616 -6.307822 1.888753 -1.079509 6.821668 -2.452503 -6.889767 7.919487 6.028225 -2.304249 -2.805327 -13.890359 -0.364175 4.151074 -30.402128 -1.244453 16.827527 -33.303982 -65.675613 51.312760 -3.276388 -9.933096 1.056351 6.810472 10.058990 -1.567233 21.285643 14.227802 -3.959076 -13.124624 25.738328 -12.164654 -10.269249 3.800029 3.428035 
-9.061449 47.123520 -16.590712 -55.733927 -46.769735 -38.161890 10.845336 2.728000 -6.794877 3.479462 1.266028 16.072437 -7.797827 14.297014 26.732216 -1.117976 -0.750731 -0.230632 0.542594 -11.278986 3.599842 4.373011 -6.483786 8.808757 6.835832 -12.447559 12.531775 -0.977714 0.580188 -0.637832 -3.077299 2.992207 13.933032 -3.180030 -0.345475 -6.158802 2.055748 -1.083944 6.919067 -2.877267 -6.532796 7.699353 5.978624 -2.534747 -2.599965 -13.895375 -0.653298 3.792492 -31.416429 -1.281440 15.892619 -28.202934 -63.760567 46.152174 -5.616169 -9.492449 1.790825 7.475911 10.564827 -1.165525 23.990855 14.092711 -2.114910 -10.261638 23.191940 -8.030270 -6.171704 3.270009 4.945386 
-9.258653 47.159767 -17.146843 -55.260952 -46.663889 -39.154150 10.972939 2.872583 -7.415771 3.224118 1.451263 17.929029 -8.062348 14.183577 26.950027 -1.112393 -0.811080 -0.185301 0.592335 -11.371183 4.125701 4.074490 -6.868714 8.607950 6.359930 -12.557363 12.677451 -1.069957 0.627875 -0.505663 -2.905983 3.137832 13.933208 -3.219425 -0.285484 -5.967442 2.007521 -0.994586 6.685808 -3.380181 -6.647163 8.159673 6.113855 -2.927604 -2.273251 -13.803589 -0.903704 3.156140 -31.905736 -1.849722 15.189839 -23.792947 -61.411490 42.804459 -7.472414 -8.854348 2.976054 8.529577 10.467778 -0.713801 26.798688 13.967536 -0.580879 -8.508831 20.476752 -4.609106 -3.020381 2.699502 6.925805 
-9.351082 47.195442 -17.438213 -55.281296 -45.908145 -39.503695 11.035973 3.221531 -7.704801 2.623297 1.944400 18.576231 -8.270452 13.482259 26.503922 -1.130062 -0.793848 -0.140792 0.283101 -11.626554 4.333704 3.963006 -7.117823 8.818879 5.856976 -12.477733 12.600827 -1.123888 0.607653 -0.370508 -2.933135 3.333319 13.841420 -3.192604 -0.268582 -5.637655 2.070558 -0.965117 6.499916 -3.683280 -6.579828 7.748084 6.391777 -3.113784 -2.186481 -13.861428 -1.548955 2.597985 -33.497818 -2.637948 14.045178 -17.791526 -58.317567 37.677903 -10.372386 -7.694969 3.482739 9.526637 10.769766 -0.054824 29.714925 13.961692 1.138462 -6.896314 18.401861 -1.536590 1.569971 1.908943 7.541941 
-9.197227 47.228317 -17.416956 -54.820421 -46.136936 -39.930176 10.779568 3.234752 -7.683404 2.511692 2.604578 18.732848 -7.889532 13.876007 25.943403 -1.078343 -0.819809 -0.280765 0.068850 -11.543503 4.477293 3.772925 -7.636981 8.671728 6.245177 -12.442648 12.793193 -1.263752 0.864959 -0.390084 -2.826105 3.337262 13.688421 -3.172969 -0.185046 -5.474167 2.075184 -0.883436 6.619217 -3.653650 -6.222537 6.880605 6.075543 -3.409336 -2.107226 -13.989504 -1.682933 2.485728 -33.406039 -2.725852 13.502286 -17.406393 -56.776528 36.903057 -11.715111 -7.241693 4.953947 10.419990 10.651988 0.580688 32.293362 13.589627 2.891024 -5.131161 17.017087 1.013403 4.581786 1.067829 8.461033 
-8.921008 47.262634 -17.222588 -54.560102 -46.436919 -40.059693 10.286008 2.876624 -7.215831 2.505447 2.524126 17.894562 -7.404452 14.458319 24.858549 -1.095986 -0.801534 -0.419823 -0.137432 -11.265023 4.517250 3.689168 -7.625476 8.623547 6.945941 -12.313271 13.065080 -1.411903 1.025898 -0.322076 -2.785113 3.461069 13.367870 -3.187070 0.006799 -5.203913 2.231442 -0.932498 6.396980 -3.741996 -5.342921 5.650475 6.160538 -3.300317 -1.830417 -14.218590 -1.709181 2.190744 -34.352573 -2.875720 12.908631 -15.130591 -54.509758 34.664807 -12.018789 -6.759836 5.250423 11.208731 10.180675 1.171923 35.713122 12.748871 4.886720 -3.688506 15.626166 3.396729 6.181972 0.388754 8.171616 
-8.567603 47.291969 -17.306190 -54.307881 -47.289582 -41.378343 10.324976 2.803400 -6.570656 2.538844 2.718149 18.567248 -6.796916 14.709898 24.664108 -1.054533 -0.810803 -0.334060 -0.350068 -11.116027 5.258766 3.822079 -7.570043 9.285662 7.338237 -12.352563 14.494284 -1.337093 1.075630 -0.238786 -2.819401 3.540345 13.646282 -3.245652 0.170730 -5.363878 2.367246 -0.879374 6.532222 -3.710612 -5.116710 5.554771 5.862394 -3.738746 -1.756335 -14.316002 -1.559410 2.250522 -34.706446 -3.045604 12.534662 -13.607211 -52.847208 33.017422 -13.645690 -6.596116 5.782795 12.115026 10.070079 1.770416 37.949577 12.195337 5.992332 -2.915216 14.381150 4.812302 8.817868 -0.264907 7.235057 
-8.421815 47.317085 -17.173410 -54.156504 -47.437673 -41.564501 10.090801 2.726885 -6.604806 2.297917 2.783763 18.546136 -6.360825 14.171993 23.647979 -0.986161 -0.817391 -0.486352 -0.502907 -10.966014 5.277648 3.759848 -7.228695 9.416991 7.174136 -12.230333 14.473153 -1.399438 1.122041 -0.213777 -2.787186 3.555580 13.691604 -3.276313 0.180995 -5.599751 2.522681 -0.845898 6.737558 -3.616573 -5.005775 5.119301 5.820076 -3.733950 -1.814573 -14.174460 -1.499343 2.146833 -35.205597 -2.991838 12.434173 -12.912649 -51.845356 31.939728 -13.893359 -6.487843 6.081520 12.837614 9.694909 2.328619 39.585334 11.396220 6.895073 -2.130691 13.981411 6.239848 9.643901 -0.581648 8.105427 
-8.449882 47.341187 -17.174030 -53.800567 -47.426376 -41.850773 9.954387 2.911383 -6.951101 1.896298 3.198534 18.928686 -6.256372 13.385006 22.269690 -0.944889 -0.858310 -0.454889 -0.666323 -10.698274 5.284485 3.672450 -6.781744 9.318029 6.783908 -12.255488 13.902502 -1.325571 1.192443 -0.199232 -2.666683 3.421704 13.889516 -3.294065 0.187759 -6.181623 2.658248 -0.919387 6.969237 -3.715954 -4.893151 4.740886 5.539159 -3.663688 -1.940981 -14.021054 -1.338131 1.851879 -35.684538 -2.695405 12.106332 -12.603038 -50.609178 31.616797 -14.792102 -6.013557 6.036541 13.110880 9.223075 2.316046 41.418124 10.620976 7.780591 -1.571755 13.981417 6.854270 11.565144 -1.066652 6.865099 
