HIERARCHY
ROOT Hips
{
	OFFSET -0.179506 -22.333345 2.821913
	CHANNELS 6 Xposition Yposition Zposition Zrotation Yrotation Xrotation 
	JOINT LeftUpLeg
	{
		OFFSET 6.951974 -9.140623 -0.681533
		CHANNELS 3 Zrotation Yrotation Xrotation
		JOINT LeftLeg
		{
			OFFSET 3.427654 -37.519855 -0.449580
			CHANNELS 3 Zrotation Yrotation Xrotation
			JOINT LeftFoot
			{
				OFFSET -1.359570 -39.796059 -4.369333
				CHANNELS 3 Zrotation Yrotation Xrotation
				JOINT LeftToe
				{
					OFFSET 2.635814 -5.579078 11.928840
					CHANNELS 3 Zrotation Yrotation Xrotation
					End Site
					{
						OFFSET 0.000000 0.000000 0.000000
					}
				}
			}
		}
	}
	JOINT RightUpLeg
	{
		OFFSET -6.767048 -9.052170 -0.431982
		CHANNELS 3 Zrotation Yrotation Xrotation
		JOINT RightLeg
		{
			OFFSET -3.829005 -38.256897 -0.885003
			CHANNELS 3 Zrotation Yrotation Xrotation
			JOINT RightFoot
			{
				OFFSET 1.577377 -39.841461 -4.231180
				CHANNELS 3 Zrotation Yrotation Xrotation
				JOINT RightToe
				{
					OFFSET -2.537174 -4.814398 12.334795
					CHANNELS 3 Zrotation Yrotation Xrotation
					End Site
					{
						OFFSET 0.000000 0.000000 0.000000
					}
				}
			}
		}
	}
	JOINT Spine
	{
		OFFSET -0.253288 10.896323 -2.669631
		CHANNELS 3 Zrotation Yrotation Xrotation
		JOINT Spine1
		{
			OFFSET 0.548704 13.518043 0.109247
			CHANNELS 3 Zrotation Yrotation Xrotation
			JOINT Spine2
			{
				OFFSET 0.145701 5.292222 2.542457
				CHANNELS 3 Zrotation Yrotation Xrotation
				JOINT Neck
				{
					OFFSET -0.277840 21.387037 -4.285703
					CHANNELS 3 Zrotation Yrotation Xrotation
					JOINT Head
					{
						OFFSET 0.515184 6.496960 5.134897
						CHANNELS 3 Zrotation Yrotation Xrotation
						End Site
						{
							OFFSET 0.000000 0.000000 0.000000
						}
					}
				}
				JOINT LeftShoulder
				{
					OFFSET 7.884473 12.174932 -3.408961
					CHANNELS 3 Zrotation Yrotation Xrotation
					JOINT LeftArm
					{
						OFFSET 9.097692 3.046888 -0.886815
						CHANNELS 3 Zrotation Yrotation Xrotation
						JOINT LeftForeArm
						{
							OFFSET 25.961220 -1.277207 -2.745643
							CHANNELS 3 Zrotation Yrotation Xrotation
							JOINT LeftHand
							{
								OFFSET 24.923361 0.898606 -0.117091
								CHANNELS 3 Zrotation Yrotation Xrotation
								End Site
								{
									OFFSET 0.000000 0.000000 0.000000
								}
							}
						}
					}
				}
				JOINT RightShoulder
				{
					OFFSET -8.175920 11.883285 -3.861528
					CHANNELS 3 Zrotation Yrotation Xrotation
					JOINT RightArm
					{
						OFFSET -9.601238 3.255117 -0.914307
						CHANNELS 3 Zrotation Yrotation Xrotation
						JOINT RightForeArm
						{
							OFFSET -25.374195 -1.332924 -2.140099
							CHANNELS 3 Zrotation Yrotation Xrotation
							JOINT RightHand
							{
								OFFSET -25.529810 0.777228 -0.555919
								CHANNELS 3 Zrotation Yrotation Xrotation
								End Site
								{
									OFFSET 0.000000 0.000000 0.000000
								}
							}
						}
					}
				}
			}
		}
	}
}
MOTION
Frames: 100
Frame Time: 0.033333
-0.179506 136.765198 2.821913 164.549881 50.565574 148.434831 23.232822 8.255737 -66.123307 -5.119467 18.609594 120.288326 4.069885 2.798216 0.685289 -1.182899 -0.824059 0.096906 -18.921290 -9.706392 -40.413112 4.247774 -7.716730 68.076681 5.489490 -3.470086 22.862562 1.502303 1.676759 -3.661945 -1.517223 4.318384 52.789593 6.229310 -2.558967 -3.591981 0.692850 -1.044527 0.119764 -16.852055 4.379247 -0.633530 -0.390548 7.351247 -13.327292 -5.163910 -14.303347 3.011987 -0.516179 1.063267 3.144283 -62.950429 -77.382518 61.378906 21.838391 -21.348726 -13.977933 7.865615 13.393999 5.052554 16.567894 -3.693142 3.208031 4.615560 79.086387 7.929278 -11.705502 19.177942 -0.961286 
3.663279 138.578735 0.757589 165.476177 50.700295 149.528832 23.260285 5.966514 -61.570216 -5.737401 17.923407 124.619784 2.010841 1.784085 6.287945 -1.133398 -0.949730 -0.098790 -19.229090 -8.895087 -33.617151 3.175826 -5.508200 59.014306 5.741627 -4.860342 25.678158 1.631119 1.817918 -4.013156 -2.368316 4.883860 45.224219 6.080799 -2.962746 -2.916710 0.859699 -0.939340 2.101566 -16.491610 4.641008 1.974591 -0.659774 8.353163 -12.606872 -4.469569 -8.079546 4.785902 1.032386 4.244775 6.043815 -85.135899 -75.111434 82.276120 21.593847 -23.156796 -14.951668 7.755119 7.939241 5.499855 17.368794 -7.680130 6.743434 34.866295 79.043155 39.437552 -8.911620 20.124405 1.577414 
7.966635 139.816971 -1.646216 165.739678 51.401856 151.975476 21.972160 3.758704 -54.852445 -7.867693 18.250325 125.972094 0.524309 2.280261 6.361232 -1.067249 -0.882661 -0.062308 -18.532396 -8.337741 -25.624046 3.134554 -3.326045 44.538819 7.279386 -7.485927 25.793330 1.317756 1.690445 -3.958426 -3.502468 5.030594 37.043001 5.593937 -3.227018 -3.341323 1.515543 -0.753714 4.386569 -16.495506 4.082801 4.020580 -0.676263 9.598191 -11.002933 -2.736691 -2.283350 6.540575 3.793384 7.855168 9.821192 -104.348523 -72.053790 100.242011 20.000898 -25.434276 -15.398171 7.126546 2.839647 6.279572 17.185915 -12.060066 9.879712 58.287083 77.147628 63.007667 -5.044394 20.634844 3.069524 
13.280204 140.046951 -4.443426 165.501710 51.771494 153.966653 18.612417 0.414395 -47.027996 -10.050786 17.797409 125.078147 0.285001 4.387808 5.451033 -0.953065 -0.965655 -0.133074 -16.364030 -7.509641 -16.801729 2.547008 -1.048330 28.809490 8.189085 -10.196422 25.441999 0.961542 1.594122 -3.664944 -4.321047 4.815176 29.036328 5.008228 -3.148236 -3.544678 2.206903 -0.637847 6.090769 -16.225112 2.447302 6.240633 0.109763 11.054469 -10.373859 -0.590585 2.986402 8.241161 5.707286 10.239783 13.502703 -117.575429 -68.502028 113.096655 17.773699 -27.464831 -15.324215 5.297405 -2.234509 7.329675 17.559758 -16.901516 12.222203 61.643159 73.473714 66.058110 -0.345612 19.823264 4.737316 
19.214512 138.650284 -9.427295 163.848704 51.906087 154.175168 14.525404 -2.324767 -40.534259 -11.714487 16.636371 122.394580 0.533510 6.524420 3.766237 -0.866248 -0.940945 -0.254178 -14.119211 -6.893398 -9.776699 1.769714 0.461774 18.686327 8.063487 -12.123264 20.340637 0.318003 1.416396 -3.312511 -4.346284 4.785386 23.215329 4.181705 -3.244584 -3.680177 2.532661 -0.456477 7.383244 -16.542574 0.893228 8.393008 -0.028994 11.306334 -10.406833 0.334693 6.606136 9.080671 6.732817 11.755759 15.653356 -124.392837 -66.860866 120.384984 14.394292 -28.153612 -14.140335 4.462566 -6.180700 8.155772 17.325500 -20.757377 13.790628 57.573554 70.747784 62.166020 3.501045 17.445778 5.843861 
25.040655 135.900146 -14.233810 163.413519 51.740031 155.092148 11.716159 -3.607120 -39.639625 -12.896881 15.595445 118.486478 0.899939 7.808902 3.334784 -0.595275 -0.974482 -0.328254 -11.651140 -5.997524 -5.695583 1.752538 2.195002 17.610873 5.989122 -12.597109 10.057504 0.297446 1.213094 -2.998167 -3.104760 5.121538 21.059360 3.671941 -3.668542 -4.131129 2.297082 -0.103976 8.411224 -16.756643 0.391198 8.192058 -0.320599 10.088606 -9.698841 0.077124 8.472611 8.963717 5.197811 12.394513 17.161257 -127.491135 -66.273421 125.265978 12.964020 -27.884084 -14.395060 5.146459 -7.646578 7.357291 18.527769 -22.790590 13.592928 44.422040 70.605560 50.415966 5.797828 15.183594 6.722712 
30.618765 132.704956 -19.128895 164.463267 52.427258 156.951380 10.142062 -4.703351 -40.938447 -13.174185 13.385077 107.362217 2.208151 8.878499 0.312395 -0.272690 -1.200544 -0.657655 -9.200168 -4.331047 -3.282510 1.672710 3.718559 20.661953 3.084626 -13.314462 0.040082 0.500987 1.149357 -3.051711 -1.726072 5.333550 22.261653 3.163152 -3.310922 -4.166307 1.713660 0.101147 8.220731 -15.736511 0.021707 6.139021 -0.906804 9.476107 -9.308958 -2.216321 8.126961 8.610749 1.901691 13.707341 17.915163 -121.342688 -66.550578 121.282904 11.735175 -27.798901 -13.480173 6.899046 -5.265197 6.864422 19.488084 -19.561585 11.978166 30.009147 65.279764 36.506095 6.742991 13.952693 9.125660 
36.319118 129.418777 -24.405420 166.056520 53.889949 158.838874 9.811045 -5.585917 -44.181601 -12.309364 10.478460 90.458514 3.318764 10.254855 -3.337133 0.658304 -1.622305 -0.965379 -7.195439 -3.489743 -1.326642 1.802670 3.839419 27.848347 0.081363 -14.970387 -13.329607 0.569223 1.308056 -3.465349 0.005678 6.699369 25.465811 2.524609 -2.756280 -3.542598 0.769509 1.002037 6.859697 -14.136810 1.483679 3.618239 -2.166167 7.375030 -9.290812 -7.692672 6.652015 7.797421 -3.936848 14.065764 18.804946 -106.106368 -67.202508 109.201713 13.055187 -26.692109 -12.549621 11.433148 -0.575123 6.302208 21.309675 -14.708813 10.210050 16.795000 58.058139 22.199234 2.558172 12.915013 8.290932 
41.685841 126.516937 -30.137220 166.270207 56.828258 159.443225 9.155647 -6.373745 -44.359428 -10.510702 6.629790 65.538824 3.714329 11.284705 -8.534436 1.913611 -1.972988 -1.170548 -5.913962 -3.271376 0.081436 2.968007 3.749218 37.560962 -1.517925 -16.974335 -25.144119 1.373477 1.444304 -3.883369 1.758445 7.152495 30.164159 1.050716 -0.913713 -1.575607 -0.509238 2.078929 4.877415 -11.247848 3.757978 -1.117173 -2.879803 5.334359 -7.122182 -15.889035 3.350290 6.231367 -13.461044 14.256688 19.534868 -67.303711 -67.445934 74.229929 13.903946 -25.161547 -8.825293 16.091931 8.136667 5.034487 22.822586 -4.122755 9.249989 9.965623 46.176319 12.226760 -4.415410 13.660539 6.974271 
46.701805 123.852158 -36.261635 166.936351 59.562593 159.983094 7.794826 -4.817542 -42.471607 -8.767588 2.863403 43.326470 3.010919 10.918308 -12.295248 3.106027 -2.159587 -1.454367 -5.669394 -3.554568 0.854493 4.456980 3.866646 47.701144 -1.845763 -17.898201 -30.190113 2.073828 1.483637 -3.682356 3.261426 6.887870 32.939303 -0.254135 0.136723 1.114854 -1.337486 2.794340 2.810681 -9.988182 5.574717 -2.849822 -4.320992 2.331693 -7.047528 -20.589368 -0.207654 6.209840 -25.784836 15.023518 17.152700 -33.453544 -55.974801 42.288246 13.714194 -21.999346 -6.266437 16.496731 15.600012 4.076492 26.699070 6.980842 6.200407 5.949600 38.232723 7.406134 -12.633148 14.232137 4.702846 
51.780914 121.896408 -42.561974 167.976426 62.736608 163.915962 6.164911 -4.509522 -42.431833 -6.325433 3.702873 28.986689 2.355982 11.015744 -12.861823 3.028002 -2.117965 -1.302323 -6.489107 -4.749414 8.048022 3.469508 5.518484 44.523838 -3.630260 -13.346230 -35.884182 2.275200 1.512890 -3.521136 2.904391 9.763616 30.499575 -2.271306 0.992386 1.381503 -1.124640 3.992214 3.850804 -7.155429 5.532807 -3.041299 -3.401736 -0.139345 -7.330304 -21.446183 3.026216 6.697515 -33.695558 19.682920 15.652134 -27.873827 -50.776707 36.825788 16.664585 -21.195635 -7.724812 13.680346 16.771824 1.103106 32.128284 14.660643 5.795941 2.191614 49.799010 5.480864 -20.250517 15.791985 -1.810094 
57.908859 121.097977 -49.052662 169.145939 66.887642 169.547788 5.786047 -5.514321 -42.879369 -4.953079 5.874965 21.860952 1.114119 11.288656 -11.188828 2.656564 -2.059010 -0.985587 -8.015541 -6.476794 18.299153 2.468192 8.109705 38.255392 -2.720814 -7.529526 -31.503744 2.500807 1.419817 -2.952598 0.907429 14.007833 24.514544 -4.303267 2.288454 1.423322 -0.945042 5.592593 5.458423 -3.257191 4.476860 -3.162247 -0.872338 -3.205500 -7.603051 -20.554211 8.107506 6.620485 -35.391874 25.902542 14.014388 -30.550123 -55.852160 36.782963 21.431983 -21.650834 -11.818694 9.511605 15.815973 -2.814428 39.554789 20.405978 8.980388 -5.373472 72.022555 1.174197 -28.353248 16.086426 -10.907175 
63.763821 120.574722 -56.283241 172.105558 67.037311 175.081116 6.408927 -7.994549 -48.060193 -6.320637 11.285115 35.903444 3.999350 11.662929 -11.754619 2.549380 -2.232097 -0.636208 -8.743967 -7.591712 23.880162 2.314989 7.260326 39.727887 1.170073 -5.187469 -12.508525 1.868975 1.566263 -2.522123 -2.392330 17.240178 17.722844 -5.524346 2.190178 -0.480241 -0.756381 6.798724 6.342002 -0.061774 1.780789 -2.434561 2.059581 -5.168837 -7.852151 -17.999526 10.833291 7.196281 -37.454116 27.584318 12.528241 -31.326034 -61.761629 35.467418 25.989404 -20.813502 -19.527434 7.182932 14.438888 -3.858246 46.635411 23.583132 13.186333 -102.125304 86.834180 -93.450863 -32.560484 14.280608 -16.881189 
70.124542 120.214310 -63.820995 176.381018 63.909680 -178.595167 5.986786 -11.057677 -49.918226 -7.378374 15.888431 51.384350 8.713007 13.604917 -16.582233 2.421002 -2.371519 -0.214556 -6.564330 -7.541628 17.737500 2.851238 2.576464 56.028644 2.130336 -5.587927 -1.302805 1.633405 1.644736 -2.256344 -5.369904 16.499158 15.051403 -5.879310 1.471006 -2.510898 -1.622449 6.243062 5.850070 2.370963 -0.269543 -4.001999 4.102486 -4.830514 -6.615355 -20.991815 10.836864 5.338969 -38.607057 22.815251 11.325030 -19.257838 -68.493940 21.661649 29.093556 -19.109462 -23.568462 10.424962 13.345279 -3.701026 51.996937 20.199641 18.885676 -169.849854 83.814386 -158.862115 -32.384986 14.187126 -16.824851 
75.881531 119.698669 -71.263069 179.749010 59.620810 -175.624851 2.709080 -13.189652 -45.016818 -7.488636 15.852799 67.789867 12.283697 15.028247 -25.384193 1.624189 -1.793454 -0.102776 -3.337171 -5.786136 2.575173 1.398677 -4.272357 81.606147 -0.233008 -6.980812 -2.515468 1.568909 1.510067 -1.875916 -6.980503 12.501869 16.967393 -5.259693 0.166384 -3.484252 -3.738260 5.281711 3.903868 4.363364 -0.644821 -7.500626 5.602649 -3.995278 -5.288469 -27.628948 5.012907 0.948022 -38.038060 9.663032 12.400009 14.912368 -73.714948 -13.439914 31.170628 -16.797963 -20.790530 18.912332 12.593283 -2.706216 53.980999 11.043440 23.711614 153.120497 89.383794 166.206402 -28.482089 14.953928 -10.419888 
80.690620 119.257889 -77.997856 -175.134554 52.660028 -176.254459 0.188997 -12.030205 -34.178616 -10.458463 12.077415 84.002015 12.836252 13.533499 -29.726486 1.485444 -1.639202 -0.210426 -4.227739 -2.388461 -15.502242 -2.330351 -6.925526 102.652877 -3.944000 -9.496026 -5.280438 2.226939 1.486939 -1.583751 -7.153900 6.686161 21.798089 -2.920897 -0.897778 -3.513682 -4.732898 2.483229 2.857247 3.834429 0.185534 -8.697719 5.933596 -5.274573 -6.384307 -25.555052 -6.481645 -1.717883 -39.871200 -10.088679 12.537270 45.670595 -76.332453 -42.840756 31.175581 -17.580737 -15.240483 21.509886 12.679336 -1.698944 51.265932 1.767446 22.260405 -0.519169 76.445066 12.856259 -21.621079 15.803937 -3.083782 
84.860619 119.934586 -84.315964 -169.641965 46.011221 -175.711521 -0.517015 -9.521962 -21.586337 -16.725594 4.942518 81.112832 11.910510 14.300797 -36.472316 1.462788 -0.939914 0.074081 -6.931676 -1.034034 -33.636542 -2.799502 -8.059315 112.222718 -3.819004 -10.553828 -7.270462 2.869672 1.246697 -1.067088 -7.865891 1.497163 26.398765 0.582875 -1.327061 -4.750973 -2.726957 -0.800007 2.881364 0.826303 3.036704 -9.534867 6.238008 -3.472038 -7.763841 -13.017945 -16.799579 -6.550021 -33.264769 -29.172705 8.232977 89.159775 -77.336605 -87.180855 28.404893 -18.341012 -16.040829 15.615836 11.962777 -2.072824 41.656956 -4.281720 19.527565 -18.642977 83.309013 -5.702256 -17.192742 14.640196 -7.840675 
88.866440 122.222244 -90.936050 -161.643113 40.621909 -172.481324 3.141514 -4.552971 -7.475387 -21.933836 -7.099989 71.793069 9.242782 14.530907 -37.981604 1.023104 -0.807825 0.150399 -11.484059 -2.382349 -50.237793 -2.116890 -11.546431 111.017041 -2.860844 -10.779105 -8.788800 3.690725 1.421348 -1.132976 -6.275305 -5.171505 30.464469 3.090770 -0.448899 -9.014364 0.182404 -3.771820 4.232998 -3.124551 6.507542 -8.133955 5.556412 0.434588 -7.611689 3.432690 -19.860513 -11.874175 -14.137834 -40.123050 -6.193869 92.845831 -74.217317 -96.250596 32.748669 -15.852930 -22.651327 5.651219 8.369789 -3.437549 27.978660 -8.894787 15.512204 -139.714563 84.840230 -130.786841 -21.865759 16.888538 -11.908599 
92.803429 127.006302 -97.856339 -154.906107 38.886244 -170.120859 11.289741 0.755716 7.652724 -18.910744 -20.550056 48.082032 1.472404 12.639963 -23.563793 0.754647 -0.991774 0.040208 -15.280977 -6.778680 -62.802375 -0.664747 -17.884966 101.624195 -1.298063 -10.179429 -5.762307 3.834739 1.347002 -1.430420 -3.427633 -11.848173 29.529316 3.971055 0.646159 -10.994522 2.552621 -5.527769 5.555895 -6.596206 7.476778 -0.960301 6.622875 6.001615 -10.948441 11.976307 -20.945986 -10.226075 3.439818 -31.912967 -18.675073 77.009426 -74.835625 -84.622560 33.125102 -15.559638 -26.815560 -4.203268 8.657415 -0.532509 17.108071 -9.632432 8.723402 171.224884 81.751236 178.046179 -26.930519 20.278724 -11.499980 
96.857452 133.442291 -105.043335 -149.477257 40.561706 -167.959170 16.439385 2.135166 16.412489 -10.276564 -25.095237 33.159464 -5.479671 12.071912 0.260868 0.230395 -0.808414 -0.718449 -16.191742 -11.096679 -71.954801 -0.769711 -23.915453 94.939918 0.276199 -7.526046 -1.681039 3.660964 0.924882 -1.194028 1.483560 -17.225775 26.607794 2.792298 1.573256 -10.834128 4.126312 -6.087833 6.269055 -8.407638 8.122495 3.087140 6.078230 11.215679 -11.031660 13.976103 -21.477283 -7.423185 4.763742 -21.424685 -16.387797 56.122214 -80.707912 -63.863674 29.106412 -19.455712 -25.244181 -10.757424 11.110456 1.117326 12.054608 -8.399405 4.374241 139.238775 78.402780 145.226831 -24.762294 23.960935 -8.607793 
100.302338 139.972961 -111.606750 -145.290487 42.547026 -167.158066 17.894040 3.030133 17.009513 -7.822258 -21.870272 36.680339 -7.759712 13.657244 11.864239 0.083416 -0.699019 -1.012093 -16.811064 -13.125850 -77.115590 -1.987495 -25.869438 96.017635 0.587363 -5.896918 1.004652 3.227169 0.677368 -0.670221 4.756784 -20.154839 27.059592 2.479132 2.260889 -10.104900 4.534576 -5.979369 6.604881 -9.397718 8.040234 3.880559 5.542915 14.770465 -9.554788 12.621979 -22.247663 -5.519645 -0.214666 -17.963048 -13.188556 4.764527 -77.390648 -11.729541 26.227205 -20.332629 -20.214360 -11.989093 13.529206 1.836727 10.807334 -5.583315 1.969466 102.706081 77.262281 107.717980 -24.357753 25.852499 -5.171001 
103.367386 146.041840 -117.256981 -142.591929 44.611936 -169.574129 16.298517 3.906316 11.235330 -9.803143 -15.140062 55.100128 -5.745623 13.197286 14.355825 0.367021 -0.822128 -1.206849 -17.255431 -13.203725 -79.102331 -3.991661 -25.684352 99.628469 -0.965921 -5.437437 2.834047 2.562531 0.727717 -0.839582 4.696558 -20.162789 32.605669 3.582022 3.002785 -8.737570 4.174678 -5.295623 5.598482 -10.137968 7.890156 3.296030 4.235366 15.977691 -7.533878 8.843736 -24.911326 -4.690624 -6.484561 -19.098240 -11.832230 -5.208378 -65.485726 -1.312816 22.776176 -19.799759 -12.736880 -9.647100 17.373857 1.822285 12.312206 -2.570045 1.603918 67.117859 73.925943 71.337002 -22.832916 24.588019 -2.011915 
105.687378 150.567184 -121.814819 -141.479957 47.443575 -172.632212 12.670842 4.127516 -1.854534 -12.827300 -4.570514 85.176086 -2.344405 10.675002 11.406257 0.240955 -1.118452 -1.110261 -16.671839 -10.835150 -79.511426 -5.406354 -22.529775 100.596628 -3.402335 -5.724143 5.875319 2.355762 0.922557 -1.275595 3.021037 -18.232144 41.451662 4.953298 3.526740 -8.050808 3.669980 -4.279644 4.309610 -10.696886 6.627366 1.625527 3.922827 15.474213 -5.954399 5.483868 -28.730978 -4.916569 -13.233785 -22.097728 -10.997050 -6.490051 -51.299165 -0.130531 21.582330 -19.069259 -5.227827 -6.040318 21.863500 1.621507 15.704826 1.205496 1.649253 40.038716 66.360655 43.637894 -21.052998 22.243156 -0.067693 
107.476387 153.057007 -125.425781 -142.923754 52.838951 -178.531565 10.304718 3.887543 -17.338871 -11.663592 6.511698 107.579270 0.607675 8.255760 4.231617 0.641820 -1.121733 -0.490711 -16.834484 -9.066073 -80.281978 -5.397564 -19.656574 100.072547 -6.043583 -5.519898 8.322194 2.539467 1.580932 -1.917160 0.686380 -14.346100 52.254054 6.387000 3.400704 -5.978079 2.692951 -3.390238 1.825928 -10.053949 6.419937 -0.412228 2.533591 13.215195 -7.444459 1.661035 -32.437251 -4.477348 -17.642172 -23.727456 -11.028065 -5.994781 -35.258765 -1.630923 22.634614 -18.569944 -0.607627 -1.565764 26.814764 1.784586 18.365061 6.656920 0.736407 19.673097 52.675627 22.162160 -23.393403 20.232114 -1.290621 
109.400032 153.817596 -128.503159 -145.986450 58.086378 174.239193 9.035331 2.914934 -34.717968 -6.970127 15.305239 123.708024 2.749710 6.497089 -1.295718 0.823982 -1.135294 -0.221346 -17.326821 -8.742742 -81.551970 -5.986170 -17.754520 101.504703 -6.704239 -3.738066 11.843629 2.726384 1.889874 -2.079264 -0.360023 -10.511105 62.494344 6.422415 3.259894 -4.479884 1.683953 -2.286118 -0.172308 -9.532962 6.516762 -2.448139 2.196054 10.361226 -9.356570 -1.221960 -35.476225 -4.137556 -21.812309 -25.887930 -9.891651 -5.245931 -24.461651 -2.060151 24.495808 -17.700772 0.593644 0.890489 30.961448 1.767765 20.249845 12.264228 -1.374101 9.648858 38.824727 10.745197 -26.743576 17.549617 -2.826343 
110.994743 154.077698 -131.258102 -147.822057 63.342296 169.509052 7.703275 1.703289 -51.115670 -1.179546 20.550581 130.479510 3.945467 6.612738 -6.429007 1.196310 -1.153552 0.067611 -17.563582 -7.618987 -81.385569 -6.490180 -16.063201 102.256852 -5.422421 -2.673818 15.007154 2.409543 1.976897 -2.020221 -0.900181 -7.122873 71.680819 6.124192 2.397260 -3.843617 1.032073 -1.615790 -1.480788 -9.412468 5.785708 -3.847170 2.965580 8.584148 -11.538006 -4.054534 -38.462421 -3.265792 -24.255983 -26.643345 -9.160664 -3.859197 -15.722774 -3.695272 26.367873 -16.127918 -0.641809 2.224819 34.695282 1.440792 20.677255 16.548245 -4.466530 3.671249 27.329969 1.293114 -28.595578 14.532001 -3.893973 
111.990608 154.626724 -133.952667 -150.954820 67.536633 164.438509 7.192701 1.571349 -66.660056 2.268321 24.492700 128.509869 5.114460 6.352573 -8.726060 0.721063 -1.196148 0.334602 -18.173404 -7.779743 -80.797174 -5.669264 -13.663744 100.764033 -3.353057 -1.313347 19.746101 1.967271 1.741238 -2.001418 -0.454113 -5.297506 77.262155 5.778021 1.584855 -3.486729 0.841692 -1.398600 -2.139800 -10.032171 3.724631 -3.365382 3.780940 7.541847 -13.727261 -7.623443 -39.299672 -1.190946 -28.123103 -26.268210 -7.111388 -3.183531 -10.845770 -3.819239 28.766861 -14.393823 -3.444168 2.971604 35.761317 2.045892 21.914123 17.272207 -6.538316 0.984565 20.609527 -4.181767 -27.784409 12.160644 -3.569267 
112.479019 155.497955 -136.463776 -151.176124 71.051540 161.912860 7.422469 0.816551 -77.060959 -0.242678 25.691119 114.365493 5.213693 6.462187 -6.519819 0.325255 -1.403212 0.136169 -18.040411 -8.189541 -81.489830 -4.496983 -12.743242 98.277874 -1.877436 -0.396778 22.097495 1.736715 1.616661 -2.059854 0.040320 -4.556636 79.959043 5.625416 1.734992 -3.528219 0.860901 -1.349529 -2.661190 -9.817912 2.324363 -2.468414 4.653900 7.191830 -13.924750 -12.328993 -36.375680 2.182463 -32.906367 -25.475137 -4.133665 -3.094818 -9.984315 -3.231755 31.511250 -12.648013 -5.045054 4.765442 33.647814 3.475908 24.061951 16.564270 -7.333163 -0.079827 17.764383 -7.776513 -28.856728 11.099924 -2.525814 
112.699486 156.573151 -138.838974 -147.821861 74.138268 162.485231 7.326201 -0.365703 -79.935498 -3.406928 24.338468 98.991926 5.192962 6.685252 -3.368478 0.302820 -1.697350 0.024845 -17.656621 -8.311990 -82.152043 -3.797097 -13.228115 94.788480 -0.136090 0.864296 24.028877 1.669040 1.644500 -2.200639 0.762315 -4.514119 79.609861 5.187236 2.287235 -2.849064 1.134335 -1.081966 -2.358941 -9.407690 0.632633 0.558526 5.234442 5.978025 -14.573697 -16.278131 -31.432826 4.856283 -41.061445 -23.266444 0.989553 -2.521708 -10.817873 -2.946671 33.524223 -11.296199 -7.127290 6.036119 30.137773 4.556281 28.671833 14.889471 -5.404873 -0.980214 18.046212 -9.260103 -30.833538 10.235172 -3.722861 
112.580292 157.808624 -141.139893 -145.840051 77.014313 160.623043 7.391445 -1.272686 -77.543588 -5.552752 21.446758 81.798586 5.903462 7.604689 -2.811085 0.447103 -1.723255 0.519438 -17.849031 -7.619007 -81.209187 -2.979576 -13.241093 92.811664 0.429662 1.315079 23.367729 1.772969 1.813921 -2.411198 1.584912 -4.364570 77.442911 5.157530 3.006521 -1.784425 1.141626 -0.632594 -1.348973 -8.677014 -0.901829 4.511869 5.431388 4.483475 -15.319471 -18.455770 -25.207246 6.547903 -50.185464 -17.927964 5.902868 -2.165596 -15.151155 -0.990735 36.835255 -11.452134 -8.680183 7.378894 25.791969 5.522065 33.907781 11.782230 -2.142506 -0.720126 21.529602 -8.187300 -33.554042 11.782070 -4.093553 
112.034035 159.415588 -143.438232 -145.419716 79.175615 157.189426 7.525860 -2.347603 -71.735840 -7.601446 18.092657 70.424454 7.037802 8.307952 -1.531247 0.402702 -1.568430 0.613067 -17.507622 -6.298219 -75.195867 -2.120187 -13.195921 90.929251 1.055732 0.701899 23.521874 2.115139 1.837842 -2.865588 2.311006 -3.664358 73.600421 5.461814 3.590957 -0.059876 1.191570 -0.515694 0.036968 -7.642215 -1.038424 7.716514 5.146525 3.886766 -13.793700 -19.721461 -17.532855 7.869355 -56.027492 -9.082288 9.122446 -3.683471 -22.225443 2.603736 39.386407 -10.580957 -11.729886 8.907017 19.602762 6.222068 39.771861 5.893887 2.320238 -0.921580 28.718360 -7.662248 -37.886176 11.549051 -5.446909 
110.952843 161.424057 -145.769562 -140.521917 81.126609 160.284304 7.176273 -3.740907 -64.315237 -9.299176 13.020206 60.068551 6.736961 8.452580 1.562378 0.521963 -1.470457 0.653206 -16.219309 -4.805744 -68.888027 -0.159600 -12.167721 90.389448 1.330077 -0.069298 23.553024 2.289812 1.942904 -3.132966 2.513481 -3.119392 67.535456 5.317137 4.165427 0.149782 1.503647 -0.472382 2.566231 -7.326011 -0.219386 11.047243 5.097635 4.328093 -10.012810 -19.033977 -8.848203 9.796539 -59.446674 1.471787 10.394460 -7.697838 -26.850573 6.659748 43.457794 -6.910039 -17.154140 9.309440 12.251890 7.262270 44.757079 -1.866436 5.366623 -1.459564 36.326690 -7.486371 -44.190274 10.989205 -7.771045 
111.176422 163.624130 -148.107040 -139.501779 82.582583 162.312999 7.184217 -4.363071 -57.440908 -9.699975 8.839402 53.914261 5.241122 7.821238 5.937611 0.423796 -1.318814 0.570093 -14.559944 -3.933184 -62.004554 1.271385 -11.071007 85.978900 1.663611 -1.243706 24.196741 2.158486 1.656082 -3.233951 2.577823 -2.021191 60.968542 5.093419 3.829128 0.433022 1.723689 -0.679276 4.645278 -7.129577 0.364362 13.766149 5.304581 5.711444 -7.549169 -18.692188 -2.053041 11.523865 -58.312289 10.353669 10.149698 -12.967977 -28.150169 11.336753 42.418951 -5.052609 -20.456865 9.707331 5.934176 8.262825 45.905986 -8.801076 6.284536 -2.134388 43.811013 -8.293573 -44.207633 10.207695 -10.405904 
111.386749 166.169586 -150.422562 -145.470553 84.209042 157.165530 8.033537 -5.028257 -54.329586 -10.842899 5.879742 54.375456 3.315739 5.853839 11.213050 0.362284 -1.413631 0.291269 -12.609567 -2.644246 -55.195803 1.918142 -9.732014 81.548807 0.668829 -2.607647 25.551015 2.029426 1.624466 -3.424801 1.969839 -0.719764 53.810452 4.788205 3.247839 1.040823 2.172972 -0.997996 6.156711 -7.464577 0.831567 16.745343 5.839307 7.201060 -6.861058 -17.928460 4.072807 14.008576 -55.912934 18.563069 9.387115 -17.985943 -28.013754 14.901904 41.057546 -4.521424 -22.528054 9.446326 0.823652 9.789253 46.281797 -14.591577 5.448047 -0.791814 46.317504 -8.378617 -43.879606 9.827257 -12.792513 
111.439011 168.817764 -152.621384 -166.533843 86.064551 138.604830 7.975041 -5.626093 -49.874791 -12.035791 2.486133 52.655475 1.360258 5.459763 16.231408 0.403940 -1.423291 0.080169 -9.956458 -1.087918 -46.086265 2.901479 -7.358032 75.878821 -0.687084 -4.506863 24.937410 1.877353 1.462937 -3.565952 0.868347 0.272724 47.007692 3.597977 2.827467 0.780837 2.237275 -1.535379 7.499996 -7.338396 1.058433 19.002942 6.227452 9.316679 -5.760490 -16.456417 9.783199 16.207861 -51.159786 25.285756 8.723237 -21.306323 -24.558550 16.270426 37.771598 -5.525477 -24.383935 7.983410 -3.689672 11.342757 46.790561 -19.918743 5.072501 5.923549 41.750805 -4.572279 -42.424179 9.968802 -14.961096 
111.892502 171.492599 -154.727097 170.751290 87.115762 119.090497 7.389555 -5.911084 -45.129546 -12.802414 -0.179467 50.530129 0.018326 6.516650 20.292617 0.342125 -1.437358 -0.053747 -7.538216 -0.741703 -36.477086 3.858118 -4.939872 68.424244 -1.169193 -6.970639 24.740605 1.530033 1.420180 -3.439530 -0.100306 1.329211 40.714444 2.070285 2.442627 -0.305395 2.363197 -2.166282 9.043163 -7.340830 0.583701 20.621960 6.547064 11.274201 -5.456875 -14.632567 15.384559 17.956497 -43.878754 30.475593 8.754907 -23.460730 -21.675655 17.024304 33.921167 -8.916949 -20.996257 6.149417 -8.711226 13.324670 45.304764 -26.066683 5.475297 14.784745 37.940122 2.176923 -39.255490 11.637957 -15.683176 
112.941978 171.844040 -156.916275 147.142879 87.667192 99.316733 7.453581 -5.413569 -41.225503 -13.102663 -2.011817 48.336732 -0.335876 8.261946 22.862369 0.050847 -1.367356 -0.300539 -6.172071 -0.879290 -26.985245 5.053576 -1.889812 61.031927 -1.202146 -9.345620 25.066908 1.292621 1.196114 -3.247608 -0.554918 2.451053 34.458020 1.446417 1.742372 0.042921 2.554589 -2.462755 9.925400 -7.902217 0.349927 20.959217 6.347602 12.434186 -5.982039 -12.330599 18.068317 19.063310 -36.993679 34.045875 9.109141 -24.034430 -17.509392 17.257083 27.702900 -13.048147 -18.505243 4.297008 -11.762492 14.468060 42.031464 -30.794491 4.728693 18.393459 33.619583 5.231616 -33.538062 13.133355 -17.640249 
114.898430 171.306824 -159.382919 136.873654 86.953459 93.642351 6.332414 -4.980096 -37.138662 -12.772418 -2.751515 46.164502 -1.204627 10.171828 24.593083 0.005464 -1.526927 -0.316176 -4.838401 -1.894672 -15.818979 5.899032 1.897343 51.861156 0.202299 -11.930994 23.821507 1.005870 1.010211 -2.914734 -0.623990 3.006326 27.633675 0.189853 1.173693 0.178115 2.672676 -2.764417 11.137668 -8.142015 -0.164359 20.624561 6.367460 13.217049 -4.989101 -9.023456 19.445334 19.342297 -32.824563 35.435585 9.340329 -24.484692 -13.836016 16.968383 23.272228 -15.888177 -14.872860 1.181425 -13.596627 15.199487 39.469180 -33.491454 4.862574 21.387721 29.632231 7.687902 -29.651208 15.317076 -17.024685 
117.971710 169.635651 -162.304428 132.709796 86.257103 95.488491 5.792400 -4.604781 -34.510428 -11.725912 -2.525270 43.339247 -1.505268 10.982131 23.055580 0.084413 -1.449996 -0.269156 -3.989211 -2.437036 -5.582256 5.650326 6.567394 39.643990 2.853756 -12.679512 21.939764 1.105562 0.897731 -2.640299 -0.959378 3.991470 21.779702 -0.888374 0.713528 -0.366097 2.627329 -2.666670 11.440037 -7.632580 -0.407013 19.890694 6.444655 13.910471 -3.389493 -6.282042 20.081383 19.109506 -28.476513 35.664495 11.113670 -25.365408 -11.900696 19.415654 19.741466 -18.674145 -10.302254 -0.899602 -15.069294 15.109140 36.628979 -33.316350 6.053289 21.629747 27.809870 8.344835 -29.083030 16.593208 -16.904381 
121.811508 166.311493 -165.755356 134.488901 85.799969 105.094074 5.195282 -4.659243 -33.499526 -10.825330 -0.950974 41.503302 -0.839081 11.571208 19.456076 0.216243 -1.343915 -0.090679 -3.469899 -2.890704 1.870082 4.692945 8.583990 30.182816 4.674208 -13.915801 18.195001 1.101884 0.801526 -2.311516 -0.858277 4.911785 18.067969 -1.864311 0.493919 -1.360170 2.289217 -2.324126 11.853118 -6.576464 -0.982027 17.912988 6.458374 13.593594 -2.006455 -5.526407 19.246631 17.454365 -27.274672 33.748735 11.866188 -25.525551 -12.143955 21.614347 17.199592 -19.429984 -9.157378 -1.381085 -14.850815 14.007228 35.920486 -31.438967 6.909475 20.940326 29.960030 9.331719 -29.872572 16.250071 -17.897365 
123.941696 160.941849 -169.687363 118.820936 86.135433 97.613515 4.996516 -4.354632 -33.759206 -9.779302 0.673151 40.320457 1.670828 11.876544 11.002206 0.605387 -1.325239 -0.198015 -2.694361 -2.802180 6.082206 3.253229 9.265954 24.898039 4.475429 -14.327895 8.108588 1.150037 0.630218 -2.026026 -0.582766 5.524332 18.482337 -2.676971 0.042008 -4.027439 1.647198 -1.801348 11.201764 -5.747430 -1.180946 13.636113 5.548826 11.703986 -0.042829 -7.110353 16.691191 15.235619 -29.885578 30.603620 10.699369 -24.652231 -15.173421 22.913442 18.551971 -18.220312 -12.293691 0.816172 -11.869733 11.640292 39.026373 -26.477004 7.250919 17.836393 35.097646 8.601689 -31.966333 13.594032 -19.251360 
126.179718 154.381668 -173.920288 99.253916 87.609568 86.089498 5.000218 -3.824994 -36.234243 -8.881529 3.901427 42.829656 4.308527 12.225944 0.239613 1.534970 -1.281087 -0.641505 -1.794356 -2.894385 7.630479 2.041157 6.479816 27.659587 1.000000 -15.683122 -7.253037 1.497179 0.731338 -1.941860 0.174328 5.996742 20.140641 -2.638703 -0.566124 -5.539368 0.903502 -0.943099 10.224687 -4.394502 -0.026318 8.370360 3.432115 8.554424 0.389931 -11.099950 13.095401 12.274491 -33.663817 25.269734 9.732412 -23.170582 -20.259615 23.465693 22.247281 -16.334330 -17.980762 6.295069 -6.997783 8.201720 43.445213 -18.886164 7.741394 10.862712 40.165529 5.002269 -35.484624 11.199955 -20.345888 
128.765305 147.991394 -178.346420 167.906883 88.625793 162.861680 4.775174 -3.811289 -41.518931 -8.197618 9.066065 50.944258 7.982597 13.656381 -15.122618 2.240674 -1.285387 -0.953638 -2.578537 -2.525903 5.634680 0.899132 1.917831 35.062596 -1.592318 -16.177938 -19.988584 1.410144 0.790714 -2.467595 0.222853 7.220965 23.586178 -0.355265 -2.336832 -6.460510 0.234397 -0.639067 8.124567 -3.637077 2.376356 1.002960 -0.255217 2.750577 -0.763175 -18.077597 5.930027 8.495401 -38.778043 12.841075 9.193434 -15.646833 -24.604263 16.332858 28.639501 -12.916872 -19.980676 15.385619 1.918336 3.458010 48.517377 -5.543341 8.682743 -5.709646 38.268945 -10.789749 -38.344167 7.076842 -20.217529 
133.437332 144.280289 -182.300110 -158.118508 85.335422 -158.156280 3.627090 -4.678262 -42.986940 -8.174781 12.045523 57.837022 12.545276 13.024939 -27.910023 2.315099 -1.252309 -0.579661 -3.759291 -1.740884 -3.690799 0.378203 -1.528087 56.186050 -2.084786 -13.349122 -13.564500 1.683863 0.955550 -2.271711 -0.622543 6.568146 27.695381 1.874152 -3.037411 -7.280058 0.491376 -1.337792 7.066530 -3.045663 3.107274 -4.634817 -0.889607 -0.926284 -2.384510 -18.690359 -1.321105 6.209552 -42.223593 1.321658 8.662451 -8.383555 -32.434169 7.571492 31.589419 -11.595861 -22.533044 18.218018 8.086276 1.207138 51.108608 1.626096 9.730679 -14.104106 35.306547 -19.861332 -36.278870 6.535573 -20.071102 
138.712784 142.421036 -185.944290 -147.129805 82.987509 -145.380258 2.748631 -4.994268 -39.385386 -9.924325 11.095432 61.632595 16.141424 12.737175 -37.315416 1.634950 -1.137978 -0.202607 -6.662137 0.185667 -19.746517 0.002351 -3.577109 83.462769 -2.391846 -11.269492 -4.768221 2.118456 1.165013 -2.124820 -1.155375 3.476115 32.189264 3.610798 -2.250636 -8.185943 0.922751 -2.243110 6.591870 -2.406747 2.947626 -8.355938 -0.992377 -2.123155 -5.045018 -16.452464 -6.443378 5.028606 -43.463979 -5.129879 8.877226 -3.028340 -42.681285 3.223290 33.897786 -12.606107 -22.468745 17.150031 10.710961 0.303881 50.641108 3.595604 9.857739 -16.758341 35.637660 -22.242857 -33.827959 8.114154 -20.274913 
143.927582 141.897110 -189.271164 -147.523270 80.661450 -146.023798 1.979984 -3.691010 -31.179332 -14.238557 5.702993 61.162589 18.391686 9.631884 -43.477456 1.214462 -1.124479 -0.381993 -10.709026 -0.112848 -37.899463 0.596131 -7.289334 103.541419 -3.918148 -11.256024 -4.190968 2.509718 1.424456 -2.183042 -0.860014 -1.791193 34.343049 5.722617 -0.833192 -8.237000 1.391785 -3.428989 6.265883 -2.204821 3.412245 -10.542649 -2.393797 -2.245087 -6.826507 -12.604375 -7.463561 4.446071 -44.104791 -6.930261 10.005421 -4.178134 -48.724599 7.319569 33.628260 -13.581698 -20.971425 14.951642 9.179205 -0.192587 46.344744 2.758006 8.691367 -14.709141 38.481628 -18.178700 -31.219233 10.473822 -16.740126 
149.919266 142.791031 -192.338898 -138.249594 81.054499 -139.232582 3.900891 0.328607 -18.422417 -17.052386 -1.095828 56.361207 15.757573 4.702699 -42.957758 1.074844 -1.259448 -0.506697 -14.435271 -2.984433 -51.810954 0.484800 -12.213963 105.473660 -4.967766 -12.002861 -5.925986 2.408031 1.482753 -2.458529 0.129653 -7.077518 36.695413 6.232500 0.850677 -8.167850 2.003589 -4.110362 6.318503 -3.772902 3.069736 -11.844761 -2.537754 -1.070775 -9.242491 -10.066579 -6.199771 5.278100 -44.914112 -2.850440 9.943469 -9.247120 -48.825899 13.432451 32.087258 -14.950107 -20.767646 11.563318 6.698925 1.003712 41.115435 -1.701771 5.888732 -7.960262 40.768242 -11.402191 -30.198432 11.720487 -14.697804 
156.564590 145.178223 -194.394913 -119.290765 81.695643 -122.436657 8.405905 3.582250 -5.541187 -15.535259 -9.242230 51.005928 2.448527 12.108786 -16.501542 1.262009 -1.437057 -0.669476 -16.117809 -5.004807 -61.767711 2.282819 -15.729064 92.429028 -4.573662 -11.622482 -7.624175 1.672553 1.087277 -2.241037 1.795779 -13.106900 37.575287 5.158928 2.256031 -7.937477 2.728808 -4.903581 7.184106 -7.240217 2.138284 -11.107878 -2.174500 3.897065 -12.877317 -10.358872 -1.945089 7.739304 -45.319653 5.726663 9.835210 -16.906156 -45.903913 20.361081 29.431367 -14.604615 -22.949266 8.122812 2.680256 4.507398 35.314833 -9.335763 3.783065 3.411330 43.247630 -0.677868 -28.131548 14.621690 -10.550612 
163.004593 147.818680 -195.259705 -95.232249 84.774352 -99.904525 10.634856 3.558252 -2.881419 -13.273424 -9.830050 52.436994 -2.097492 11.231098 -0.898054 0.812202 -1.370915 -0.726808 -15.891011 -6.072416 -62.512671 3.873924 -16.022734 67.111028 -3.409909 -11.040260 -1.918584 1.137991 0.656933 -1.840717 2.672097 -15.009187 38.709844 3.968428 2.230032 -7.177506 2.730076 -5.362529 7.060307 -9.137169 0.138451 -9.700576 0.103730 7.701151 -13.973617 -11.086828 0.206223 9.741934 -48.746585 10.405629 9.232861 -20.196109 -35.308937 24.225270 26.114149 -14.284035 -20.855311 5.330549 -0.000487 6.333414 34.251867 -13.384158 1.897590 8.075287 39.772647 2.980717 -26.367711 14.508687 -6.399022 
168.978455 148.690247 -194.878723 -30.472939 85.831321 -37.081481 10.709417 2.459291 -7.201719 -11.733795 -6.196560 63.124252 -1.419786 10.666240 1.325322 0.324302 -1.200453 -0.571307 -14.075553 -4.802607 -60.067387 5.202507 -14.862280 47.112765 -0.246815 -9.488113 5.993963 0.254447 0.463960 -1.620035 1.850759 -13.861547 42.429760 3.172062 1.901288 -7.434329 2.944177 -5.413526 7.089166 -9.664461 -2.045606 -10.575353 1.956791 9.758128 -15.029104 -12.677664 0.023372 9.692722 -53.753380 11.477776 7.563074 -18.242860 -25.135761 20.855858 23.859902 -13.277564 -18.335991 3.820588 0.418007 6.726737 35.760514 -13.670541 0.881645 8.827106 34.249341 1.574594 -26.249999 13.058851 -4.282461 
173.560745 147.082977 -194.313446 -3.986841 82.893863 -11.391149 10.644229 1.342842 -20.688536 -11.028890 0.094563 79.588399 1.297953 9.238866 -4.209843 0.281962 -0.913892 -0.117908 -12.454923 -3.272724 -59.612889 4.142296 -15.133001 43.890506 -0.444235 -8.733863 8.482646 0.099741 0.646702 -2.093504 0.831112 -10.770634 47.755465 3.679680 1.423809 -7.750730 2.595244 -4.812225 5.928300 -9.220426 -2.908482 -10.964229 2.507688 8.686293 -16.098635 -15.228149 -2.878239 8.794084 -55.948768 7.554615 6.040523 -13.613293 -18.965927 14.862909 22.603613 -12.730484 -15.073335 5.449638 4.038285 6.389209 36.583049 -9.926623 0.761308 6.647447 29.001658 -1.426374 -26.262523 11.717457 -5.240875 
176.943130 143.998474 -193.840851 7.728595 81.110803 1.061091 9.315426 -1.186264 -36.535196 -8.169428 5.924293 88.550409 5.913762 9.246116 -11.372086 0.926545 -0.866682 -0.000486 -11.090747 0.045879 -59.044018 2.566604 -14.479066 51.972978 -2.649603 -8.694190 4.637356 0.946130 0.860481 -2.378635 -0.235739 -6.885528 51.847616 4.306681 0.793276 -7.476139 1.611676 -3.744086 3.637000 -7.957527 -3.829362 -11.179057 2.860476 5.630323 -16.815157 -17.098600 -9.233832 6.827028 -55.458305 -0.637283 6.856889 -9.077775 -12.937565 6.395005 21.321275 -11.578176 -10.828797 7.462275 10.346022 5.149177 37.127262 -2.802775 2.163048 3.595633 25.476819 -5.382131 -27.198429 10.132658 -8.163332 
179.961975 140.434677 -193.697449 4.814581 76.800282 1.513687 8.827758 -4.073430 -51.577328 -5.481771 10.084167 85.235013 7.876291 9.967953 -15.770439 1.228599 -1.013886 0.070446 -9.201102 2.377791 -59.289903 3.130914 -12.996893 58.491030 -3.430283 -7.431467 -3.120391 1.470557 0.712308 -2.272710 -0.952978 -3.125420 56.614850 3.740796 0.144993 -8.147456 0.733911 -2.608440 1.998202 -6.829859 -2.903453 -14.585429 3.817054 1.775118 -18.407420 -16.263444 -19.096426 3.552191 -50.993230 -13.715496 7.642011 -4.115847 -9.871068 -1.660828 22.944096 -12.176374 -9.108608 7.631015 19.584303 2.486906 34.629060 9.971204 0.420306 -2.947010 23.740865 -12.365248 -30.652095 9.137118 -13.372458 
182.366608 136.637878 -193.759506 7.645395 70.794065 7.293148 8.283962 -4.807556 -61.149037 -6.273440 11.404198 64.493533 6.488272 9.097631 -12.428464 1.767034 -1.403518 -0.313981 -5.804938 3.290901 -56.520023 3.883366 -11.019784 64.171936 -6.052312 -6.980684 -13.725118 2.082680 1.026392 -2.254902 -1.938247 0.362045 57.960142 2.339687 -0.480960 -7.496959 -0.584626 -0.939782 -0.089198 -7.991402 -1.673243 -14.125801 5.136523 -1.546079 -21.796887 -10.488648 -27.421343 -1.589186 -40.881353 -23.546269 3.760963 0.291429 -16.935495 -5.921459 27.685838 -12.141286 -10.187530 2.458520 28.465219 -0.768981 27.446831 20.643045 -5.605240 -9.024463 26.903612 -16.455815 -35.899065 9.236973 -15.923349 
185.109085 132.674591 -193.872513 4.166874 64.677651 4.508661 7.423060 -5.377761 -62.549646 -6.545821 7.490811 41.842233 3.434539 8.312823 -9.400653 2.474017 -1.770835 -0.672791 -2.033833 5.316527 -50.877758 2.779740 -8.260368 72.870251 -7.838484 -7.917500 -22.749260 2.462899 1.428309 -2.560723 -1.701115 1.484374 59.627208 1.229567 -0.792316 -6.352588 -1.811996 0.496832 -1.432204 -8.272976 -0.482254 -13.947504 7.187796 -4.180842 -24.893507 -2.214430 -34.384172 -9.501282 -27.394979 -31.018606 -3.229803 8.907955 -28.080110 -14.772625 31.836046 -10.859231 -10.802168 -6.659334 36.632514 -6.828523 14.452962 26.815525 -14.509360 -10.350227 25.565480 -19.375569 -37.934209 9.628183 -13.455524 
188.257721 130.773163 -193.716324 2.320980 58.168557 4.960612 7.342852 -4.753870 -62.835962 -5.093714 6.185617 32.005748 1.038050 9.022121 -4.363389 2.463154 -1.934186 -0.877477 2.341727 6.060915 -45.370166 2.488831 -6.036984 80.467155 -8.488309 -9.001220 -29.810959 2.746814 1.559357 -2.849019 -1.519254 1.916023 59.006688 0.371342 -0.401109 -6.154319 -2.703562 1.590305 -1.832365 -8.116843 2.253284 -15.348203 7.674856 -6.200875 -25.481279 9.179591 -36.051466 -18.647052 -12.451806 -31.482417 -10.611658 18.159916 -38.443220 -23.549125 34.378106 -11.855633 -7.796081 -17.577191 39.891125 -14.543356 0.796497 26.366666 -22.447007 -13.173361 30.844199 -22.850661 -38.796137 10.784331 -11.273002 
191.154984 130.524048 -193.101883 0.537792 51.847248 8.510924 8.150789 -4.699996 -67.231421 -4.867704 8.541146 37.060031 1.966356 10.710241 -3.670851 2.069397 -1.556516 -1.056584 4.904484 5.502190 -41.547541 4.779271 -4.353365 83.496150 -7.870214 -9.463906 -35.771854 2.716975 1.028598 -3.232529 -1.292802 3.387718 56.234112 -0.052962 -0.629336 -8.766313 -3.143336 2.246514 -1.159132 -7.697741 4.654684 -17.419534 8.311653 -7.221478 -23.133856 21.277941 -34.082764 -26.849258 4.105322 -29.779872 -18.824974 22.508274 -40.074400 -32.396537 33.933070 -11.741215 -8.132039 -26.238600 39.572056 -21.267582 -10.911012 24.349496 -27.652035 -14.032774 33.345780 -25.834673 -35.403831 10.183178 -12.329640 
193.655594 133.342804 -192.078217 -0.484537 47.360988 12.404949 8.809835 -4.816569 -68.306295 -4.570924 10.699769 44.362593 4.881645 12.627179 -8.234922 1.799645 -1.429182 -1.238117 5.704814 3.366227 -33.304426 6.927066 -1.720490 76.170960 -6.331549 -9.044697 -33.578572 3.127820 0.827631 -3.629609 -1.821632 5.580458 51.559498 0.530828 -1.158990 -10.252438 -3.260286 2.136668 -1.681509 -6.981317 5.772179 -17.249510 8.645374 -7.078257 -20.720840 26.682330 -30.848049 -28.888797 15.245205 -26.555727 -23.220353 18.367220 -38.176673 -33.304201 32.949781 -12.423406 -9.301522 -28.108912 37.534240 -22.849779 -15.998857 23.536759 -28.729666 -13.461813 34.559523 -26.360357 -32.763471 10.834834 -13.748013 
196.248672 138.886902 -190.936829 -1.789092 43.690566 15.299996 8.295298 -4.813734 -62.284081 -3.560997 9.043718 39.148247 5.758228 11.935369 -7.355582 1.700772 -1.521030 -1.275636 5.538519 1.170737 -22.867791 8.023340 2.641490 58.949278 -3.948272 -6.354613 -20.396575 3.655992 0.923960 -3.620194 -2.001657 6.962720 45.112211 0.605763 -0.743098 -10.290984 -3.034908 1.955631 -1.303831 -6.135776 5.491344 -15.902696 8.546325 -8.518072 -18.355391 25.757613 -28.262306 -26.105069 16.191215 -25.452257 -22.093101 12.929540 -39.161217 -27.073824 35.066369 -14.194222 -8.502680 -24.583297 35.063952 -20.052043 -12.636029 24.495555 -24.977698 -10.858165 36.635479 -21.079034 -35.064800 11.629052 -13.077089 
199.255341 145.402832 -189.118622 -4.668694 41.272765 14.642249 6.535776 -4.993701 -49.592115 -1.091261 6.872748 22.866614 5.370430 11.721357 3.739721 1.098338 -1.824886 -1.209606 3.900371 -1.183333 -13.579090 4.915718 6.246383 32.974832 1.708456 -1.086284 1.926841 3.354368 1.969715 -2.920129 -2.296390 8.532821 37.861821 1.720821 0.261506 -6.428049 -0.982859 1.660396 -1.207297 -6.371098 5.851192 -10.901922 7.747607 -11.363854 -17.132627 20.312316 -23.872433 -19.293085 6.432260 -26.414073 -19.152752 3.251789 -42.647490 -8.695094 36.041143 -19.193819 0.015920 -11.420568 28.903805 -10.060796 10.639109 23.268845 -7.698327 2.454643 39.373448 5.474885 -34.196712 14.223878 -3.352883 
201.523209 150.791336 -188.324600 -4.358497 39.531765 20.609059 5.261045 -2.349516 -38.793455 1.341781 7.657639 7.036170 0.386467 9.414792 16.217058 0.311964 -0.916741 -1.038138 2.693982 -3.546174 -12.322676 3.442985 5.409074 20.174687 8.518793 -0.851166 18.609293 2.605828 0.766442 -2.298670 0.346605 6.415132 35.160601 -1.290665 1.040722 -7.130431 -1.158042 2.855410 -0.525305 -5.895227 0.138891 -8.389510 8.638144 -7.488913 -14.372083 16.598805 -25.638813 -17.364274 -1.341016 -28.621346 -13.042378 6.158806 -47.865230 -9.397885 40.100382 -18.843430 -3.399215 -16.214506 30.575129 -10.571567 3.366688 26.457590 -16.058237 -5.095072 37.999523 -9.686618 -39.292709 13.888544 -5.921167 
202.999191 155.913483 -187.703171 -5.343997 40.265820 23.961197 5.201869 -1.863878 -35.485061 1.668929 6.731669 5.254023 -0.570127 8.224131 19.122504 0.163203 -1.002462 -1.026512 0.804933 -3.624095 -18.728116 4.405941 0.927195 27.699554 8.726237 -0.297931 20.166173 2.308318 0.992638 -2.315176 0.862182 4.856955 36.210010 -1.327392 1.655789 -6.600327 -1.265374 2.749798 -0.917765 -5.575567 -0.886618 -6.551907 7.986998 -5.954417 -13.612250 13.049111 -23.948513 -14.527911 -12.398421 -28.649974 -7.594516 7.122369 -51.800684 -6.155821 44.986970 -19.876493 -3.156675 -15.352112 28.791112 -9.212530 9.546656 27.898831 -13.848784 -7.911862 41.244432 -9.937040 -42.072785 15.164850 -5.026938 
203.920395 159.673355 -187.664856 -5.074533 42.361865 26.479774 5.283872 -2.682623 -36.291625 -0.088306 4.422769 11.908156 0.732755 7.068342 16.238406 0.349960 -1.162106 -1.042854 -2.623444 -3.007090 -30.105176 5.218950 -5.229685 48.824880 5.742521 0.378029 15.245752 2.732677 1.335048 -2.574148 0.694200 3.058792 40.275469 -0.404431 2.303819 -6.040810 -2.244810 2.245418 -2.209222 -5.616109 -0.865870 -6.399988 7.178459 -5.256186 -14.905180 11.158737 -24.818763 -13.806190 -16.722266 -27.755724 -5.521808 8.138786 -52.765243 -6.534261 45.142177 -19.823312 -1.244926 -13.907067 28.920264 -8.400113 13.418410 27.598600 -12.008026 -8.721065 44.033319 -9.295915 -42.754728 15.176831 -3.988895 
204.288086 162.463760 -187.937851 -3.408304 43.403394 26.756386 5.292326 -4.170825 -42.655783 -3.653578 4.259682 33.029847 3.439286 6.429882 13.035427 0.733216 -1.312634 -0.889993 -5.565295 -2.835045 -46.663600 2.522877 -12.114190 81.305786 2.683101 0.916575 12.656589 2.739771 1.923902 -3.272408 -0.674643 1.655305 47.335522 0.399704 2.431676 -6.456586 -3.228423 1.405629 -2.650146 -5.671792 -0.624446 -7.800718 7.593032 -2.895060 -17.016660 10.561624 -27.299373 -14.110660 -18.189957 -25.662928 -3.954622 8.714603 -50.982239 -8.495578 42.800968 -16.430359 -1.604505 -12.534357 30.126184 -7.992615 16.216051 25.553027 -10.464285 -8.809956 46.696079 -9.018117 -40.012786 13.077908 -4.951034 
203.321701 164.081039 -189.298218 -2.118048 44.951078 25.620158 7.031742 -4.963483 -53.536030 -6.547127 8.257780 61.453635 6.071392 6.771544 7.635727 0.934177 -1.182581 -0.333228 -7.503104 -2.751382 -62.729759 -0.066576 -17.438277 106.920992 1.516926 1.912351 12.624896 2.422707 2.082403 -3.458750 -2.387251 0.956834 55.327725 1.128341 2.023710 -8.023581 -3.299245 0.249885 -2.114306 -6.125697 -1.156672 -10.195849 7.794637 -0.901482 -18.101562 10.863218 -30.528533 -14.618053 -18.934454 -24.292613 -3.734047 6.574342 -45.754387 -7.336855 38.518667 -13.696078 -2.357774 -12.019095 30.828419 -8.199504 18.562052 22.754832 -8.703029 -7.484248 48.703082 -6.793257 -34.389651 10.055080 -10.208492 
201.360397 164.148773 -191.510712 -0.274783 46.118804 25.599354 10.107427 -3.664617 -65.447485 -6.180089 15.189019 90.225119 6.487515 7.534489 3.340755 1.136227 -1.053808 0.196012 -8.841405 -3.360879 -74.084388 -3.237406 -20.944602 124.319307 -0.357813 2.660326 11.827061 2.096849 2.125580 -3.166160 -3.792805 0.254154 62.293365 1.063314 1.513324 -10.084195 -3.185027 -0.787104 -1.114511 -5.858033 -0.711420 -12.945226 7.608182 0.127995 -18.717743 9.465570 -33.773783 -13.184008 -20.413108 -24.232706 -3.904615 1.539567 -37.765872 -4.402040 35.022268 -11.679385 -3.200940 -12.158815 30.965843 -8.738798 20.891769 22.171304 -7.906917 -2.725453 48.250205 -2.073098 -32.490358 8.333478 -14.206567 
198.886032 163.875092 -194.102158 0.498016 46.769670 23.919416 12.105137 -1.804392 -77.080389 -2.932994 21.910658 113.821423 5.847499 7.956764 -2.345083 1.596737 -0.901101 0.458144 -9.414023 -3.977700 -83.183419 -6.306706 -24.062037 135.675069 -2.098140 2.340339 7.277877 1.490180 2.077105 -2.519217 -4.073612 -0.331725 68.409326 0.607361 1.119505 -11.837632 -3.085439 -1.218974 0.422357 -6.344019 0.004530 -15.353336 7.102669 1.421062 -18.655915 8.556118 -36.179925 -12.711961 -20.478301 -23.234590 -3.825340 -1.254779 -34.557302 -3.083633 34.209614 -11.293023 -4.112040 -12.934682 32.060027 -9.835566 21.559591 21.549676 -7.777820 1.207033 46.974695 1.232579 -32.638002 8.000405 -16.934991 
196.350861 163.939041 -196.817108 1.568316 46.377776 20.991320 13.996648 0.211072 -86.540229 1.827439 26.045139 129.059562 5.638595 7.380248 -3.427152 1.585949 -0.667316 0.490678 -9.654648 -4.694037 -87.722674 -8.323205 -24.953316 138.633483 -3.449635 1.411892 7.753178 1.217595 1.862383 -2.335041 -3.863145 -0.231090 73.272012 0.301475 0.715524 -13.010866 -2.858686 -1.456316 2.202437 -7.379520 -0.059587 -16.004634 6.972841 2.040731 -20.451900 8.402785 -36.562160 -12.518917 -20.279889 -21.335827 -2.784205 -2.682274 -35.297933 -1.687658 33.242229 -12.334109 -5.492126 -14.037449 32.790083 -10.992005 22.678019 20.051390 -6.889265 3.676720 45.877745 4.258323 -31.627146 9.367989 -16.532952 
193.977325 164.571487 -199.254929 2.817936 45.687042 19.292626 13.896224 0.478246 -90.879148 3.143804 26.845261 131.387934 5.520346 7.367997 -4.773516 1.623058 -0.466523 0.370400 -8.801362 -3.527635 -89.111929 -8.025881 -24.377883 132.372833 -3.562739 0.430456 6.905143 1.120224 1.617238 -2.131710 -3.799233 -0.276978 75.683847 -0.075187 0.720522 -14.145901 -2.577854 -1.744821 3.427027 -7.649222 -0.674394 -15.999297 7.379095 1.770422 -20.345472 5.559513 -34.362147 -9.865022 -21.335440 -17.284326 -0.962241 -5.997700 -37.837978 3.058691 30.884198 -13.401599 -6.007907 -13.383688 31.505576 -9.818228 25.152748 17.033763 -5.486488 6.708525 47.921030 9.158473 -29.879576 10.377679 -14.362965 
191.574173 165.795715 -201.670303 1.848956 45.320284 15.754890 12.617552 -0.657881 -90.357480 1.795575 26.822208 122.081865 6.124593 7.605624 -4.708168 1.475316 -0.475020 -0.026493 -8.363427 -1.504490 -88.081537 -5.712224 -22.654847 119.105100 -3.601192 -1.491996 5.366179 0.906549 1.140736 -2.257056 -3.511021 -0.558938 75.814433 -0.083147 0.697552 -14.413638 -2.169444 -2.033201 3.949183 -7.639888 -1.070503 -15.725614 7.769959 1.776297 -20.365525 0.532187 -30.099519 -5.276413 -20.643649 -10.866035 1.634809 -10.625515 -42.546066 8.210978 24.909395 -14.057308 -6.643610 -10.098090 28.996917 -6.228264 26.099965 11.281402 -3.674596 11.472835 52.014265 13.789255 -24.631678 11.005296 -12.793802 
189.402481 167.355392 -203.811661 0.935037 45.989360 14.735792 11.544236 -1.924207 -86.967451 -2.929646 25.647734 107.099361 6.824858 7.251128 -2.393963 1.009300 -0.621204 -0.139237 -8.039443 0.466559 -85.358392 -1.455126 -20.537446 104.315976 -3.255927 -1.959382 5.967900 0.695452 1.044194 -2.532428 -3.307565 -0.424489 72.433579 -0.369226 1.112227 -13.748808 -1.398723 -1.639735 4.296006 -7.738136 -1.335463 -14.499842 9.130385 0.875895 -21.693145 -2.797386 -24.426373 -1.663876 -20.585889 -4.094578 5.598335 -16.814443 -47.081291 14.654779 19.417958 -17.363864 -6.942089 -6.282768 25.522603 -1.542638 25.607009 3.187497 -1.058361 17.794373 58.055804 20.182091 -17.643375 13.586820 -12.071449 
187.739532 168.934479 -205.666550 2.516939 45.715974 17.496451 10.823474 -2.131799 -80.636659 -7.818282 22.420913 87.276204 5.741503 5.811699 1.413134 0.488395 -0.995660 -0.509417 -6.929720 1.059820 -78.539580 2.044001 -17.739530 86.505681 -2.019781 -2.030466 6.814537 0.763258 0.983993 -2.570188 -3.143777 0.501730 67.195107 -0.250001 0.809973 -13.189016 -0.430688 -1.312404 4.398942 -7.691524 -1.997930 -14.033977 9.977184 -0.227731 -21.755254 -5.154168 -18.584507 1.855465 -17.708237 3.295218 8.711221 -24.970112 -48.468974 21.614554 15.432331 -20.454376 -8.255672 -3.626480 21.477157 2.114537 25.510063 -3.028740 1.687936 27.074098 62.599218 28.972425 -14.345050 15.786463 -12.069176 
186.465149 170.015976 -207.307495 2.828737 46.603908 19.751839 10.000190 -2.220003 -73.557136 -11.028142 17.006311 69.888707 4.974732 4.080185 3.599054 -0.133909 -1.224297 -0.435032 -5.415525 1.085673 -69.228510 4.433238 -13.194667 62.854990 -1.151416 -4.039046 8.046110 0.791058 0.687036 -2.693475 -2.327520 0.995793 60.454116 0.277954 0.099396 -11.874108 0.809058 -1.460236 4.847137 -7.698616 -2.830474 -12.810614 11.123850 -0.275935 -22.629169 -7.644570 -12.709114 5.234737 -17.792581 10.638828 11.964704 -29.487484 -45.122515 25.191941 9.780372 -22.122057 -7.526351 -1.327816 17.085601 4.870581 27.432942 -9.016442 4.805003 35.121229 65.155502 36.938813 -10.294459 16.692390 -13.243513 
185.504456 170.042191 -208.786469 4.338370 47.147286 22.272435 9.286576 -3.106289 -65.799734 -11.184713 10.979610 55.036564 3.972710 4.057417 3.726711 -0.406182 -1.312546 -0.314954 -4.433236 2.089552 -60.309226 4.282100 -7.987737 42.709870 0.990482 -6.827579 10.852999 0.339262 0.639527 -2.830577 -2.448186 1.254800 53.876184 0.696308 -0.010324 -11.243664 1.638224 -1.926950 5.394231 -6.609233 -4.696326 -10.619489 12.093409 -0.571925 -21.758972 -9.672076 -6.240681 7.901437 -21.350773 16.957763 13.330718 -28.602134 -38.414140 24.333262 5.328076 -22.314168 -7.839394 0.451428 11.656870 6.781679 30.308975 -14.220545 8.281425 43.315078 63.425313 45.421519 -6.469119 17.557436 -15.524569 
184.692520 169.291260 -210.237061 5.878499 47.103571 23.432079 7.808676 -3.330414 -56.601801 -9.322613 5.037266 41.965882 2.693032 4.650523 3.349704 -0.524789 -1.111545 0.177998 -3.709309 2.623673 -52.535975 3.562791 -3.535802 28.401052 2.954435 -8.412673 12.719546 0.543690 0.502674 -2.652985 -2.521746 0.799455 48.967830 0.643224 -0.023181 -11.486524 2.138851 -2.563031 7.281936 -5.198204 -5.409246 -8.013182 12.174792 -0.987638 -20.592772 -11.370060 -0.529199 9.867320 -23.908121 22.709505 14.443127 -28.778480 -33.389932 23.205244 4.684281 -22.303715 -10.770126 1.357578 6.335334 7.196443 32.192120 -18.522516 10.480879 49.834783 64.039442 52.764911 -7.642559 17.846287 -18.156865 
183.796173 167.720596 -211.950592 4.898120 46.319120 21.017752 6.910377 -3.272826 -47.436800 -7.226847 -0.283825 30.447426 0.736211 4.837327 4.051304 -0.895321 -0.769511 0.510186 -2.749623 3.030069 -45.763442 2.234679 -0.804268 18.209117 3.712589 -9.454935 13.410561 0.997548 0.338682 -2.427599 -2.767734 0.401732 44.664036 0.269121 -0.206842 -11.167359 2.363331 -3.240782 9.101393 -5.081498 -5.416125 -4.605742 10.907173 -0.632923 -18.380238 -12.724422 4.620134 11.385861 -27.074167 27.089988 14.785562 -29.170522 -30.007392 23.426518 5.440441 -22.408952 -13.164493 2.391149 1.681171 7.175179 32.923080 -20.384952 12.064078 55.118020 65.739410 58.650430 -10.710945 18.230981 -21.002244 
182.760986 165.623077 -213.761749 4.830368 46.083028 19.581841 6.121884 -3.626372 -41.509003 -5.834001 -3.024601 24.469022 0.649481 5.623861 1.796267 -0.876097 -0.447089 0.695449 -1.475215 3.841261 -40.776306 1.421872 0.973449 14.323607 2.439614 -9.694501 9.550278 1.779874 -0.030376 -2.087261 -2.992726 0.141110 40.449195 -0.037811 -0.414308 -11.041021 2.117302 -3.606063 9.787717 -5.822244 -3.734034 -0.670011 8.799149 0.798074 -14.731998 -13.287827 7.045495 11.606197 -32.352498 27.780787 13.575947 -28.202306 -28.399890 23.395182 6.889431 -21.796215 -16.125349 2.824473 -0.965959 6.729292 34.388088 -19.792135 13.340395 60.884722 68.515661 65.453563 -14.351415 18.663726 -23.675208 
181.718109 160.961060 -215.954117 4.349977 44.524059 19.150058 5.280782 -4.390758 -37.462456 -4.076472 -4.827956 20.125398 0.918526 6.530735 -0.030403 -0.409633 -0.322535 0.588417 -0.405778 4.985581 -38.467535 1.513115 1.888957 16.719953 0.957722 -8.183267 4.174488 2.268469 -0.137136 -2.083990 -3.498519 -0.034561 37.809469 -0.204155 -0.403085 -10.861204 1.402812 -3.536600 9.567289 -5.929955 -1.378677 1.707019 6.654399 2.108355 -10.099808 -14.927633 6.806618 10.243013 -37.553688 24.079546 12.511288 -25.731951 -28.153332 22.088049 9.335090 -20.040406 -19.386852 4.395182 -1.088509 5.023034 36.080206 -15.025891 14.917323 65.029030 71.307742 71.300546 -19.324553 19.197191 -26.103323 
180.658554 155.584274 -218.219711 4.434203 42.709625 18.432359 5.077797 -5.575962 -36.323724 -3.742080 -4.447987 22.037380 2.698954 7.868178 -6.309841 0.380726 -0.290672 0.356111 0.469466 6.467260 -38.577171 3.037338 0.518568 26.616159 -2.436915 -8.038082 -6.515367 2.427942 -0.158646 -2.241332 -3.907252 -0.141036 36.038209 0.004091 -0.369779 -9.888830 0.149592 -3.240022 8.128407 -5.576783 1.281512 3.146096 4.494999 2.421314 -4.590207 -17.550816 3.168624 7.980938 -42.899538 15.444414 12.270688 -21.151933 -28.769586 19.222598 13.174432 -17.285961 -20.941548 6.882022 1.904070 2.426296 38.767692 -6.106073 16.133284 62.092101 75.650499 70.567382 -25.305760 18.496978 -26.455050 
179.431076 149.217041 -220.580231 4.477786 40.561610 16.885500 4.651159 -6.416498 -38.877266 -4.312900 -0.783746 29.230700 5.800937 10.133237 -14.081914 1.659292 -0.791897 0.050783 0.791434 8.031599 -42.935689 3.663163 -3.677484 44.349775 -6.501570 -8.767111 -19.340167 2.494901 0.157456 -2.409543 -4.197685 -0.590120 37.172819 0.477560 -0.260331 -8.210945 -1.990728 -2.610823 6.034944 -4.734023 3.222949 4.089406 2.298728 1.148684 -2.875578 -19.825911 -4.982602 5.315494 -45.385682 0.846116 11.585322 -12.859226 -29.293977 10.262835 19.869897 -14.355524 -18.581385 8.116826 10.005294 -1.080382 42.476550 9.783269 14.536654 14.638071 76.789323 24.694618 -34.231530 16.323330 -23.992770 
178.177078 142.018494 -223.309647 4.563420 39.567862 15.810353 4.523249 -6.868049 -46.007314 -4.315656 4.746587 41.492342 7.521396 11.499552 -20.058153 2.737425 -1.427115 -0.340331 0.697041 8.878773 -48.252640 2.963089 -7.218372 63.909162 -8.220211 -8.795933 -29.534084 2.467351 0.729088 -2.348558 -3.813993 -0.923369 41.849529 0.405423 -0.913797 -8.354303 -2.880707 -1.963977 4.849124 -3.884820 4.111447 1.631290 1.397830 -0.948931 -3.442853 -17.993893 -16.675366 1.399286 -45.240633 -14.529514 10.178246 -3.970233 -29.192504 0.493397 22.835378 -11.939866 -14.914470 5.469535 20.933016 -5.788584 42.530041 26.878481 11.944180 -14.593690 64.292701 -5.250361 -34.725522 12.824587 -21.713333 
177.104767 134.490143 -226.099167 5.906667 39.641627 16.054544 4.902613 -7.616164 -58.800942 -5.391294 9.803446 59.091334 8.873860 11.224534 -23.542070 3.095405 -1.845096 -0.510682 -1.411111 7.667387 -56.990711 1.494552 -10.601868 87.728987 -9.762318 -8.745660 -33.422914 2.457901 1.414386 -2.280615 -3.822375 -0.267660 48.902678 1.164277 -0.956953 -8.166541 -3.199037 -1.100194 2.334622 -4.161975 3.774219 -1.805354 2.866303 -4.076094 -8.208278 -10.986735 -26.726557 -4.140407 -40.831868 -28.363026 7.617664 3.012721 -35.491636 -5.868285 27.288304 -10.481653 -12.022057 0.635567 28.766720 -8.480126 34.857516 35.088596 4.529983 -20.455572 54.036918 -14.079312 -34.768753 10.347097 -18.546573 
176.697617 127.490341 -228.259598 5.982497 39.845712 17.362161 6.979042 -7.700739 -69.795440 -6.372663 13.886439 72.885579 10.111676 11.527531 -27.063019 2.513327 -1.783427 -0.257778 -3.737230 6.410049 -64.861093 0.002698 -12.365348 103.296424 -11.101152 -9.416682 -34.937660 2.870478 1.382149 -2.198925 -3.416766 -0.325706 54.096547 1.852269 0.033777 -8.169829 -3.051493 -0.168274 0.630438 -4.971109 4.414033 -5.568582 3.932863 -6.826106 -13.463195 0.072735 -32.021812 -13.030813 -29.506843 -37.381769 0.408997 17.405006 -48.492759 -17.772708 27.578721 -10.673810 -9.412695 -4.611546 34.689030 -10.605885 19.891713 36.803985 -6.730086 -21.168228 46.568435 -16.849061 -31.351307 9.752108 -13.767809 
177.255875 121.799988 -229.167953 5.867640 40.450693 18.829876 7.392298 -6.598972 -78.988493 -8.277150 17.404955 84.995286 10.150656 12.863719 -29.619123 2.049010 -1.865146 -0.364983 -5.207406 4.565771 -72.018899 1.295721 -14.484344 112.926519 -11.331772 -9.559319 -34.824834 3.837562 1.441170 -2.772105 -2.599890 -0.816168 60.472975 2.378241 1.548033 -9.543281 -2.441167 0.598199 0.471255 -6.003567 4.145306 -9.619141 7.186771 -10.133266 -19.710811 14.265733 -31.316257 -22.713575 -8.647480 -35.364281 -13.804834 42.801859 -58.588348 -42.949392 27.628002 -10.887760 -6.047762 -12.460221 37.072668 -13.672210 5.686058 28.476001 -16.863659 -19.506642 43.765905 -18.741748 -26.566263 8.681325 -10.381903 
178.812073 118.781631 -228.750885 7.211866 40.841164 23.067953 6.640417 -5.482852 -83.038716 -7.744625 22.773810 93.041758 10.854247 12.483992 -33.241509 1.651327 -1.486737 -0.518877 -5.703611 2.486357 -72.668552 2.957296 -15.652666 116.488595 -11.453392 -7.954876 -36.035373 4.332950 1.078488 -2.672994 -1.560993 -1.506729 64.450356 2.155135 2.623856 -11.927061 -1.609175 0.729708 0.894957 -6.225960 1.338362 -12.530498 10.277626 -10.874673 -24.160716 20.859043 -25.455697 -25.704811 5.419630 -24.948097 -21.874848 68.621941 -60.966316 -70.485735 29.691930 -12.759748 -4.832673 -18.426461 33.971310 -15.377728 1.199801 18.869629 -18.777451 -21.068782 48.287975 -21.365928 -27.129477 9.946489 -4.218065 
181.213303 119.229507 -227.375900 10.084361 40.457510 30.084727 4.625543 -4.642991 -80.256305 -8.868857 27.123259 93.577104 12.117098 9.246050 -35.559988 1.956543 -1.388631 -0.763946 -7.167375 -0.072925 -68.769219 5.353785 -16.921252 114.284991 -10.621305 -3.478213 -32.113542 4.361889 0.960100 -2.457690 0.058650 -2.491647 62.657704 1.975026 2.663935 -11.080267 -0.990764 1.303520 0.592030 -5.720976 -1.602301 -12.843982 13.348187 -11.523848 -29.327413 17.674801 -20.198787 -19.815699 12.362349 -11.543748 -18.245264 74.313154 -63.601374 -82.364315 28.660907 -14.228410 -7.226166 -17.889676 29.231404 -12.186731 -0.746989 10.751508 -17.642246 -20.766382 54.349826 -24.774753 -33.508198 12.083613 -5.987006 
184.518356 121.492065 -224.873413 14.068371 39.511148 34.390019 4.268874 -4.008066 -77.409726 -8.335504 30.809296 97.774804 7.821910 4.446180 -22.981562 1.703512 -1.544902 -1.276350 -8.845209 -2.579193 -63.766360 5.025181 -15.993862 111.359168 -7.682607 0.446459 -20.611621 4.221820 1.037154 -2.403948 1.727735 -2.879131 61.226127 2.007433 2.223311 -9.319048 -0.592956 1.264300 -0.179988 -6.463397 -6.657452 -11.786072 13.861971 -9.273700 -32.730053 11.425830 -16.338690 -13.589279 10.887633 -3.557647 -11.628086 87.104512 -68.163120 -97.021432 28.185664 -16.718107 -10.504525 -17.129482 24.909951 -9.449982 0.256270 5.097907 -15.590606 -18.075216 57.373914 -23.997276 -34.941978 14.709171 -4.116470 
187.116287 124.123917 -221.982315 20.493731 36.493839 38.340353 5.518334 -2.789533 -74.722387 -7.347677 31.268372 99.427875 4.925825 4.449300 -10.736484 1.253074 -1.567119 -1.201477 -10.040332 -3.419231 -59.516181 3.002396 -14.364982 110.443973 -3.847699 2.374257 -1.801540 3.707406 1.221010 -2.645433 1.470303 -2.408509 58.409566 2.757671 1.138982 -6.508579 -0.544282 0.551697 -0.412339 -6.610840 -8.984539 -9.950495 12.401765 -6.624989 -34.543450 7.333025 -14.708101 -8.732211 6.108591 0.486733 -6.413838 83.851418 -74.218973 -94.748163 28.435233 -15.817047 -15.343492 -16.291133 22.748294 -7.818015 5.540100 6.085665 -13.949460 -12.238072 56.267470 -20.422054 -35.276015 13.424172 -7.047731 
188.428467 126.244202 -219.240723 24.350164 32.739762 38.276998 6.723923 -1.313547 -72.607467 -7.717295 29.547398 97.968356 4.373536 3.921504 -4.753975 0.719748 -1.336893 -1.009022 -10.892235 -3.471102 -60.892059 1.322163 -14.004002 113.652977 -2.515170 1.818397 7.858689 3.194852 1.316786 -3.026002 0.964496 -2.881126 56.641194 2.632832 0.923215 -5.542860 -0.415602 0.078224 0.284459 -7.313019 -7.824467 -8.284236 9.147883 -3.691022 -34.001496 3.435058 -13.129129 -5.174964 0.633030 3.281776 -1.152862 61.074940 -79.840850 -70.853147 28.659918 -15.538625 -18.419259 -14.913692 21.851777 -7.099012 11.383521 10.189429 -12.155932 -6.567086 52.068702 -15.754996 -36.355343 12.047674 -10.345127 
188.625122 127.048462 -217.598206 26.738776 28.404262 37.034258 8.286391 -0.813985 -68.987220 -7.919882 26.130853 94.507278 4.400021 5.732097 -2.067424 0.836781 -1.242849 -0.914554 -11.675624 -3.508069 -62.588535 0.248680 -14.736865 117.108162 -4.296144 0.302355 11.035064 3.076353 1.616578 -3.300406 -0.190488 -3.073864 54.786223 2.511885 1.076151 -4.524138 -0.775877 -0.241698 1.159694 -7.553433 -4.595499 -7.890945 5.310147 -1.959117 -32.568084 0.213122 -12.853814 -2.066731 -4.270800 4.162431 1.634242 24.693706 -80.191641 -32.961761 29.758182 -14.489697 -19.684216 -12.975803 21.737204 -7.105840 17.176416 15.494520 -10.943106 -5.617400 46.610473 -15.836930 -38.681253 9.656239 -13.236275 
188.264542 127.002853 -216.558319 26.955425 24.132996 34.338748 9.202872 -1.098767 -65.384842 -8.058723 21.999299 88.931401 4.516265 7.872252 -1.031868 0.764895 -1.203741 -0.852834 -12.222665 -3.150031 -64.300873 -0.580001 -15.005804 118.760767 -5.011358 -0.549678 11.799359 2.979507 1.790157 -3.458499 -1.140846 -3.369021 53.702481 2.511882 1.599650 -4.190946 -0.904871 -0.146314 1.810804 -8.742544 -0.641431 -8.810422 2.054182 -0.603275 -30.910558 -2.004174 -12.525681 -0.287989 -8.379539 4.417997 3.800446 0.666650 -77.720261 -6.847047 30.672637 -14.739857 -20.710854 -11.053716 22.245084 -7.852843 22.594262 19.921904 -9.040232 -7.512669 40.284175 -18.667150 -40.216821 8.984284 -13.056186 
187.396500 126.417007 -215.674271 25.686741 21.565032 30.835594 8.877021 -1.962091 -61.367322 -9.058853 18.826473 82.613034 4.478764 8.627561 -1.027504 0.828649 -1.278432 -0.674376 -12.882297 -3.074210 -66.179322 -0.936171 -15.249363 117.071375 -5.307566 -0.780941 11.380528 2.537537 1.955835 -3.407266 -1.514557 -4.130230 52.964110 2.224806 2.070824 -4.587516 -0.739776 0.116677 2.621173 -10.587062 1.575171 -9.637076 -0.243404 0.545541 -31.711787 -4.214822 -11.356648 1.734178 -11.949194 5.963961 7.375136 -17.512497 -74.946304 13.668538 30.502128 -16.126418 -19.162629 -8.297521 22.130183 -6.825162 26.357615 21.561306 -6.660508 -7.104729 36.949273 -18.634786 -37.800717 9.868781 -10.487137 
186.457031 125.305283 -215.161636 24.067235 20.320759 26.703444 7.179640 -3.225092 -57.268065 -10.610547 16.169598 73.841624 3.814645 8.432933 -1.484548 0.820896 -1.422327 -0.632650 -12.423491 -1.987519 -65.618860 -0.529422 -13.467913 107.870683 -5.843406 -2.098970 10.609698 2.524695 2.081731 -3.450278 -1.250022 -4.866894 52.189779 2.270406 2.293019 -4.833056 -0.294543 -0.082074 3.234920 -12.722997 4.145815 -10.716748 -2.528804 2.958154 -32.007449 -5.839414 -9.018717 3.258592 -16.764009 8.625890 11.781136 -31.813021 -71.417317 30.718492 29.558078 -17.841300 -18.111299 -6.079052 20.322331 -6.145557 31.455259 19.655945 -2.422672 -6.619082 37.454289 -17.427838 -34.670965 10.089538 -8.909887 
185.893799 123.083725 -215.126266 21.755039 19.090410 21.900066 5.009981 -4.507219 -52.169834 -11.910121 12.448281 64.470429 3.391720 7.616006 -2.173910 0.950584 -1.589117 -0.631924 -11.843278 -0.574443 -63.007812 0.678741 -11.180880 92.367549 -5.189750 -4.437730 8.150910 2.387937 2.149161 -3.364126 -0.414783 -5.617306 51.933144 2.142624 2.005271 -4.834485 0.307518 -0.288854 3.970484 -14.939875 6.411126 -12.352398 -4.555295 6.234982 -32.245762 -7.932357 -7.079596 5.039473 -23.141453 12.354353 15.986652 -39.343834 -64.468128 40.629280 26.133107 -19.543727 -16.461061 -4.406674 18.194350 -5.015550 35.843525 15.581034 0.890317 -5.664691 40.752091 -15.713759 -29.511798 10.432441 -9.265119 
186.070969 119.530624 -215.425980 18.635914 19.579864 15.216649 3.117774 -5.170851 -46.475638 -12.143105 8.788702 56.065126 2.568387 6.150705 -1.886697 0.724872 -1.725686 -0.539881 -11.614081 0.040899 -58.094327 1.354251 -8.431615 68.315186 -2.231317 -6.386265 8.500731 2.188333 1.953786 -3.035247 0.855407 -6.069535 50.676553 2.212436 1.245031 -4.033343 0.995508 -0.605374 4.587199 -16.932952 8.149180 -13.851532 -6.146997 9.961714 -33.185264 -10.471622 -5.349256 6.292313 -31.843907 15.916692 19.058895 -40.276809 -55.458839 44.280906 21.322617 -20.183788 -14.493357 -1.342595 14.515505 -1.764044 39.542873 8.618613 4.547870 -1.887141 42.638469 -11.099990 -24.731083 10.689354 -9.951528 
186.689957 114.645309 -215.840393 15.558230 18.323063 10.401748 1.966957 -5.625522 -42.258372 -11.844603 6.369797 52.043170 2.686421 6.833456 -4.677245 0.567792 -1.719789 -0.381963 -10.786133 0.155962 -52.451959 2.098877 -6.288512 49.408457 -0.082980 -7.421782 7.509359 1.970947 1.690328 -2.917231 1.161863 -5.591682 49.378241 1.837371 0.537908 -3.415552 1.194227 -0.843278 5.208318 -17.417664 9.693410 -15.079771 -7.459408 13.339133 -34.092731 -12.241251 -3.783578 6.134982 -38.690716 17.033615 19.888313 -38.579996 -50.261196 43.887695 21.896984 -20.548524 -13.841729 0.947060 10.151494 0.002920 43.895062 1.278620 7.977102 1.274777 45.413444 -7.742785 -23.791249 10.953355 -12.411312 
187.337112 108.936676 -216.706665 12.231655 16.248630 6.496560 1.478697 -5.778247 -40.486107 -11.518159 4.898296 53.274413 3.346966 7.907186 -9.120108 0.885193 -1.699696 -0.571309 -9.370594 1.130891 -49.468617 2.778360 -4.789284 43.107634 -0.103913 -6.932773 2.743017 2.143598 1.548283 -2.744472 0.834855 -5.457325 48.033117 1.266794 0.015952 -2.685755 0.900335 -1.099128 5.211287 -16.624937 10.323202 -15.606979 -7.573340 14.575465 -33.828555 -13.469395 -2.655648 5.623281 -44.560410 16.015979 18.489527 -33.514281 -45.583881 39.739877 22.010253 -19.660831 -11.835032 1.489559 6.724045 1.031901 48.071739 -4.914251 10.484640 6.669028 49.516964 0.116827 -23.359574 11.489258 -14.367639 
187.773727 102.790634 -217.979462 8.914302 14.755198 0.342382 0.198311 -6.313467 -37.612845 -11.586907 2.353736 55.994378 5.264014 9.220713 -16.899242 1.163956 -1.662657 -0.663214 -8.059446 2.790373 -45.112787 3.043600 0.073599 32.877053 0.638500 -6.618505 -0.656851 2.011064 1.275080 -2.406289 0.076482 -5.283036 46.427687 0.808138 -0.881281 -2.461303 0.114922 -1.758305 5.338305 -15.689612 10.052232 -16.390274 -7.360268 15.455743 -33.859964 -13.561268 -3.976386 3.759162 -47.332584 11.807134 17.836510 -28.649792 -40.421262 35.566528 22.683523 -19.965145 -10.087124 1.947863 4.119886 0.900754 50.374893 -10.046970 13.480362 11.955397 51.858347 8.238369 -24.436963 12.308573 -17.327792 
187.689575 97.173241 -216.942032 6.212199 12.710625 -1.665365 0.168407 -6.147688 -36.408607 -10.659165 2.427729 61.435882 7.439835 13.234748 -26.847056 1.740004 -1.595062 -0.468927 -5.688989 4.201313 -45.467051 3.596949 -0.582318 37.362891 -3.266626 -7.830207 -11.474094 2.730197 1.411861 -2.454679 -0.830101 -5.542447 44.721835 0.205248 -0.947075 -1.324150 -1.530207 -2.025454 4.604290 -14.324325 10.844968 -16.604286 -6.724662 12.916789 -34.451829 -13.499597 -6.608518 2.089091 -47.444222 6.535139 17.753443 -22.033685 -36.871087 29.246287 27.854622 -21.438492 -9.699098 2.613987 4.134895 0.275649 51.734697 -11.886939 15.758500 16.338638 52.047182 17.185627 -31.577486 13.044938 -20.057591 
187.498688 93.209747 -216.145447 4.058928 11.586054 -2.130386 1.045218 -6.093166 -37.208379 -10.240262 3.811714 69.276870 8.429762 16.424239 -33.031365 2.036933 -1.804602 -0.290123 -4.499853 4.851160 -48.614724 3.530204 -4.365265 58.057445 -6.877921 -9.607953 -18.840768 3.264690 2.035178 -2.637032 -1.468683 -5.949624 43.272565 -0.530031 -0.288105 -1.561165 -2.619719 -1.931656 4.588573 -12.560301 12.473176 -16.763617 -4.932704 9.629398 -33.468468 -13.097812 -9.125839 1.169137 -48.367687 1.665299 17.272092 -15.010990 -32.828069 22.072724 29.515243 -22.338222 -8.479784 3.112775 5.472459 -0.542131 52.744459 -11.718477 16.585363 16.858530 49.845874 21.661508 -33.462931 13.918660 -20.877530 
