HIERARCHY
ROOT Hips
{
	OFFSET 2.576167 -0.233062 -4.240913
	CHANNELS 6 Xposition Yposition Zposition Zrotation Yrotation Xrotation 
	JOINT Spine
	{
		OFFSET 0.000000 0.000000 0.000000
		CHANNELS 3 Zrotation Yrotation Xrotation
		JOINT Spine1
		{
			OFFSET 0.193400 0.000000 0.000000
			CHANNELS 3 Zrotation Yrotation Xrotation
			JOINT Neck
			{
				OFFSET 0.193400 0.000000 0.000000
				CHANNELS 3 Zrotation Yrotation Xrotation
				JOINT Head
				{
					OFFSET 0.000000 0.000000 0.000000
					CHANNELS 3 Zrotation Yrotation Xrotation
					End Site
					{
						OFFSET 0.000000 0.000000 0.000000
					}
				}
			}
			JOINT LeftShoulder
			{
				OFFSET 0.193400 0.000000 0.142000
				CHANNELS 3 Zrotation Yrotation Xrotation
				JOINT LeftArm
				{
					OFFSET 0.000000 0.000000 0.000000
					CHANNELS 3 Zrotation Yrotation Xrotation
					JOINT LeftForeArm
					{
						OFFSET 0.213000 0.000000 0.000000
						CHANNELS 3 Zrotation Yrotation Xrotation
						JOINT LeftHand
						{
							OFFSET 0.213000 0.000000 0.000000
							CHANNELS 3 Zrotation Yrotation Xrotation
							End Site
							{
								OFFSET 0.000000 0.000000 0.000000
							}
						}
					}
				}
			}
			JOINT RightShoulder
			{
				OFFSET 0.193400 0.000000 -0.142000
				CHANNELS 3 Zrotation Yrotation Xrotation
				JOINT RightArm
				{
					OFFSET 0.000000 0.000000 0.000000
					CHANNELS 3 Zrotation Yrotation Xrotation
					JOINT RightForeArm
					{
						OFFSET 0.213000 0.000000 0.000000
						CHANNELS 3 Zrotation Yrotation Xrotation
						JOINT RightHand
						{
							OFFSET 0.213000 0.000000 0.000000
							CHANNELS 3 Zrotation Yrotation Xrotation
							End Site
							{
								OFFSET 0.000000 0.000000 0.000000
							}
						}
					}
				}
			}
		}
	}
	JOINT LeftUpLeg
	{
		OFFSET 0.000000 0.000000 0.142000
		CHANNELS 3 Zrotation Yrotation Xrotation
		JOINT LeftLeg
		{
			OFFSET 0.213000 0.000000 0.000000
			CHANNELS 3 Zrotation Yrotation Xrotation
			JOINT LeftFoot
			{
				OFFSET 0.213000 0.000000 0.000000
				CHANNELS 3 Zrotation Yrotation Xrotation
				End Site
				{
					OFFSET 0.000000 0.000000 0.000000
				}
			}
		}
	}
	JOINT RightUpLeg
	{
		OFFSET 0.000000 0.000000 -0.142000
		CHANNELS 3 Zrotation Yrotation Xrotation
		JOINT RightLeg
		{
			OFFSET 0.213000 0.000000 0.000000
			CHANNELS 3 Zrotation Yrotation Xrotation
			JOINT RightFoot
			{
				OFFSET 0.213000 0.000000 0.000000
				CHANNELS 3 Zrotation Yrotation Xrotation
				End Site
				{
					OFFSET 0.000000 0.000000 0.000000
				}
			}
		}
	}
	JOINT Tail
	{
		OFFSET 0.000000 0.000000 0.000000
		CHANNELS 3 Zrotation Yrotation Xrotation
		JOINT Tail1
		{
			OFFSET 0.000000 0.000000 0.000000
			CHANNELS 3 Zrotation Yrotation Xrotation
			End Site
			{
				OFFSET 0.000000 0.000000 0.000000
			}
		}
	}
}
MOTION
Frames: 7132
Frame Time: 0.033333
2.576167 -0.233062 -4.240913 7.480541 31.169519 21.635107 -173.301590 -2.229603 9.266262 -8.792860 0.147384 2.482851 -88.001823 24.649666 -27.987574 105.303528 -42.933846 51.054806 55.963253 -17.392052 -132.045181 -90.063774 -40.517128 -143.779297 -107.580688 8.217017 -3.275691 17.870495 -16.184294 -0.629218 22.143717 36.099304 -78.878281 91.661835 -73.746346 -63.999512 -85.035492 -0.047973 -4.593403 5.178782 3.802027 2.816511 -123.554047 -16.419655 2.744643 64.711533 13.744632 12.256976 48.741783 22.891876 6.714133 -122.339432 -0.898295 -11.705281 65.305702 -25.394644 8.986327 67.130905 -23.822666 -15.312691 -10.222126 19.352440 -26.654106 -20.838091 -45.838493 -13.410403
2.525071 -0.233699 -4.206291 9.767770 38.031235 20.370987 -178.259995 2.116995 9.275953 -4.872498 -0.937120 3.113710 -90.390793 25.399883 -30.586418 99.799721 -44.341614 55.119717 54.620201 -17.077211 -133.768463 -88.961136 -40.806492 -144.367615 -109.243416 8.448141 -10.772228 22.599628 -15.501620 -1.867121 22.313429 35.903313 -81.162773 0.633227 -81.123886 39.539974 -78.673622 -10.622368 -23.269356 -2.531779 19.777554 1.706528 -115.822762 -12.892615 1.759583 62.573380 16.235413 14.205760 47.714901 18.545286 5.536016 -118.565140 -1.366389 -19.444199 66.439522 -25.124640 6.063684 69.237686 -24.221704 -14.356918 -16.548059 19.299202 -26.668091 -17.839069 -41.896984 -21.940908
2.471429 -0.232797 -4.164586 13.243816 46.151337 20.290287 176.098434 6.136563 8.660527 0.971807 -1.970223 3.850820 -94.352180 26.106314 -34.064651 92.467323 -45.422047 60.382496 52.150600 -16.906881 -134.890320 -87.954552 -38.710514 -146.993942 -107.994225 10.418132 -13.655693 20.430313 -17.208376 -2.134471 24.056429 37.235451 -80.774223 -22.967291 -70.100723 64.960159 -68.172836 -11.397758 -43.930630 -7.391739 24.880951 0.563357 -109.961624 -10.557493 -0.245468 60.126316 17.930500 14.436439 53.020611 12.374549 5.083278 -116.630119 -1.625964 -28.342302 78.335419 -25.738995 1.627195 62.972805 -25.727327 -12.416288 -22.898636 17.576305 -27.462873 -14.270085 -34.620037 -32.870659
2.415392 -0.228776 -4.109993 18.307140 54.728870 22.898878 171.308136 10.417480 8.228451 7.631137 -3.206168 4.732579 -98.689117 26.686123 -37.712891 83.012199 -46.140881 67.501747 49.217434 -16.551193 -134.948074 -87.973061 -36.918522 -148.850525 -105.338997 13.393112 -9.544995 12.410081 -18.853504 -1.884910 26.222469 38.643826 -78.711029 -17.693413 -65.284821 54.316708 -61.453129 -3.960624 -59.106705 -7.143126 25.068394 0.738312 -109.197060 -9.373233 -0.748071 61.028938 18.561886 14.052210 62.611950 6.753895 4.909913 -118.544975 -2.141968 -31.459181 94.147041 -26.504238 -2.305142 52.986286 -28.586281 -11.019132 -25.725212 15.515306 -28.679205 -11.762427 -24.333513 -42.954247
2.359250 -0.224226 -4.041461 22.889923 60.183025 27.162844 168.684402 13.915861 8.117147 13.651433 -4.053370 6.185329 -102.146088 27.351532 -40.583412 72.649406 -46.177563 75.767090 47.175739 -15.870763 -134.993774 -91.778717 -35.721107 -149.060104 -101.439873 15.583750 1.594025 -0.180808 -15.689922 -2.030587 29.044125 39.868992 -75.128906 3.013710 -64.910553 22.396566 -62.189182 5.017104 -66.834969 -3.709733 22.471872 1.567530 -112.981339 -9.981150 -0.032694 67.238663 17.208673 13.785417 68.571861 3.670841 5.015920 -124.513725 -3.520179 -29.680237 110.845665 -26.310122 -4.985805 45.892735 -32.066437 -11.323989 -24.945377 15.936887 -30.726145 -11.341110 -13.473729 -48.749527
2.305188 -0.215013 -3.967968 24.446215 62.290230 30.243990 169.065491 16.418343 8.470387 18.056055 -5.220164 7.665227 -103.888794 28.473915 -42.415550 63.351387 -45.547413 83.292412 46.247356 -15.108669 -135.488663 -93.887383 -35.102188 -149.317032 -89.974701 14.584619 16.600962 -11.143614 -9.645803 -3.251717 33.243645 42.007015 -69.678543 26.302439 -61.531284 -14.079616 -64.760048 11.888330 -65.271736 -2.006417 22.216246 1.535776 -119.084221 -12.739998 -1.158517 80.283073 12.863526 12.736184 65.357758 4.133518 5.917892 -128.825714 -3.707227 -27.823925 118.744812 -26.552477 -4.460832 46.126579 -33.247391 -12.668983 -20.880133 19.357531 -31.902220 -12.212280 -4.722870 -49.867069
2.253106 -0.208553 -3.896587 21.774961 62.870056 29.881632 171.256241 17.535501 9.282529 19.548969 -6.670838 8.990993 -103.958031 29.831833 -43.436749 56.374161 -44.403385 88.786644 46.581333 -14.007443 -136.912125 -94.285759 -35.345356 -147.963379 -72.770515 7.461859 27.765736 -15.107203 -6.886260 -4.076479 39.327942 44.851906 -62.247028 43.021626 -56.928108 -41.006718 -67.232285 16.119482 -55.996193 -4.734332 21.681913 0.822455 -127.325989 -14.472363 -2.447683 100.066154 5.579361 11.436863 54.341221 7.128129 6.697258 -123.588318 -1.598343 -27.423910 109.904396 -26.962820 0.151977 51.420197 -30.687653 -13.464236 -14.847403 24.860792 -30.554703 -12.949302 -0.465137 -48.724731
2.203788 -0.210502 -3.829829 16.137804 62.308403 25.059349 174.601807 16.502754 9.883572 17.533562 -7.299449 9.727168 -102.674110 31.731709 -43.632835 53.476658 -43.974483 90.987175 48.417271 -12.355762 -139.185623 -94.605896 -36.579262 -146.465973 -58.274193 3.872736 30.423555 -13.081305 -7.620350 -4.087596 43.251392 47.474075 -57.691093 54.642956 -51.479958 -59.108250 -69.446625 16.077559 -40.825409 -11.114877 15.171576 0.625040 -134.246490 -15.758391 -4.166640 112.559990 -2.230699 7.977476 38.602520 11.385394 6.804493 -110.791542 0.093454 -31.938271 89.437469 -25.574610 6.604924 56.146790 -26.465525 -13.724305 -10.656344 29.996952 -28.131626 -12.992571 -2.363707 -45.025532
2.155275 -0.211689 -3.769719 10.586960 60.294701 18.704683 178.514877 13.106842 9.736630 12.537232 -6.662673 9.515639 -100.249504 34.086552 -43.367199 54.331917 -44.497456 89.762627 51.204033 -10.878488 -141.339981 -93.988716 -38.842884 -146.527786 -53.868057 8.397346 27.514139 -6.571527 -10.980621 -4.408201 42.428211 49.932678 -59.278404 63.793873 -46.312454 -70.533470 -75.241577 13.331830 -23.081448 -17.727552 6.986600 1.752910 -138.561234 -17.329727 -6.715041 112.695572 -5.720485 7.963301 28.240675 14.994808 6.945176 -97.933899 -0.685453 -40.612350 71.094749 -23.962639 9.466575 61.162502 -22.140617 -13.912552 -8.887289 33.802071 -26.018805 -11.875677 -9.038193 -40.342422
2.102174 -0.214688 -3.710997 4.733986 57.144039 10.315258 -177.668671 8.249186 8.958232 5.415738 -5.341829 8.246556 -97.712387 36.617359 -43.358498 57.009674 -45.343727 86.006813 53.964714 -11.512726 -142.032745 -93.123077 -42.449127 -145.656967 -70.805878 16.196304 13.330194 6.232718 -15.767084 -5.502995 38.089161 52.452694 -65.612976 74.633331 -43.973923 -77.841568 -85.436111 11.878715 -9.041144 -17.158611 0.827794 3.775211 -138.758209 -19.647984 -8.446872 100.651291 -1.832806 15.393099 32.748581 18.806190 9.810510 -90.186287 -1.993832 -47.236565 68.202438 -25.487799 6.205027 61.393051 -19.609465 -13.408391 -6.600309 38.721416 -22.868788 -9.185927 -17.556149 -36.868240
2.049000 -0.218318 -3.649565 1.016863 52.648285 3.081013 -174.526718 3.165184 8.527153 -2.191865 -4.009918 6.389079 -95.939926 39.346199 -43.795280 60.931915 -46.183739 80.237114 53.206383 -14.179543 -139.988815 -92.028023 -47.729286 -143.923996 -104.681747 11.052273 -13.658426 17.669132 -21.807917 -6.427247 31.242155 53.873627 -73.633331 87.169106 -46.536938 -77.700279 -95.993011 11.979868 -3.117428 -6.795581 -4.651227 5.473695 -134.330429 -22.160900 -10.666968 82.826904 7.393501 22.308887 47.062309 21.652412 15.358768 -89.823090 -4.587163 -50.821148 81.722694 -27.441607 0.977823 52.508202 -20.935690 -12.876487 -1.638370 45.901917 -17.712811 -5.502367 -26.801666 -33.150650
1.997278 -0.220279 -3.585168 1.477832 46.914024 2.340189 -172.104782 -0.846755 8.850194 -8.875751 -3.719152 4.720222 -95.463631 41.540909 -44.900440 63.339798 -46.304314 74.663719 45.565060 -16.337074 -136.195297 -87.899155 -53.379269 -144.233612 -116.987320 -8.683857 -32.852551 20.569536 -29.427046 -6.130281 25.793644 52.265831 -77.248749 93.408440 -59.091503 -65.913277 -99.934525 10.413074 -6.595980 6.585210 -9.742560 5.712977 -129.047424 -21.638231 -13.606752 72.265808 14.561789 25.636093 61.725510 21.832346 20.350925 -89.822556 -7.803412 -51.304951 99.169205 -26.108650 -1.113321 37.778969 -25.824440 -11.334022 6.619116 55.606964 -7.274756 -1.987167 -38.000732 -27.528141
1.942336 -0.219467 -3.514743 3.119405 42.361607 5.847626 -170.545898 -3.791112 9.615335 -11.880115 -3.247512 3.533697 -96.762672 42.964199 -46.227013 62.951939 -46.359322 70.153702 33.147877 -16.454792 -131.728928 -73.556213 -56.338726 -151.892197 -105.962402 -24.174496 -48.521687 18.139029 -37.222488 -3.356959 22.060211 50.545448 -78.993073 74.566765 -76.483368 -33.673576 -95.639153 3.474269 -17.010345 17.299622 -13.825467 4.513856 -126.618118 -20.010862 -13.997776 69.525803 14.545560 25.855850 69.695534 21.789375 22.746735 -87.121185 -10.985880 -47.777103 111.187233 -23.404264 1.383289 23.725170 -30.666264 -8.025373 15.236237 66.082756 8.090226 -0.414990 -52.794888 -19.394272
1.880200 -0.211584 -3.435871 4.901410 40.767212 10.567013 -169.495590 -5.239514 9.498657 -12.509369 -3.048369 1.678602 -99.762733 43.469379 -47.051922 61.468197 -46.842754 66.244926 21.119947 -14.763022 -125.352135 -61.148746 -57.299511 -158.440811 -90.417435 -30.683483 -54.660690 9.779884 -41.189377 2.538440 22.302626 47.554966 -76.967308 32.270741 -82.566093 7.969057 -82.867111 5.894547 -29.257288 17.662157 -16.497885 4.131872 -128.190231 -18.765190 -11.988558 74.781105 6.659758 23.413343 65.720520 22.764999 21.236090 -90.834335 -15.856601 -40.023098 115.384102 -24.026409 7.510622 21.626471 -35.402649 -7.384937 11.419064 76.579643 11.948643 -5.093356 -70.296074 -7.139512
1.805225 -0.201669 -3.346946 6.456506 38.619423 14.238155 -168.239075 -6.025709 8.787248 -12.366362 -2.773568 -0.316205 -103.769447 43.038158 -47.383686 58.950600 -47.847397 63.696224 14.715545 -12.616082 -120.822983 -61.941677 -58.691860 -155.127533 -77.782646 -32.522465 -51.499451 -3.563823 -35.348099 8.867073 22.958212 44.983738 -72.612961 78.984978 -83.194778 -49.245182 -64.456261 15.585568 -33.487106 6.441126 -15.898824 5.275262 -131.277985 -16.482790 -10.010325 86.319633 -4.069827 19.874525 56.025806 23.711033 17.232565 -104.326080 -17.160978 -29.235226 111.381561 -28.080505 15.199530 35.860229 -38.635838 -13.010622 -49.868095 85.100380 -42.830227 -59.690483 -83.231743 52.003517
1.724174 -0.195838 -3.250580 8.625901 37.039417 17.507648 -166.258835 -7.096670 8.359770 -12.027235 -1.719554 -1.631976 -107.804764 42.395443 -47.154270 56.754765 -49.388950 61.965137 15.056171 -10.752481 -119.622742 -75.724037 -57.984184 -142.637955 -76.048019 -27.609140 -34.688744 -21.474430 -26.527742 13.558478 23.978584 44.594673 -68.196037 108.576057 -69.085884 -98.432358 -51.691769 25.588257 -27.008060 -8.004695 -9.523508 4.693330 -133.273956 -14.159058 -8.162665 99.369881 -11.903262 14.507480 47.381012 25.112711 13.192300 -118.306137 -11.825527 -21.944189 103.705261 -33.104042 22.139906 55.598465 -36.477348 -21.051027 -115.128731 79.600372 -105.055504 -122.125801 -76.054733 116.132591
1.649184 -0.193771 -3.159269 9.855370 38.084591 19.319864 -163.423157 -9.219936 8.238559 -12.221601 0.706932 -2.853997 -111.531952 41.574028 -47.121105 55.875965 -50.623890 60.138836 20.291376 -9.356868 -120.424248 -93.699226 -52.373329 -127.354523 -81.621101 -18.674200 -12.887102 -36.231358 -20.505362 15.484620 27.379349 45.971180 -62.056404 100.825462 -49.626419 -115.383705 -43.069546 32.193439 -15.342031 -18.557892 -4.540061 2.413196 -133.726990 -10.602878 -7.774727 111.196594 -14.326385 8.772779 42.225090 26.673647 10.131229 -127.810768 -3.718124 -20.594948 94.646515 -38.695690 26.302702 66.340736 -31.761843 -25.104179 -118.596786 74.352020 -111.310501 -122.882721 -67.884605 116.114769
1.581787 -0.202555 -3.079260 8.985436 39.084469 17.394421 -159.993179 -13.050846 8.276974 -12.951911 3.225387 -3.662382 -114.379486 40.437805 -48.056274 55.689625 -50.935726 58.226166 28.388771 -8.214865 -124.127739 -102.975494 -45.067043 -123.741425 -82.338066 -6.847180 0.212950 -40.246189 -12.134098 11.792869 28.240347 47.025295 -60.988205 94.280106 -35.699211 -124.807899 -39.871082 33.206635 -3.192739 -21.224091 -10.305269 2.350187 -133.151306 -8.265380 -9.635299 110.775673 -12.496484 7.454324 41.358608 28.503017 9.259789 -134.338394 3.600354 -23.926926 86.199959 -45.269588 24.544340 65.572556 -28.675339 -25.300711 -115.201187 74.324364 -117.474251 -111.144218 -62.137306 101.770180
1.521765 -0.212977 -3.005360 5.459702 38.876541 12.391939 -157.732239 -17.429182 7.760316 -13.736726 3.143348 -3.851309 -116.351273 39.093800 -49.496143 58.211765 -49.599522 55.555782 37.806797 -6.903139 -128.797913 -102.562363 -40.674145 -130.442993 -75.602966 4.448745 8.464310 -39.020351 -2.462189 5.093386 27.543755 46.949429 -66.666847 91.042503 -30.324734 -125.231483 -46.861065 34.335476 2.112691 -18.959141 -20.866068 4.058923 -131.230316 -9.605332 -13.231881 98.737221 -8.277843 8.085461 43.414829 29.771988 10.061241 -137.194977 6.371840 -29.969475 81.012703 -51.688839 17.779987 60.845158 -28.626974 -24.206533 -82.300484 76.819702 -103.971733 -91.014175 -54.563660 78.829620
1.464292 -0.219489 -2.928610 -1.243264 36.086884 5.560725 -157.364014 -21.756760 5.321645 -15.023643 0.919475 -5.121702 -118.239540 37.893463 -51.600616 63.976765 -46.535191 51.462654 48.506401 -7.627583 -131.897156 -104.739143 -33.256336 -134.875687 -80.344353 7.303204 9.935958 -22.719406 6.263019 0.720682 24.291714 48.372517 -76.293411 100.341476 -33.094818 -118.916756 -64.401756 36.253582 -7.756902 -11.301394 -24.937943 4.220130 -124.423531 -15.516024 -18.057684 84.403061 -3.003957 10.051128 51.314182 29.262054 12.447038 -134.502167 3.956519 -35.883133 70.885239 -51.964706 11.873846 62.829082 -28.386858 -21.814631 -19.341690 66.546127 -65.782661 -68.851494 -38.412434 56.749687
1.405387 -0.231254 -2.847091 -6.644564 32.457546 -0.287195 -159.169388 -25.699099 2.137440 -15.751151 -1.653719 -6.289072 -119.981186 36.827587 -54.013638 71.189705 -42.247921 46.898678 55.832745 -8.217148 -132.597717 -111.709694 -27.937746 -137.060226 -91.438042 6.981889 2.801762 11.991125 8.259016 3.028384 20.117170 50.058704 -87.218842 120.540527 -44.406116 -108.087448 -80.473923 30.978451 -24.370064 1.241170 -20.475693 2.254526 -114.148956 -22.834492 -22.104273 74.825241 3.204622 12.265032 57.066086 28.032339 13.813537 -126.358574 0.773119 -40.686234 61.421680 -47.657303 7.271708 65.784004 -28.277857 -17.568604 10.399781 36.788715 -62.521240 -51.675350 -13.308344 42.803940
1.347392 -0.235477 -2.768321 -9.728809 31.528770 -4.984064 -162.655151 -30.123707 0.195940 -14.202769 -0.731632 -6.540682 -121.436111 35.634285 -55.901897 79.891472 -36.556728 42.321873 57.080471 -8.178795 -132.861145 -113.890823 -28.942303 -137.821060 -100.483070 3.263323 -8.059948 39.246864 -1.836114 2.532835 18.254641 50.302273 -94.621307 130.293701 -65.435333 -91.179535 -87.756073 19.836056 -41.077194 11.075250 -10.582563 1.575604 -107.724556 -23.361258 -23.966782 73.317024 6.085917 11.446448 54.146000 25.483381 11.964456 -116.457031 -0.618322 -43.098866 64.816788 -43.902443 1.772545 63.246796 -29.192141 -13.101984 27.527357 4.255506 -74.626816 -38.135773 13.635350 33.581047
1.283267 -0.238025 -2.686386 -9.871503 34.078068 -6.399533 -166.891586 -32.538666 0.177026 -11.032108 2.892159 -5.785370 -122.708549 34.295929 -57.626270 87.689331 -30.511768 38.601334 52.229122 -8.611876 -132.202255 -110.402924 -34.192368 -142.150391 -108.082092 -1.275368 -18.020233 50.785912 -7.927995 -0.332571 18.829582 49.777050 -96.640892 75.848785 -80.149635 -24.253944 -88.131432 8.937945 -58.644657 16.909332 -1.352870 1.953142 -107.387978 -21.830559 -22.631182 77.486259 5.822883 9.896110 48.273373 20.560276 9.037230 -109.446808 -1.022352 -42.358631 78.997055 -40.885017 -4.413300 57.383358 -29.205376 -9.573264 40.047909 -16.604643 -86.536186 -27.356285 36.717258 25.539888
1.207960 -0.238440 -2.595082 -7.401345 36.490421 -4.070490 -171.737564 -30.657127 1.990454 -6.906683 6.003921 -4.659922 -123.703148 32.632721 -59.065723 92.484169 -25.689676 36.755646 45.752708 -9.255829 -130.044418 -106.568481 -40.591667 -148.526978 -111.834152 -4.837599 -21.542379 43.731663 -10.880801 -1.606852 21.708521 48.926811 -92.841682 32.652691 -71.243225 19.142954 -82.517845 0.467325 -70.569099 18.125795 1.067978 1.682297 -116.575165 -21.490011 -19.540110 89.199059 3.656090 10.047447 42.866287 13.628354 5.592776 -108.770958 -1.933016 -36.903446 99.584412 -38.168709 -12.308273 48.070271 -29.775705 -8.164633 47.000393 -27.300665 -93.955544 -19.874910 55.047581 17.257757
1.128946 -0.231562 -2.493955 -2.466466 39.620121 0.566345 -175.572372 -25.578524 4.522159 -4.068402 8.051524 -2.258151 -124.641373 31.056643 -59.716476 95.903244 -22.111168 36.294174 40.752846 -9.203060 -128.270966 -106.145683 -45.844799 -151.824081 -109.126511 -7.905591 -17.655109 18.495359 -16.653692 -0.610916 24.894829 47.489731 -87.013794 33.891018 -65.211525 7.150600 -77.863480 -0.768518 -75.763504 13.132108 -1.622152 0.842060 -129.650269 -21.615973 -15.970701 101.001961 0.230049 10.315434 40.407871 5.418496 1.848190 -116.989548 -3.407960 -30.877920 117.429893 -36.257084 -18.025377 42.517639 -31.943731 -10.069602 49.027782 -31.797380 -96.850586 -16.768885 68.264160 6.882993
1.052763 -0.222354 -2.390080 4.254093 43.278851 7.719079 -176.795883 -18.810970 6.022404 -3.280223 7.996747 0.516730 -125.624245 30.086737 -59.508404 98.715492 -20.314272 36.714428 38.159760 -10.625852 -128.146896 -103.554428 -49.978901 -153.246521 -101.751068 -8.024176 -13.407747 -1.603361 -19.489882 2.726084 26.662531 47.019978 -81.964981 39.857388 -65.665985 -15.413073 -74.351143 10.849140 -69.860847 1.562057 -2.547182 0.633950 -137.409378 -22.866615 -14.505373 104.526588 -2.287555 10.210861 42.748348 1.216461 0.236437 -125.944122 -2.221999 -31.243837 121.290359 -37.292957 -18.830439 43.996208 -32.986294 -13.465830 47.872898 -31.578342 -95.285263 -22.556742 73.844627 -10.226144
0.985160 -0.210367 -2.290732 8.690888 46.496635 13.354381 -175.431412 -12.200318 6.333680 -3.923903 5.369461 2.686206 -126.253967 29.725992 -58.563622 100.865158 -20.125214 38.074753 38.160286 -13.181798 -130.042053 -104.827034 -53.166084 -150.478958 -88.215157 -6.606062 -11.237718 -6.743276 -20.428535 4.223287 29.199142 47.952015 -77.036285 64.099083 -67.328743 -57.134548 -67.481918 29.348915 -58.016060 -16.009172 -1.484252 0.982224 -138.353607 -23.851604 -15.949183 103.436264 -2.305545 10.297667 46.358109 2.670050 1.351676 -129.198380 1.107278 -37.353481 111.116615 -39.770542 -18.015459 48.401009 -31.088326 -15.493029 42.639217 -25.063513 -89.021057 -26.236313 68.886765 -22.743040
0.924026 -0.206151 -2.196385 9.726130 50.125710 14.961520 -172.573196 -6.874271 6.098066 -6.169236 1.695334 3.942612 -126.184052 29.807833 -57.037830 103.053558 -20.284351 40.465878 39.088257 -15.916876 -131.306030 -107.118347 -53.968933 -146.485870 -80.104881 -5.905212 -6.810604 -3.360402 -18.633421 2.075843 32.174477 50.533276 -73.358673 89.712685 -61.438587 -98.837051 -61.051628 44.181488 -48.156456 -27.870552 -0.852450 1.972636 -132.938614 -25.152664 -19.256393 98.267464 -2.200001 6.954334 46.156601 7.088149 4.240409 -127.080719 2.060523 -47.745564 99.126900 -42.887272 -16.663809 50.290287 -29.075792 -15.720658 30.396105 -5.332309 -75.722137 -18.208342 50.720615 -19.555977
0.864386 -0.209922 -2.109971 8.390587 53.260078 14.056391 -168.660004 -3.905980 5.697312 -9.288870 -1.349205 4.420287 -125.663399 30.078054 -55.651894 104.605560 -20.978668 43.363930 40.917645 -18.334118 -131.665634 -105.511368 -53.716927 -146.723114 -87.689186 -1.757283 -7.633440 0.827960 -16.454363 -1.305500 33.802212 54.378471 -72.163284 101.454002 -50.620441 -123.428802 -64.224014 53.844162 -46.420605 -32.612804 0.918686 3.158197 -125.585236 -26.582558 -23.003807 90.640259 -2.420672 4.603146 46.571953 12.443438 8.067223 -122.445549 -0.564237 -53.624886 90.787865 -46.840645 -14.884604 46.617649 -29.756138 -14.643754 12.295018 44.979065 -59.586670 -11.515731 16.413988 -12.139161
0.802152 -0.221185 -2.026866 5.388538 53.555264 11.744233 -164.677429 -3.030610 5.099919 -12.138571 -1.855987 3.767541 -125.131668 30.525087 -54.702351 104.726006 -22.342146 46.372044 42.477268 -19.389915 -130.733368 -102.260956 -51.402206 -148.057144 -104.627052 -0.244107 -15.178662 -0.777165 -18.516426 -3.009723 35.632683 58.840874 -71.518387 105.566338 -39.606895 -135.896729 -80.750366 57.887341 -55.629116 -32.445339 1.476808 4.902492 -121.543480 -28.996323 -25.375139 86.114990 -2.636978 5.168389 49.989594 15.902821 10.944473 -119.163246 -4.706353 -53.710423 88.681152 -50.079853 -13.084475 36.263245 -35.056000 -12.481338 -163.966827 72.960258 155.910446 -13.446831 -25.265806 -2.382077
0.740330 -0.231177 -1.944322 1.380897 51.891430 8.335867 -162.637756 -3.161852 4.070907 -14.393458 0.116809 2.075733 -124.813515 31.416195 -54.226318 104.146507 -23.682871 49.330345 41.109524 -19.619797 -127.468018 -93.748505 -48.402515 -148.981445 -114.152649 -4.563271 -25.612453 -7.562710 -24.024183 -1.940761 37.463108 62.361374 -70.484970 108.802711 -33.219666 -140.879456 -98.429405 55.585640 -66.985237 -23.964972 -3.090948 7.989487 -123.064194 -32.455288 -25.979126 86.028450 -5.013763 5.697516 51.360165 17.246513 11.476851 -118.392937 -7.325128 -49.358139 91.643402 -53.013042 -8.389558 18.625929 -42.925373 -6.968577 179.153046 45.583241 160.835144 -32.170086 -54.544544 20.835312
0.682329 -0.236661 -1.860346 -0.088063 50.282677 7.398933 -162.601349 -4.339390 2.365283 -14.760557 3.022350 -0.202561 -124.877136 32.700481 -54.538681 102.997246 -25.004419 51.346470 35.388382 -18.531513 -123.124832 -85.596146 -47.977936 -148.537796 -111.225700 -10.686935 -39.342255 -16.050793 -31.996386 3.694136 35.513557 62.089134 -72.244469 113.820793 -33.826881 -138.847763 -105.817612 48.864861 -74.017311 -12.783978 -8.678493 9.449961 -127.882416 -33.233368 -23.817566 90.330116 -8.696956 5.796083 48.763821 19.085051 10.857229 -120.527000 -8.420621 -40.739353 96.894081 -51.993469 0.183475 6.241876 -47.706169 -1.014741 179.506973 42.680801 168.827789 -63.681709 -59.328148 54.299351
0.626104 -0.238094 -1.767059 0.426325 51.252609 8.139681 -164.445770 -6.046906 0.902604 -13.216949 5.591473 -2.169852 -124.928917 34.144207 -54.874176 101.670502 -26.271652 51.941929 25.256880 -15.996798 -118.014542 -77.564919 -48.738358 -149.694427 -104.589066 -15.786777 -53.264523 -20.927856 -40.108871 11.676388 31.018684 58.150486 -75.446465 117.081787 -42.078091 -129.499084 -101.338310 44.987278 -73.235039 -1.251711 -12.458722 8.114682 -130.711975 -32.155304 -21.719116 96.154892 -11.779015 4.040874 40.147900 22.292553 9.002440 -121.237038 -8.392323 -33.971867 98.166748 -45.118740 12.465914 10.995407 -49.892582 -2.163017 -167.638153 51.481182 179.254715 -76.249908 -50.139420 65.136009
0.565835 -0.235017 -1.660888 -2.212712 52.312313 5.263366 -165.541946 -7.700002 0.627670 -10.619800 7.198581 -2.981131 -124.851135 35.514786 -55.145752 101.705948 -26.511248 50.922581 16.420635 -14.002236 -113.822105 -78.094200 -50.550056 -147.595276 -100.265320 -21.065325 -61.146923 -22.033951 -46.043278 17.594688 28.614103 53.047871 -76.198296 113.832390 -48.255177 -114.024200 -88.631691 50.456161 -65.600555 8.875978 -19.316956 5.040605 -135.268631 -30.462297 -20.721687 99.193825 -12.025861 2.738571 30.134920 24.349585 6.100732 -117.477386 -6.521639 -29.217014 93.706322 -38.474342 21.947315 30.362497 -47.861862 -10.331633 -129.664703 64.365654 -153.723022 -74.158752 -38.595749 55.385197
0.500263 -0.232169 -1.546482 -6.320425 51.806122 0.967190 -164.265610 -10.619639 0.934964 -8.258473 8.131688 -2.885449 -124.935181 36.385689 -55.756111 103.013855 -25.734682 48.674522 13.504044 -13.483052 -112.656410 -88.376099 -52.104813 -140.646088 -101.771660 -21.877848 -58.515518 -26.751656 -44.956146 20.941961 27.933325 49.525406 -75.114349 102.580368 -42.094547 -98.436401 -64.945328 56.806969 -37.621166 18.946318 -28.431307 -0.011840 -141.006714 -26.792706 -20.357758 98.452469 -10.129642 2.942403 25.725765 25.902563 4.395835 -112.024170 -2.784815 -26.834118 87.843941 -35.347462 27.820927 52.739697 -41.746239 -19.855415 -53.381931 60.959072 -97.648979 -68.118568 -24.940626 34.260925
0.436841 -0.226644 -1.436780 -7.074715 50.077187 -0.933280 -162.751053 -13.266584 1.855041 -7.091250 7.949811 -1.821461 -125.277382 37.112556 -56.989197 104.737793 -24.223778 46.037407 16.882303 -13.285526 -114.155388 -98.696167 -51.761181 -133.763885 -106.464058 -15.763731 -44.837887 -36.003422 -33.262737 20.361605 28.587828 48.037338 -72.572731 93.716629 -30.951042 -92.133530 -49.998367 50.131039 2.321719 33.582916 -36.550175 -8.660424 -144.674316 -24.323668 -20.515974 91.584038 -6.553757 2.879260 31.957582 26.451822 5.103025 -108.825912 2.847043 -27.966703 75.982666 -34.208809 33.296894 69.551186 -36.656242 -28.553974 -5.185400 38.531891 -76.476898 -64.186264 -5.492829 9.045187
0.376043 -0.229868 -1.334511 -4.827638 49.367264 0.055886 -161.678192 -14.504883 3.822372 -7.746659 8.485697 -0.760420 -126.025620 37.790203 -59.157207 107.043747 -21.512163 43.840931 25.353800 -13.006247 -117.469299 -113.062057 -48.802841 -126.111404 -104.359222 -9.086145 -24.821854 -42.092014 -16.782511 14.307113 30.414654 47.035538 -69.936790 86.811935 -25.642088 -88.027374 -69.200218 43.563374 23.175009 53.003403 -43.542927 -21.350925 -145.266876 -23.543777 -22.012791 78.419266 -2.321556 2.741899 46.620064 24.280226 6.943150 -106.866776 10.305838 -30.699736 61.249027 -38.514694 38.571827 74.520233 -36.173935 -34.483334 26.129368 17.471876 -73.737213 -63.662373 18.461441 -14.112688
0.319636 -0.233728 -1.240586 -3.339599 47.753681 1.516703 -161.683319 -14.970087 5.566069 -9.796916 8.560781 0.271752 -126.568901 37.639046 -61.233238 110.074661 -18.574099 42.322083 34.349594 -12.727335 -121.739403 -120.604729 -44.836540 -126.124329 -96.700996 -8.052799 -11.807525 -38.603607 -6.290783 9.238188 29.802944 44.323410 -72.111336 83.255470 -27.655695 -78.975060 -103.019859 43.302280 25.848101 64.005737 -41.540619 -26.458317 -143.696884 -24.079655 -22.804873 67.500084 2.217069 3.255977 58.813805 22.798597 8.429212 -106.710434 14.158224 -33.242321 54.560547 -47.196224 42.588329 69.970673 -39.560253 -36.046333 48.266129 3.103436 -76.956436 -61.782345 41.829365 -22.402798
0.269856 -0.239053 -1.151072 -2.051546 47.046745 3.324694 -163.303299 -14.198034 7.157857 -13.032072 8.138702 0.953493 -126.734116 36.672966 -62.866104 113.501251 -15.857601 41.683079 39.648239 -12.911908 -124.536415 -119.872246 -43.666424 -131.302475 -92.559914 -11.552783 -12.160744 -24.120285 -8.628659 9.550909 28.076576 40.025593 -77.462776 84.882553 -44.354553 -66.593933 -130.534378 39.336422 12.253079 51.643909 -28.650377 -15.018726 -139.042877 -24.944050 -24.893763 61.022034 5.689425 6.143073 64.216942 21.548338 8.802299 -106.182533 12.335196 -32.835331 51.073025 -53.346767 40.808075 66.609505 -41.606358 -33.212013 61.809338 -4.802869 -82.776665 -47.348499 55.837967 -8.433433
0.220819 -0.249832 -1.058905 -0.549883 47.652012 1.883693 -165.065399 -12.591475 6.325663 -15.390701 6.157153 -0.315783 -126.931175 35.100178 -64.432404 117.467468 -13.142368 42.364277 41.691948 -13.951351 -125.371010 -113.871384 -42.850246 -140.167969 -94.450554 -11.919754 -20.743448 -6.768518 -25.886560 8.954644 29.305902 36.175884 -80.922478 46.276253 -72.674538 -8.604479 -135.213806 22.638033 -16.155491 26.338261 -13.695611 -2.959072 -135.278046 -22.064793 -22.588078 65.235336 8.812412 12.839819 62.104477 19.243004 7.398149 -104.381096 13.255989 -33.081512 56.632435 -54.861717 29.024672 60.981331 -42.047119 -25.385269 65.271637 -6.073321 -86.086044 -26.819191 54.051022 14.980168
0.173606 -0.249158 -0.963417 1.663121 49.644436 1.257419 -167.652344 -10.507565 5.476788 -17.210386 3.651157 -1.422221 -127.165291 33.203373 -65.815186 122.299561 -11.199074 43.455421 43.816437 -14.596435 -125.945267 -103.749771 -41.094086 -149.673721 -97.573280 -7.252773 -26.693113 7.126155 -42.469032 1.414044 30.561110 33.780708 -84.297035 -23.755327 -58.005753 76.653229 -106.748436 5.621092 -57.230289 -2.846168 -1.754621 3.312047 -131.456787 -19.590534 -17.425890 71.625786 14.342063 22.369171 56.964214 17.027218 6.624329 -103.806183 13.142169 -35.403503 66.170982 -52.700050 16.020021 56.255547 -41.432430 -18.109413 60.726677 -1.582636 -83.861786 -17.249369 40.853333 28.790083
0.123749 -0.245965 -0.865451 -2.842787 51.156769 -1.297871 -165.440948 -8.347055 5.289698 -16.602848 3.509201 -0.920890 -127.594719 31.463619 -67.008743 127.590820 -10.312691 45.141560 45.465614 -13.120183 -126.901833 -92.294235 -40.906040 -156.884155 -96.367325 -0.514539 -22.760500 8.652329 -41.218552 -4.985335 29.958830 33.022758 -87.905708 -32.774853 -40.605465 87.937782 -74.355034 8.283631 -85.336716 -23.970373 4.582822 4.836461 -130.769119 -24.507164 -20.834703 62.826180 17.585619 19.523836 55.997757 13.323926 6.352018 -101.211830 9.658154 -40.868782 74.522896 -51.159554 7.583364 57.251587 -42.863621 -18.078844 50.550106 8.412590 -75.425621 -17.131678 18.809261 35.134861
0.068232 -0.243013 -0.767845 0.674819 49.320953 0.873636 -165.428894 -5.168893 4.990777 -15.984472 2.514343 -1.048714 -128.379990 30.104204 -68.093750 133.178833 -10.510302 47.473976 45.602562 -9.790204 -127.425064 -84.061302 -41.157024 -160.837234 -92.318672 1.933496 -13.710913 -0.119607 -28.482058 -6.148366 28.505468 33.517910 -89.997849 -36.283611 -31.699736 87.388390 -57.455772 13.461280 -94.278610 -30.721277 3.906972 5.929929 -128.132919 -25.947664 -18.639460 59.954327 21.302538 23.234840 60.495270 8.917110 5.392688 -107.425308 8.603059 -47.969276 86.992416 -52.288078 0.720308 53.172333 -47.308758 -20.592878 36.601387 25.507868 -63.324402 -25.395557 -12.535713 42.212990
0.011708 -0.236089 -0.667556 8.441747 49.266453 7.400798 -166.997604 -1.062426 5.158099 -15.949553 0.681029 -0.511862 -129.718857 28.914412 -69.265800 138.667938 -11.946962 50.037060 42.046078 -6.084107 -126.453979 -81.235893 -43.975136 -159.170563 -90.295975 -0.811170 -10.723190 -8.706656 -20.201223 -3.810498 26.556364 34.611797 -91.665291 -40.534851 -32.327770 81.097916 -50.395054 14.239112 -93.800713 -29.040508 6.546254 3.585112 -123.437424 -25.663418 -18.643797 61.369915 19.350193 29.230520 64.080002 7.031449 4.608126 -120.570374 4.769831 -53.144791 95.204803 -57.744549 -1.599843 48.345196 -51.686150 -24.007349 19.320528 46.555977 -56.108105 -47.874714 -43.359959 57.560692
-0.042530 -0.224667 -0.568779 11.756907 51.817471 13.759698 -165.374969 2.167833 5.416185 -14.854997 -1.676254 0.626213 -131.704376 27.562138 -70.785889 143.245819 -14.362327 53.573238 34.394592 -3.281416 -123.721573 -81.856430 -46.792156 -156.965698 -94.569969 -2.369249 -25.949984 -20.246290 -26.460455 5.667672 24.438471 36.402489 -92.019150 -48.192558 -40.566868 74.146271 -50.303223 12.180485 -86.447258 -25.381771 14.796061 -2.104605 -117.978043 -24.428921 -18.239231 61.735420 10.493737 32.181747 64.371033 7.571039 4.953748 -128.539749 0.962286 -51.340202 73.959267 -60.515816 15.836071 48.300049 -53.205574 -27.655912 -12.192266 62.645302 -69.864967 -85.597023 -55.090466 86.495720
-0.092141 -0.227324 -0.473376 18.126631 56.479660 21.907789 -164.940598 5.797161 5.455001 -15.583168 -3.780467 2.111653 -134.134537 25.940449 -73.076096 146.942078 -16.959230 57.911961 27.210672 -2.301709 -119.675209 -88.119431 -48.943058 -154.440445 -106.334587 -5.383526 -64.879059 -37.360924 -41.538078 22.883793 24.656223 39.088047 -88.656479 -55.754951 -52.650791 71.075935 -59.934662 16.217253 -75.479820 -23.904612 20.908115 -6.356817 -115.798691 -21.860182 -20.917749 65.132210 -0.766556 30.646744 63.561047 9.521700 6.638718 -130.363800 1.261843 -48.146534 39.547913 -52.828945 36.605118 49.639385 -50.177044 -26.830664 -69.146782 66.400780 -113.936172 -112.546196 -51.586304 104.228699
-0.138716 -0.241202 -0.383645 20.883453 60.284290 25.115849 -164.609436 7.039272 5.005022 -18.002804 -6.829373 3.581204 -136.460266 23.844481 -76.318123 149.870102 -19.272476 62.635994 22.730085 -2.273050 -116.139847 -89.537071 -54.262589 -149.908661 -114.485901 -10.276521 -101.594772 -56.051891 -45.784061 35.215721 26.920938 44.410275 -84.036743 -56.698326 -68.442062 58.646973 -72.915977 33.025551 -68.430862 -26.043949 23.688757 -7.979153 -116.933189 -20.350834 -22.345411 76.868225 -8.293285 27.581362 59.797245 12.318776 8.949260 -127.207993 2.377497 -50.980034 19.647448 -47.021519 46.475025 47.697784 -46.412231 -23.153091 -111.850601 59.548203 -150.359924 -123.282532 -46.705399 104.262856
-0.184120 -0.250615 -0.302448 22.292645 61.168274 25.001579 -165.156158 5.761624 4.623997 -22.054089 -8.854641 5.164615 -137.901550 21.553848 -80.106392 152.395630 -20.982811 66.861099 22.539120 -4.969310 -115.129471 -84.391502 -55.319897 -146.767853 -115.801521 -12.642383 -110.895813 -59.431507 -39.807571 31.351400 28.257376 52.038261 -81.538269 -21.780430 -81.497368 4.976923 -85.824142 45.821133 -70.553146 -24.516457 20.663330 -5.228168 -120.939873 -20.226408 -23.455048 85.729973 -13.745494 25.069469 54.180405 15.182460 10.315392 -125.760223 2.936853 -53.113594 13.325330 -46.153759 51.784523 45.804989 -45.628162 -22.131021 -133.518936 59.709545 -176.395630 -115.153885 -40.099800 87.399384
-0.229075 -0.271323 -0.220736 18.519064 59.193436 17.672964 -164.407227 1.741778 3.240465 -25.832378 -9.351681 5.451588 -138.193222 19.608864 -83.976280 155.837509 -21.691980 69.269096 24.332745 -9.165372 -115.348160 -76.399582 -50.688183 -147.530090 -111.083473 -15.696904 -101.801689 -51.765003 -31.853418 22.687956 29.940201 58.459286 -79.100143 36.921600 -77.400299 -71.783394 -96.596153 47.461929 -74.176239 -15.945250 11.438036 0.416299 -126.154068 -22.537483 -27.414202 91.729828 -18.316525 25.382357 47.310486 16.889326 9.355795 -124.385239 5.811545 -57.016712 15.779348 -54.885136 55.697014 43.647514 -48.318409 -22.706430 -155.530701 70.362564 148.761978 -93.608902 -24.795048 54.973198
-0.272649 -0.283881 -0.140166 10.885941 52.562286 6.449964 -161.473770 -4.504951 2.251095 -28.301115 -8.192534 4.765241 -137.642212 18.369625 -87.905891 160.613220 -21.526701 69.270088 25.384899 -12.116030 -116.315002 -74.636375 -45.252838 -148.333954 -104.488434 -22.544083 -95.358955 -47.925743 -25.537594 19.724159 32.846634 61.205280 -76.620560 43.001808 -70.011131 -85.313652 -110.112961 44.031971 -79.939537 -8.636577 0.614447 4.031927 -133.821259 -25.393593 -27.937878 96.963783 -19.501595 20.813446 38.031174 18.654036 6.581965 -119.203430 5.818309 -63.540646 28.820679 -61.544037 54.414314 41.349274 -52.029789 -23.843046 113.610748 80.442299 39.356323 -75.133392 6.917778 17.435026
-0.313492 -0.284757 -0.061605 6.197948 44.104122 -0.526694 -158.338013 -11.702359 0.952603 -29.845917 -4.920716 3.684755 -136.519943 18.048492 -91.627388 166.070786 -20.498476 67.446701 26.105146 -14.715172 -116.669090 -81.377586 -38.648102 -148.885132 -101.770546 -29.892714 -95.553009 -46.905998 -22.993593 21.877100 36.863461 59.667294 -73.178749 49.283463 -71.770081 -80.206375 -125.655418 37.979263 -80.877708 -1.543532 -8.948226 3.953227 -142.792770 -28.578470 -25.475763 98.473465 -19.159435 20.419870 28.377836 19.902594 2.947520 -110.075302 8.721927 -69.676521 34.741261 -60.868443 48.831135 48.290710 -52.735146 -28.249275 62.506779 55.893326 -30.793568 -72.017487 33.933563 -14.712085
-0.346457 -0.286473 0.015188 6.719738 41.263035 -1.885987 -157.316010 -18.705347 -0.177352 -30.116129 -1.117001 3.156608 -135.299973 18.625654 -95.116409 171.503769 -18.463129 65.239044 27.163576 -17.231812 -116.517403 -87.448631 -34.471638 -149.899490 -102.109840 -32.693687 -95.760780 -45.480022 -21.128468 22.636482 41.032074 55.002010 -69.274017 52.083622 -80.505753 -52.185162 -141.160568 33.873192 -78.437309 5.774216 -17.772438 1.500807 -149.307907 -29.492773 -23.634817 95.817429 -16.140718 23.644110 26.452976 19.835489 1.042455 -99.743889 17.523716 -71.681671 26.330059 -56.362473 49.535595 53.241901 -50.247364 -29.211412 58.113384 27.593000 -51.451263 -75.462868 42.056419 -40.756901
